name	address	city	state	zip	url
PANINI PETE'S	42 1/2 South Section St.	Fairhope	AL	36526	https://www.dinersdriveinsdiveslocations.com/panini-petes-alabama.html
GUMBO SHACK	212 Fairhope Ave.	Fairhope	AL	36532	https://www.dinersdriveinsdiveslocations.com/gumbo-shack-alabama.html
MANCI'S ANTIQUE CLUB	1715 Main St.	Daphne	AL	36526	https://www.dinersdriveinsdiveslocations.com/mancis-antique-club-alabama.html
SUNSET POINTE	831 N Section St	Fairhope	AL	36532	https://www.dinersdriveinsdiveslocations.com/sunset-pointe-alabama.html
THE HUMMINGBIRD WAY	351 George St	Mobile	AL	36604	https://www.dinersdriveinsdiveslocations.com/the-hummingbird-way-alabama.html
ROOSTERS	211 Dauphin St	Mobile	AL	36602	https://www.dinersdriveinsdiveslocations.com/roosters-alabama.html
SQUID INK ECLECTIC EATS AND DRINKS	102 Dauphin St	Mobile	AL	36602	https://www.dinersdriveinsdiveslocations.com/squid-ink-eclectic-eats-drinks-alabama.html
ERROR	ERROR	ERROR	ERROR	ERROR	ERROR
PAGODA	431 N Santa Claus Ln	North Pole	AK	99705	https://www.dinersdriveinsdiveslocations.com/pagoda-alaska.html
ELF'S DEN	2556 Mistletoe Dr	North Pole	AK	99705	https://www.dinersdriveinsdiveslocations.com/elfs-den-alaska.html
COUNTRY CAFE	235 N Santa Claus Ln	North Pole	AK	99705	https://www.dinersdriveinsdiveslocations.com/country-cafe-alaska.html
BIG DADDY'S BBQ & BANQUET	107 Wickersham St	Fairbanks	AK	99701	https://www.dinersdriveinsdiveslocations.com/big-daddys-bbq-bnquet-alaska.html
COOKIE JAR	1006 Cadillac Ct	Fairbanks	AK	99701	https://www.dinersdriveinsdiveslocations.com/cookie-jar-alaska.html
SILVER GULCH BREWING	2195 Old Steese Hwy N	Fairbanks	AK	99712	https://www.dinersdriveinsdiveslocations.com/silver-gulch-brewing-alaska.html
PUCKER WILSON'S	311 Whittier St	Juneau	AK	99801	https://www.dinersdriveinsdiveslocations.com/pucker-wilsons-alaska.html
BUN DADDY	350 Whittier St	Juneau	AK	99801	https://www.dinersdriveinsdiveslocations.com/bun-daddy-alaska.html
FORNO ROSSO PIZZERIA	356 S Franklin St	Juneau	AK	99801	https://www.dinersdriveinsdiveslocations.com/forno-rosso-pizzeria-alaska.html
ZERELDA'S BISTRO	9351 Glacier Hwy	Juneau	AK	99801	https://www.dinersdriveinsdiveslocations.com/zereldas-bistro-alaska.html
IN BOCCA AL LUPO	120 2nd St	Juneau	AK	99801	https://www.dinersdriveinsdiveslocations.com/in-bocca-al-lupo-alaska.html
V'S CELLAR DOOR	222 Seward St	Juneau	AK	99801	https://www.dinersdriveinsdiveslocations.com/vs-cellar-door-alaska.html
THE HUNGRY ROBOT	910 Old Steese Hwy, Suite C	Fairbanks	AK	99701	https://www.dinersdriveinsdiveslocations.com/the-hungry-robot-alaska.html
HARI ON CUISINE OF INDIA	1528 S Cushman St	Fairbanks	AK	99701	https://www.dinersdriveinsdiveslocations.com/hari-om-cuisine-of-india-alaska.html
LAVELLE'S BISTRO	575 1st Ave	Fairbanks	AK	99701	https://www.dinersdriveinsdiveslocations.com/lavelles-bistro-alaska.html
MEIN DINER FOOD TRUCK	1951 Fox Avenue	Fairbanks	AK	99701	https://www.dinersdriveinsdiveslocations.com/mein-diner-food-truck-alaska.html
JAZZ BISTRO ON 4TH	527 4th Ave B	Fairbanks	AK	99701	https://www.dinersdriveinsdiveslocations.com/jazz-bistro-on-4th-alaska.html
SALTY'S ON 2ND	706 2nd Ave	Fairbanks	AK	99701	https://www.dinersdriveinsdiveslocations.com/saltys-on-2nd-alaska.html
SEOUL CASA	601 E Dimond Blvd #6th	Anchorage	AK	99515	https://www.dinersdriveinsdiveslocations.com/seoul-casa-alaska.html
ORIGINALE	400 D St	Anchorage	AK	99501	https://www.dinersdriveinsdiveslocations.com/originale-alaska.html
TEQUILA 61	445 W 4th Ave	Anchorage	AK	99501	https://www.dinersdriveinsdiveslocations.com/tequila-61-alaska.html
WAFFLES AND WHATNOT	500 Muldoon Rd #5	Anchorage	AK	99504	https://www.dinersdriveinsdiveslocations.com/waffles-and-whatnot-alaska.html
HAUTE QUARTER GRILL	525 W 4th Ave	Anchorage	AK	99501	https://www.dinersdriveinsdiveslocations.com/haute-quarter-grill-alaska.html
RAY'S PLACE	2412 Spenard Rd	Anchorage	AK	99503	https://www.dinersdriveinsdiveslocations.com/rays-place-vietnamese-cuisine-alaska.html
MATT'S BIG BREAKFAST	825 N. 1st St.	Phoenix	AZ	85004	https://www.dinersdriveinsdiveslocations.com/matts-big-breakfast-arizona.html
ROBERTO'S MEXICAN FOOD	39510 N. Daisy Mountain Dr. Suite #170	Phoenix	AZ	85086	https://www.dinersdriveinsdiveslocations.com/robertos-mexican-food-arizona.html
THEE PITT'S AGAIN	5558 W. Bell Rd.	Glendale	AZ	85308	https://www.dinersdriveinsdiveslocations.com/thee-pitts-again-arizona.html
CHINO BANDIDO	15414 N 19th Ave Suite K	Phoenix	AZ	85023	https://www.dinersdriveinsdiveslocations.com/chino-bandido-arizona.html
JOE'S FARM GRILL	3000 East Ray Rd. Bldg. 1	Gilbert	AZ	85296	https://www.dinersdriveinsdiveslocations.com/joes-farm-grill-arizona.html
AUNT LENA'S CREAMERY	4040 S Arizona Ave	Chandler	AZ	85248	https://www.dinersdriveinsdiveslocations.com/aunt-lenas-creamery-arizona.html
SALSA BRAVA	2220 E Route 66	Flagstaff	AZ	86004	https://www.dinersdriveinsdiveslocations.com/salsa-brava-arizona.html
HAUS MURPHY'S	5739 W Glendale Ave	Glendale	AZ	85301	https://www.dinersdriveinsdiveslocations.com/haus-murphys-arizona.html
BRANDY'S RESTAURANT & BAKERY	1500 E Cedar Avenue	Flagstaff	AZ	86004	https://www.dinersdriveinsdiveslocations.com/brandys-restaurant-bakery-arizona.html
LA PIAZZA AL FORNA	5803 W Glendale Ave	Glendale	AZ	85301	https://www.dinersdriveinsdiveslocations.com/la-piazza-al-forno-arizona.html
GIUSEPPE'S ON 28TH	2824 E. Indian School Rd.	Phoenix	AZ	85016	https://www.dinersdriveinsdiveslocations.com/giuseppes-italian-kitchen-arizona.html
LOS TAQUITOS GRILL	4747 East Elliot Rd.	Phoenix	AZ	85044	https://www.dinersdriveinsdiveslocations.com/los-taquitos-grill-arizona.html
OVER EASY	4730 E. Indian School Rd., #123	Phoenix	AZ	85018	https://www.dinersdriveinsdiveslocations.com/over-easy-arizona.html
PERK EATERY	6501 E Greenway Pkwy	Scottsdale	AZ	85254	https://www.dinersdriveinsdiveslocations.com/perk-eatery-arizona.html
ST FRANCIS RESTAURANT	111 E Camelback Rd	Phoenix	AZ	85012	https://www.dinersdriveinsdiveslocations.com/st-francis-restaurant-arizona.html
BARRIO CAFE	2814 N 16th St	Phoenix	AZ	85006	https://www.dinersdriveinsdiveslocations.com/barrio-cafe-arizona.html
CURRY CORNER	1212 E Apache Blvd	Tempe	AZ	85281	https://www.dinersdriveinsdiveslocations.com/curry-corner-arizona.html
DUCE	525 S Central Ave	Phoenix	AZ	85004	https://www.dinersdriveinsdiveslocations.com/duce-arizona.html
DEFALCO'S ITALIAN GROCERY	2334 N Scottsdale Rd, Ste A133	Scottsdale	AZ	85257	https://www.dinersdriveinsdiveslocations.com/defalcos-italian-grocery-arizona.html
TOM'S THUMB FRESH MARKET	9393 East Bell Road, Ste A133	Scottsdale	AZ	85260	https://www.dinersdriveinsdiveslocations.com/toms-thumb-fresh-market-arizona.html
ANDREOLI ITALIAN GROCER	8880 East Via Linda	Scottsdale	AZ	85258	https://www.dinersdriveinsdiveslocations.com/andreoli-italian-grocer-arizona.html
PARADISE VALLEY BURGER	4001 East Bell Road #102	Phoenix	AZ	85032	https://www.dinersdriveinsdiveslocations.com/paradise-valley-burger-company-arizona.html
WILD THAIGER	2631 North Central Avenue	Phoenix	AZ	85004	https://www.dinersdriveinsdiveslocations.com/wild-thaiger-arizona.html
LA SANTISIMA GOURMET TACO SHOP	1919 N. 16th St	Phoenix	AZ	85006	https://www.dinersdriveinsdiveslocations.com/la-santisima-gourmet-taco-shop-arizona.html
SAL'S GILBERT PIZZA	1150 South Gilbert Road	Gilbert	AZ	85296	https://www.dinersdriveinsdiveslocations.com/sals-gilbert-pizza-arizona.html
FAT OLIVES	2308 Historic Rte 66	Flagstaff	AZ	86004	https://www.dinersdriveinsdiveslocations.com/fat-olives-arizona.html
GRUBSTAK	384 N Gilbert Rd #106	Gilbert	AZ	85234	https://www.dinersdriveinsdiveslocations.com/grubstak-arizona.html
TACO CHIWAS	1923 E McDowell Rd	Phoenix	AZ	85006	https://www.dinersdriveinsdiveslocations.com/tacos-chiwas-arizona.html
REPUBLIC EMPANADA	204 E 1st Ave	Mesa	AZ	85210	https://www.dinersdriveinsdiveslocations.com/republica-empanada-arizona.html
BOOTLEGGERS	3375 E Shea Blvd	Phoenix	AZ	85028	https://www.dinersdriveinsdiveslocations.com/bootleggers-modern-american-smokehouse-arizona.html
SLANTED RICE	6149 N Scottsdale Rd	Scottsdale	AZ	85250	https://www.dinersdriveinsdiveslocations.com/slanted-rice-vietnamese-bistro-arizona.html
ALOHA KITCHEN	2950 S Alma School Rd #12	Mesa	AZ	85210	https://www.dinersdriveinsdiveslocations.com/aloha-kitchen-arizona.html
RENEE'S ORGANIC OVEN	7065 E Tanque Verde Rd	Tucson	AZ	85715	https://www.dinersdriveinsdiveslocations.com/renees-organic-oven-arizona.html
ZEMAM'S	2731 E Broadway Blvd	Tucson	AZ	85716	https://www.dinersdriveinsdiveslocations.com/zemams-arizona.html
TUMERICO	2526 E 6th St	Tucson	AZ	85716	https://www.dinersdriveinsdiveslocations.com/tumerico-arizona.html
CHEF ALISAH	5931 N Oracle Rd #117	Tucson	AZ	85704	https://www.dinersdriveinsdiveslocations.com/chef-alisah-arizona.html
INCA'S PERUVIAN CUISINE	6878 E Sunrise Dr	Tucson	AZ	85750	https://www.dinersdriveinsdiveslocations.com/incas-peruvian-cuisine-arizona.html
ROCCO'S LITTLE CHICAGO PIZZERIA	2707 E Broadway Blvd	Tucson	AZ	85716	https://www.dinersdriveinsdiveslocations.com/roccos-little-chicago-pizzeria-arizona.html
FLYWAY BREWING	314 Maple St	North Little Rock	AR	72114	https://www.dinersdriveinsdiveslocations.com/flyway-brewing-arkansas.html
NORTH BAR	3812 J.F.K. Blvd	North Little Rock	AR	72116	https://www.dinersdriveinsdiveslocations.com/north-bar-arkansas.html
THE ROOT CAFE	1500 Main St	Little Rock	AR	72202	https://www.dinersdriveinsdiveslocations.com/the-root-cafe-arkansas.html
BRUNO'S LITTLE ITALY	310 Main St #101	Little Rock	AR	72201	https://www.dinersdriveinsdiveslocations.com/brunos-little-italy-arkansas.html
LA TERRAZA RUM & LOUNGE	3000 Kavanaugh Blvd #202	Little Rock	AR	72205	https://www.dinersdriveinsdiveslocations.com/la-terraza-rum-lounge-arkansas.html
THE FOLD BOTANAS & BAR	3501 Old Cantrell Rd	Little Rock	AR	72202	https://www.dinersdriveinsdiveslocations.com/the-fold-botanas-bar-arkansas.html
MAD GREEK'S DINER	72112 Baker Blvd	Baker	CA	92309	https://www.dinersdriveinsdiveslocations.com/mad-greeks-diner-california.html
PATRICK'S ROADHOUSE	106 Entrada Dr.	Santa Monica	CA	90402	https://www.dinersdriveinsdiveslocations.com/patricks-roadhouse-california.html
GAFFEY STREET DINER	247 N. Gaffey St.	San Pedro	CA	90731	https://www.dinersdriveinsdiveslocations.com/gaffey-street-diner-california.html
SHOW DOGS	1020 Market St	San Francisco	CA	94102	https://www.dinersdriveinsdiveslocations.com/show-dogs-california.html
SQUEEZE INN	5301 PowerInn Rd.	Sacramento	CA	95820	https://www.dinersdriveinsdiveslocations.com/squeeze-inn-california.html
HANK'S CREEKSIDE RESTAURANT	2800 4th St.	Santa Rosa	CA	95405	https://www.dinersdriveinsdiveslocations.com/hanks-creekside-restaurant-california.html
TAYLOR'S AUTOMATIC REFRESHER	933 Main Street	St. Helena	CA	94574	https://www.dinersdriveinsdiveslocations.com/taylors-automatic-refresher-california.html
THE RUSSIAN RIVER PUB	11829 River Rd.	Forestville	CA	95436	https://www.dinersdriveinsdiveslocations.com/the-russian-river-pub-california.html
FALAFEL'S DRIVE-IN	2301 Steven's Creek Blvd.	San Jose	CA	95128	https://www.dinersdriveinsdiveslocations.com/falafels-drive-in-california.html
RAMONA CAFE	628 Main St.	Ramona	CA	92605	https://www.dinersdriveinsdiveslocations.com/ramona-cafe-california.html
EMMA JEAN'S HOLLAND BURGER CAFE	17143 N. D St.	Victorville	CA	92394	https://www.dinersdriveinsdiveslocations.com/emma-jeans-holland-burger-cafe-california.html
HODAD'S	5012 Newport Ave.	Ocean Beach	CA	92107	https://www.dinersdriveinsdiveslocations.com/hodads-california.html
DUARTE'S TAVERN	202 Stage Rd.	Pescadero	CA	94060	https://www.dinersdriveinsdiveslocations.com/duartes-tavern-california.html
JAY BEE'S BAR-B-QUE	15911 S. Avalon Blvd	Gardena	CA	90247	https://www.dinersdriveinsdiveslocations.com/jay-bees-bar-b-que-california.html
WILLIE BIRD'S RESTAURANT	1150 Santa Rosa Ave.	Santa Rosa	CA	95404	https://www.dinersdriveinsdiveslocations.com/willie-birds-restaurant-california.html
GRUBSTAKE DINER	1525 Pine Street	San Francisco	CA	94109	https://www.dinersdriveinsdiveslocations.com/grubstake-diner-california.html
LOS TAPATIOS	354 N White Rd.	San Jose	CA	95127	https://www.dinersdriveinsdiveslocations.com/los-tapatios-california.html
EL INDIO	3695 India St.	San Diego	CA	92103	https://www.dinersdriveinsdiveslocations.com/el-indio-california.html
STUDIO DINER	4701 Ruffin Rd.	San Diego	CA	92123	https://www.dinersdriveinsdiveslocations.com/studio-diner-california.html
SCHOONER OR LATER	241 N. Marina Dr.	Long Beach	CA	90803	https://www.dinersdriveinsdiveslocations.com/schooner-or-later-california.html
JOE'S CABLE CAR	4320 Mission St.	San Francisco	CA	94112	https://www.dinersdriveinsdiveslocations.com/joes-cable-car-california.html
TIOLI'S CRAZEE BURGER	4201 30th Street	San Diego	CA	92104	https://www.dinersdriveinsdiveslocations.com/tiolis-crazee-burger-california.html
PIZZERIA LUIGI	1137 25th St	San Diego	CA	92102	https://www.dinersdriveinsdiveslocations.com/pizzeria-luigi-california.html
TOMMY'S JOYNT	1101 Geary Blvd.	San Francisco	CA	94109	https://www.dinersdriveinsdiveslocations.com/tommys-joynt-california.html
HOB NOB HILL	2271 First Ave	San Diego	CA	92101	https://www.dinersdriveinsdiveslocations.com/hob-nob-hill-california.html
GORILLA BARBEQUE	2145 Coast Highway 1	Pacifica	CA	94044	https://www.dinersdriveinsdiveslocations.com/gorilla-bbq-california.html
GIUSTI'S	14743 Walnut Grove-Thornton Road	Walnut Grove	CA	95690	https://www.dinersdriveinsdiveslocations.com/giustis-california.html
JAMIE'S BAR & GRILL	427 Broadway	Sacramento	CA	95818	https://www.dinersdriveinsdiveslocations.com/jamies-bar-and-grill-california.html
BLUE WATER SEAFOOD MARKET & GRILL	3667 India St	San Diego	CA	92103	https://www.dinersdriveinsdiveslocations.com/blue-water-seafood-market-grill-california.html
CAFE ROLLE	5357 H St	Sacramento	CA	95819	https://www.dinersdriveinsdiveslocations.com/cafe-rolle-california.html
BUBBA'S DINER	566 San Anselmo Ave	San Anselmo	CA	94960	https://www.dinersdriveinsdiveslocations.com/bubbas-diner-california.html
SOL FOOD PUERTO RICAN CUISINE	732 4th St	San Rafael	CA	94901	https://www.dinersdriveinsdiveslocations.com/sol-food-puerto-rican-cuisine-california.html
ROCCO'S CAFE	1131 Folsom Street	San Francisco	CA	94103	https://www.dinersdriveinsdiveslocations.com/roccos-cafe-california.html
DOTTIE'S TRUE BLUE CAFE	28 6th St.	San Francisco	CA	94103	https://www.dinersdriveinsdiveslocations.com/dotties-true-blue-cafe-california.html
POLKA RESTAURANT & CATERING	4112 Verdugo Road	Los Angeles	CA	90065	https://www.dinersdriveinsdiveslocations.com/polka-restaurant-catering-california.html
FAB HOT DOGS	19417 Victory Blvd.	Reseda	CA	91335	https://www.dinersdriveinsdiveslocations.com/fab-hot-dogs-california.html
LA TEXANITA	1667 Sebastopol Road	Santa Rosa	CA	95407	https://www.dinersdriveinsdiveslocations.com/la-texanita-california.html
MOM'S TAMALES	3328 Pasadena Ave.	Los Angeles	CA	90031	https://www.dinersdriveinsdiveslocations.com/moms-tamales-california.html
NICKEL DINER	524 South Main Street	Los Angeles	CA	90012	https://www.dinersdriveinsdiveslocations.com/nickel-diner-california.html
MAMBO's CAFE	1701 Victory Blvd	Glendale	CA	91201	https://www.dinersdriveinsdiveslocations.com/mambos-cafe-california.html
BABY BLUES BBQ	444 Lincoln Blvd.	Venice	CA	90291	https://www.dinersdriveinsdiveslocations.com/baby-blues-bbq-california.html
SANTA CRUZ DINER	909 Ocean St.	Santa Cruz	CA	95060	https://www.dinersdriveinsdiveslocations.com/santa-cruz-diner-california.html
TEE OFF BAR & GRILL	3129 Clement St	San Francisco	CA	94121	https://www.dinersdriveinsdiveslocations.com/tee-off-bar-grill-california.html
Q RESTAURANT	225 Clement Street	San Francisco	CA	94118	https://www.dinersdriveinsdiveslocations.com/q-restaurant-california.html
THE OINKSTER	2005 Colorado Blvd.	Eagle Rock	CA	90041	https://www.dinersdriveinsdiveslocations.com/the-oinkster-california.html
RUDY'S CAN'T FAIL CAFE	4081 Hollis Street	Emeryville	CA	94608	https://www.dinersdriveinsdiveslocations.com/rudys-cant-fail-cafe-california.html
900 GRAYSON RESTAURANT	900 Grayson Street	Berkeley	CA	94710	https://www.dinersdriveinsdiveslocations.com/900-grayson-restaurant-california.html
RICK & ANN'S RESTAURANT	2922 Domingo Ave.	Berkeley	CA	94705	https://www.dinersdriveinsdiveslocations.com/rick-anns-restaurant-california.html
BETTE'S OCEANVIEW DINER	1807 4th St.	Berkeley	CA	94710	https://www.dinersdriveinsdiveslocations.com/bettes-oceanview-diner-california.html
NAGLEE PARK GARAGE	505 East San Carlos St.	San Jose	CA	95112	https://www.dinersdriveinsdiveslocations.com/naglee-park-garage-california.html
ALDO'S HARBOR RESTAURANT	616 Atlantic Ave.	Santa Cruz	CA	95062	https://www.dinersdriveinsdiveslocations.com/aldos-harbor-restaurant-california.html
PIER 23 CAFE	Pier 23	San Francisco	CA	94111	https://www.dinersdriveinsdiveslocations.com/pier-23-cafe-california.html
NORTH END CAFFE	3421 N Highland Ave.	Manhattan Beach	CA	90266	https://www.dinersdriveinsdiveslocations.com/north-end-caffe-california.html
GLORIA'S CAFE	10227 Venice Boulevard	Los Angeles	CA	90034	https://www.dinersdriveinsdiveslocations.com/glorias-cafe-california.html
CAFE CITTI	9049 Sonoma Highway	Kenwood	CA	95452	https://www.dinersdriveinsdiveslocations.com/cafe-citti-california.html
AT LAST CAFE	204 Orange Ave.	Long Beach	CA	90802	https://www.dinersdriveinsdiveslocations.com/at-last-cafe-california.html
SCHELLVILLE GRILL	22900 Broadway	Sonoma	CA	95476	https://www.dinersdriveinsdiveslocations.com/schellville-grill-california.html
JAX AT THE TRACKS	10144 West River St.	Truckee	CA	96160	https://www.dinersdriveinsdiveslocations.com/jax-at-the-tracks-california.html
DON CHOW TACOS	West Los Angeles	Santa Monica	CA		https://www.dinersdriveinsdiveslocations.com/don-chow-tacos-california.html
BURGER ME	10418 Donner Pass Road	Truckee	CA	96161	https://www.dinersdriveinsdiveslocations.com/burger-me-california.html
PAUL'S COFFEE SHOP	16947 Bushard St.	Fountain Valley	CA	92708	https://www.dinersdriveinsdiveslocations.com/pauls-coffee-shop-california.html
MAMA COZZA'S	2170 West Ball Road	Anaheim	CA	92804	https://www.dinersdriveinsdiveslocations.com/mama-cozzas-california.html
BRATS BROTHERS	13355 Ventura Blvd.	Sherman Oaks	CA	91423	https://www.dinersdriveinsdiveslocations.com/brats-brothers-california.html
MEAL TICKET	1235 San Pablo Ave.	Berkeley	CA	94706	https://www.dinersdriveinsdiveslocations.com/meal-ticket-california.html
THE GOLDEN BEAR	2326 K St.	Sacramento	CA	95816	https://www.dinersdriveinsdiveslocations.com/the-golden-bear-california.html
WOW - WORTH OUR WEIGHT	1021 Hahman Dr.	Santa Rosa	CA	95405	https://www.dinersdriveinsdiveslocations.com/wow-worth-our-weight-california.html
GATSBY'S DINER	2598 Alta Arden Expressway	Sacramento	CA	95825	https://www.dinersdriveinsdiveslocations.com/gatsbys-diner-california.html
AUNT MARY'S CAFE	4307 Telegraph Avenue	Oakland	CA	94609	https://www.dinersdriveinsdiveslocations.com/aunt-marys-cafe-california.html
DAD'S KITCHEN	2968 Freeport Blvd	Sacramento	CA	95818	https://www.dinersdriveinsdiveslocations.com/dads-kitchen-california.html
SUNFLOWER CAFFE	421 1st St West	Sonoma	CA	95476	https://www.dinersdriveinsdiveslocations.com/sunflower-caffe-california.html
PUTAH CREEK CAFE	1 Main St.	Winters	CA	95694	https://www.dinersdriveinsdiveslocations.com/putah-creek-cafe-california.html
JIMTOWN STORE	6706 Highway 128	Healdsburg	CA	95448	https://www.dinersdriveinsdiveslocations.com/jimtown-store-california.html
CATELLI'S	21047 Geyserville Ave.	Geyserville	CA	95441	https://www.dinersdriveinsdiveslocations.com/catellis-california.html
HRD COFFEE SHOP	521 #A 3rd St.	San Francisco	CA	94107	https://www.dinersdriveinsdiveslocations.com/hrd-coffee-shop-california.html
BROKEN RECORD	1166 Geneva Ave.	San Francisco	CA	94112	https://www.dinersdriveinsdiveslocations.com/broken-record-california.html
LITO'S MEXICAN RESTAURANT	514 E. Haley St.	Santa Barbara	CA	93103	https://www.dinersdriveinsdiveslocations.com/litos-mexican-restaurant-california.html
MAC'S FISH & CHIP SHOP	503 State St.	Santa Barbara	CA	93101	https://www.dinersdriveinsdiveslocations.com/macs-fish-and-chip-shop-california.html
THE KITCHEN	529 S. A St.	Oxnard	CA	93030	https://www.dinersdriveinsdiveslocations.com/the-kitchen-california.html
NORTON'S PASTRAMI & DELI	18 W. Figueroa St	Santa Barbara	CA	93103	https://www.dinersdriveinsdiveslocations.com/nortons-pastrami-and-deli-california.html
SAVOY CAFE & DELI	24 W. Figueroa St.	Santa Barbara	CA	93101	https://www.dinersdriveinsdiveslocations.com/savoy-cafe-and-deli-california.html
PETE'S BREAKFAST HOUSE	2055 E. Main St.	Ventura	CA	93001	https://www.dinersdriveinsdiveslocations.com/petes-breakfast-house-california.html
JOHNNY GARLIC'S	1460 Farmers Lane	Santa Rosa	CA	95405	https://www.dinersdriveinsdiveslocations.com/johnny-garlics-california.html
GOLDEN STATE	426 N Fairfax Ave	Los Angeles	CA	90036	https://www.dinersdriveinsdiveslocations.com/golden-state-california.html
BEER BELLY	532 S Western Ave	Los Angeles	CA	90020	https://www.dinersdriveinsdiveslocations.com/beer-belly-california.html
CHOMP CHOMP NATION	Moving Food Truck	Orange County	CA	92612	https://www.dinersdriveinsdiveslocations.com/chomp-chomp-nation-california.html
CHILI JOHN'S	2018 W Burbank Blvd	Burbank	CA	91506	https://www.dinersdriveinsdiveslocations.com/chili-johns-california.html
BLUDSO'S BBQ	811 S Long Beach Blvd	Compton	CA	90221	https://www.dinersdriveinsdiveslocations.com/bludsos-bbq-california.html
HAGGO'S ORGANIC TACO	1114 N Coast Hwy	Encinitas	CA	92024	https://www.dinersdriveinsdiveslocations.com/haggos-organic-taco-california.html
THE PARK'S FINEST	811 S Long Beach Blvd	Compton	CA	90221	https://www.dinersdriveinsdiveslocations.com/the-parks-finest-california.html
EASTSIDE MARKET ITALIAN DELI	811 S Long Beach Blvd	Compton	CA	90221	https://www.dinersdriveinsdiveslocations.com/eastside-market-italian-deli-california.html
OB NOODLE HOUSE	2218 Cable St.	San Diego	CA	92107	https://www.dinersdriveinsdiveslocations.com/ob-noodle-house-california.html
SPIRITOS ITALIAN DINER	2508 El Camino Rea	Carlsbad	CA	92008	https://www.dinersdriveinsdiveslocations.com/spiritos-italian-diner-california.html
NOPALITO	306 Broderick St	San Francisco	CA	94117	https://www.dinersdriveinsdiveslocations.com/nopalito-california.html
PICA PICA MAIZE KITCHEN	401 Valencia St	San Francisco	CA	94103	https://www.dinersdriveinsdiveslocations.com/pica-pica-maize-kitchen-california.html
CREST CAFE	425 Robinson Ave	San Diego	CA	92103	https://www.dinersdriveinsdiveslocations.com/crest-cafe-california.html
REFUGE	963 Laurel St	San Carlos	CA	94070	https://www.dinersdriveinsdiveslocations.com/refuge-california.html
MILLER'S EAST COAST DELI	725 Polk St	San Francisco	CA	94109	https://www.dinersdriveinsdiveslocations.com/millers-east-coast-deli-california.html
KOJA KITCHEN	Marina / Cow Hollow	San Francisco	CA	94123	https://www.dinersdriveinsdiveslocations.com/koja-kitchen-california.html
THE FRONT PORCH	65 29th St	San Francisco	CA	94110	https://www.dinersdriveinsdiveslocations.com/the-front-porch-california.html
SENOR SISIG	Financial District	San Francisco	CA	94115	https://www.dinersdriveinsdiveslocations.com/senor-sisig-california.html
HOTEL IVANHOE	315 Main Street	Ferndale	CA	95536	https://www.dinersdriveinsdiveslocations.com/hotel-ivanhoe-california.html
FERNDALE MEAT Co.	376 Main St	Ferndale	CA	95536	https://www.dinersdriveinsdiveslocations.com/ferndale-meat-co-california.html
THE AWESOME PRETZEL CART	Street Food Cart	Ferndale	CA	95536	https://www.dinersdriveinsdiveslocations.com/the-awesome-pretzel-cart-california.html
CLENDENEN'S CIDER WORKS	96 South 12th Street	Fortuna	CA	95540	https://www.dinersdriveinsdiveslocations.com/clendenens-cider-works-california.html
LOLETA CHEESE FACTORY	252 Loleta Dr	Loleta	CA	95551	https://www.dinersdriveinsdiveslocations.com/loleta-cheese-factory-california.html
HUMBOLDT SWEETS BAKERY & CAFE	399 Main St	Ferndale	CA	95536	https://www.dinersdriveinsdiveslocations.com/humboldt-sweets-california.html
LIVE FROM NEW YORK PIZZA	604 F Street	Eureka	CA	95501	https://www.dinersdriveinsdiveslocations.com/pauls-live-from-new-york-pizza-california.html
BRICK & FIRE BISTRO	1630 F St	Eureka	CA	95501	https://www.dinersdriveinsdiveslocations.com/brick-fire-bistro-california.html
BLESS MY SOUL CAFE	29 Fifth Street	Eureka	CA	95501	https://www.dinersdriveinsdiveslocations.com/bless-my-soul-cafe-california.html
CAFE NOONER	409 Opera Alley	Eureka	CA	95501	https://www.dinersdriveinsdiveslocations.com/cafe-nooner-california.html
TAMARINDO FOOD TRUCK	Moving Food Truck	Orange County	CA	92656	https://www.dinersdriveinsdiveslocations.com/tamarindo-food-truck-california.html
FAT SAL'S DELI	972 Gayley Ave	Los Angeles	CA	90024	https://www.dinersdriveinsdiveslocations.com/fat-sals-deli-california.html
LOULOU'S GRIDDLE IN THE MIDDLE	Municipal Wharf 2	Monterey	CA	93940	https://www.dinersdriveinsdiveslocations.com/loulous-griddle-in-the-middle-california.html
THE FACTORY GASTROBAR	4020 Atlantic Ave	Long Beach	CA	90807	https://www.dinersdriveinsdiveslocations.com/the-factory-gastrobar-california.html
STARLING DINER	4114 E 3rd St	Long Beach	CA	90814	https://www.dinersdriveinsdiveslocations.com/starling-diner-california.html
TAVERN ON 2	5110 E 2nd St	Long Beach	CA	90803	https://www.dinersdriveinsdiveslocations.com/tavern-on-2-california.html
CANNERY ROW BREWING COMPANY	95 Prescott Ave	Monterey	CA	93940	https://www.dinersdriveinsdiveslocations.com/cannery-row-brewing-company-california.html
THE WILD PLUM CAFE & BAKERY	434 Alvarado St	Monterey	CA	93940	https://www.dinersdriveinsdiveslocations.com/the-wild-plum-california.html
ROSINE'S RESTAURANT	95 Prescott Ave	Monterey	CA	93940	https://www.dinersdriveinsdiveslocations.com/rosines-california.html
MONTEREY'S FISH HOUSE	2114 Del Monte Ave	Monterey	CA	93940	https://www.dinersdriveinsdiveslocations.com/montereys-fish-house-california.html
LITTLE NAPOLI	Dolores St	Carmel	CA	93923	https://www.dinersdriveinsdiveslocations.com/little-napoli-california.html
FROM SCRATCH RESTAURANT	3626 The Barnyard	Carmel	CA	93923	https://www.dinersdriveinsdiveslocations.com/from-scratch-california.html
SABROSA MEXICAN GRILL	13129 Harbor Blvd	Garden Grove	CA	92843	https://www.dinersdriveinsdiveslocations.com/sabroso-mexican-grill-california.html
RUTTS HAWAIIAN CAFE	12114 W Washington Blvd	Los Angeles	CA	90066	https://www.dinersdriveinsdiveslocations.com/rutts-hawaiian-cafe-california.html
MUERTOS KITCHEN AND LOUNGE	1514 Wall Street	Bakersfield	CA	93301	https://www.dinersdriveinsdiveslocations.com/muertos-kitchen-and-lounge-california.html
MOO CREAMERY	4885 Truxtun Avenue	Bakersfield	CA	93309	https://www.dinersdriveinsdiveslocations.com/moo-creamery-california.html
24TH STREET CAFE	1415 24th Street	Bakersfield	CA	93301	https://www.dinersdriveinsdiveslocations.com/24th-street-cafe-california.html
SALTY'S BBQ & CATERING	9425 Rosedale Highway	Bakersfield	CA	93312	https://www.dinersdriveinsdiveslocations.com/saltys-bbq-catering-california.html
PYRENEES CAFE	601 Sumner Street	Bakersfield	CA	93305	https://www.dinersdriveinsdiveslocations.com/pyrenees-cafe-california.html
KC'S STEAK HOUSE	2515 F Street	Bakersfield	CA	93301	https://www.dinersdriveinsdiveslocations.com/kcs-steak-house-california.html
MAMA ROOMBA	1814 Eye Street	Bakersfield	CA	93301	https://www.dinersdriveinsdiveslocations.com/mama-roomba-california.html
ATHENA'S GREEK CAFE	2900 Calloway Dr	Bakersfield	CA	93312	https://www.dinersdriveinsdiveslocations.com/athenas-greek-cafe-bakery-california.html
ASIAN EXPERIENCE	215 Center St	Taft	CA	93268	https://www.dinersdriveinsdiveslocations.com/asian-experience-california.html
BIERGARTEN	206 N Western Ave	Los Angeles	CA	90004	https://www.dinersdriveinsdiveslocations.com/biergarten-california.html
CHICHEN ITZA	3655 S Grand Ave	Los Angeles	CA	90007	https://www.dinersdriveinsdiveslocations.com/chichen-itza-california.html
CHA CHA CHILI	4625 Valley Blvd	Los Angeles	CA	90032	https://www.dinersdriveinsdiveslocations.com/cha-cha-chili-california.html
LITTLE JEWEL OF NEW ORLEANS	207 Ord St	Los Angeles	CA	90012	https://www.dinersdriveinsdiveslocations.com/little-jewel-of-new-orleans-california.html
TUBS FINE CHILI	4263 Overland Ave	Culver City	CA	90230	https://www.dinersdriveinsdiveslocations.com/tubs-chili-california.html
BAUER'S 66 1/2 SKILLET AND GRILL	1700 McHenry Ave	Modesto	CA	95350	https://www.dinersdriveinsdiveslocations.com/bauers-66-california.html
FOOD FIX TRUCK	610 N 9th St	Modesto	CA	95350	https://www.dinersdriveinsdiveslocations.com/food-fix-truck-california.html
COMMONWEALTH GASTROPUB	1022 11th St	Modesto	CA	95354	https://www.dinersdriveinsdiveslocations.com/commonwealth-gastropub-california.html
SMITTY'S WINGS AND THINGS	946 Acacia St	Stockton	CA	95203	https://www.dinersdriveinsdiveslocations.com/smittys-wings-and-things-california.html
GIAN'S DELI	2112 Pacific Ave	Stockton	CA	95204	https://www.dinersdriveinsdiveslocations.com/gians-deli-california.html
MIDTOWN CREPERIE	2319 Pacific Ave	Stockton	CA	95204	https://www.dinersdriveinsdiveslocations.com/midtown-creperie-california.html
GREEN PAPAYA FOOD TRUCK	ON THE MOVE	Stockton	CA	95205	https://www.dinersdriveinsdiveslocations.com/green-papaya-california.html
CATHEAD'S BBQ	1665 Folsom St	San Francisco	CA	94103	https://www.dinersdriveinsdiveslocations.com/catheads-bbq-california.html
RADIO AFRICA & KITCHEN	4800 3rd St	San Francisco	CA	94124	https://www.dinersdriveinsdiveslocations.com/radio-africa-kitchen-california.html
EL NUEVO FRUTLANDIA	3077 24th St	San Francisco	CA	94110	https://www.dinersdriveinsdiveslocations.com/el-nuevo-frutilandia-california.html
SOULEY VEGAN	301 Broadway	Oakland	CA	94607	https://www.dinersdriveinsdiveslocations.com/souley-vegan-california.html
COSECHA	907 Washington St	Oakland	CA	94607	https://www.dinersdriveinsdiveslocations.com/cosecha-california.html
CLOVE AND HOOF	4001 Broadway	Oakland	CA	94611	https://www.dinersdriveinsdiveslocations.com/clove-and-hoof-california.html
BELLY & SNOUT	974 S Western Ave	Los Angeles	CA	90006	https://www.dinersdriveinsdiveslocations.com/belly-and-snout-california.html
HAROLD & BELLE'S	2920 W Jefferson Blvd	Los Angeles	CA	90018	https://www.dinersdriveinsdiveslocations.com/harold-and-belles-california.html
DELANCEY	5936 Sunset Blvd	Los Angeles	CA	90028	https://www.dinersdriveinsdiveslocations.com/delancey-california.html
BARONE'S	13726 Oxnard St	Valley Glen	CA	91401	https://www.dinersdriveinsdiveslocations.com/barones-famous-italian-california.html
AZLA	3655 S Grand Ave	Los Angeles	CA	90007	https://www.dinersdriveinsdiveslocations.com/azla-california.html
THE BUN SHOP	151 N Western Ave	Los Angeles	CA	90004	https://www.dinersdriveinsdiveslocations.com/the-bun-shop-california.html
WILMA & FRIEDA'S CAFE	73575 El Paseo	Palm Desert	CA	92260	https://www.dinersdriveinsdiveslocations.com/wilma-friedas-cafe-california.html
GRILL-A-BURGER	73091 Country Club Dr	Palm Desert	CA	92260	https://www.dinersdriveinsdiveslocations.com/grill-a-burger-california.html
FRANKINBUN	540 S Indian Canyon Dr	Palm Springs	CA	92264	https://www.dinersdriveinsdiveslocations.com/frankinbun-california.html
SHERMAN'S DELI & BAKERY	401 E Tahquitz Canyon Way	Palm Springs	CA	92262	https://www.dinersdriveinsdiveslocations.com/shermans-deli-bakery-california.html
ZOBO AND MEESTER'S	68703 Perez Rd	Cathedral City	CA	92234	https://www.dinersdriveinsdiveslocations.com/zobo-meesters-california.html
HOBO'S BBQ	30590 Rancho California Rd	Temecula	CA	92591	https://www.dinersdriveinsdiveslocations.com/hobos-bbq-california.html
EDIBOL	300 S Santa Fe Ave, Ste Q	Los Angeles	CA	90013	https://www.dinersdriveinsdiveslocations.com/edibol-california.html
BATTERFISH	Serving Santa Monica Area	Los Angeles	CA	90049	https://www.dinersdriveinsdiveslocations.com/batterfish-california.html
HORST THIEF BBQ	324 Hill St	Los Angeles	CA	90013	https://www.dinersdriveinsdiveslocations.com/horse-thief-bbq-california.html
LA TOSTADERIA	317 S Broadway	Los Angeles	CA	90013	https://www.dinersdriveinsdiveslocations.com/la-tostaderia-california.html
JITLADA	5233 Sunset Blvd	Los Angeles	CA	90027	https://www.dinersdriveinsdiveslocations.com/jitlada-california.html
NIGHTHAWK: BREAKFAST BAR	417 Washington Blvd	Venice	CA	90292	https://www.dinersdriveinsdiveslocations.com/nighthawk-breakfast-bar-california.html
SCOLARI'S	1303 Park St	Alameda	CA	94501	https://www.dinersdriveinsdiveslocations.com/scolaris-good-eats-california.html
EL PASEO	17 Throckmorton Ave	Mill Valley	CA	94941	https://www.dinersdriveinsdiveslocations.com/el-paseo-california.html
SOUTHERN CAFE	2000 MacArthur Blvd	Oakland	CA	94602	https://www.dinersdriveinsdiveslocations.com/southern-cafe-california.html
BRIX 581	581 5th St	Oakland	CA	94607	https://www.dinersdriveinsdiveslocations.com/brix-581-california.html
CALAFIA CAFE MARKET	855 El Camino Real #130	Palo Alto	CA	94301	https://www.dinersdriveinsdiveslocations.com/calafia-cafe-market-a-go-go-california.html
PAZZO	1179 Laurel St	San Carlos	CA	94070	https://www.dinersdriveinsdiveslocations.com/pazzo-california.html
GRAND HARBOR	1492 Old Bayshore Hwy	Burlingame	CA	94010	https://www.dinersdriveinsdiveslocations.com/grand-harbor-california.html
TAQUERIA MOLCAJETES	1195 W College Ave	Santa Rosa	CA	95401	https://www.dinersdriveinsdiveslocations.com/taqueria-molcajetes-california.html
ZOFTIG EATERY	57 Montgomery Dr	Santa Rosa	CA	95404	https://www.dinersdriveinsdiveslocations.com/zoftig-eatery-california.html
COCHON VOLANT BBQ	18350 Sonoma Hwy	Sonoma	CA	95476	https://www.dinersdriveinsdiveslocations.com/cochon-volant-bbq-california.html
SIMPLY VIETNAM EXPRESS	3381 Cleveland Ave	Santa Rosa	CA	95403	https://www.dinersdriveinsdiveslocations.com/simply-vietnam-express-california.html
EIGHT NOODLE SHOP	1408 Clay St	Napa	CA	94559	https://www.dinersdriveinsdiveslocations.com/eight-noodle-shop-california.html
ZAZU KITCHEN AND FARM	6770 McKinley St #150	Sebastopol	CA	95472	https://www.dinersdriveinsdiveslocations.com/zazu-kitchen-and-farm-california.html
THE BANSHEE	134 W 2nd St	Chico	CA	95928	https://www.dinersdriveinsdiveslocations.com/the-banshee-california.html
GRANA WOOD FIRED FOODS	198 E 2nd St	Chico	CA	95928	https://www.dinersdriveinsdiveslocations.com/grana-wood-fired-foods-california.html
UPPER CRUST BAKERY AND CAFE	130 Main St	Chico	CA	95928	https://www.dinersdriveinsdiveslocations.com/upper-crust-bakery-cafe-california.html
THE RAWBAR	346 Broadway St	Chico	CA	95928	https://www.dinersdriveinsdiveslocations.com/the-rawbar-california.html
SIN OF CORTEZ	2290 Esplanade	Chico	CA	95926	https://www.dinersdriveinsdiveslocations.com/sin-of-cortez-california.html
MOMONA	230 W 3rd St	Chico	CA	95928	https://www.dinersdriveinsdiveslocations.com/momona-california.html
GRAND OLE BBQ Y ASADO	3302 32nd St	San Diego	CA	92104	https://www.dinersdriveinsdiveslocations.com/grand-ole-bbq-y-asado-california.html
TAHINI	9119 Clairemont Mesa Blvd Suite G	San Diego	CA	92123	https://www.dinersdriveinsdiveslocations.com/tahini-california.html
CHUY'S TACO SHOP	6663 El Cajon Blvd G	San Diego	CA	92115	https://www.dinersdriveinsdiveslocations.com/chuys-taco-shop-california.html
TIGER!TIGER!	3025 El Cajon Blvd	San Diego	CA	92104	https://www.dinersdriveinsdiveslocations.com/tiger!tiger!-california.html
ALFORON	5965 El Cajon Blvd	San Diego	CA	92115	https://www.dinersdriveinsdiveslocations.com/alforon-california.html
JO'S DINER	807 W Washington St	San Diego	CA	92103	https://www.dinersdriveinsdiveslocations.com/jos-diner-california.html
CHULA ARTISAN EATERY	47150 Washington St Ste B	La Quinta	CA	92253	https://www.dinersdriveinsdiveslocations.com/chula-artisan-eatery-california.html
PABLO'S TACOS AND BEER	42425 Jackson St C-113	Indio	CA	92203	https://www.dinersdriveinsdiveslocations.com/pablos-tacos-beer-california.html
THE REAL ITALIAN DELI	44795 San Pablo Ave	Palm Desert	CA	92260	https://www.dinersdriveinsdiveslocations.com/the-real-italian-deli-california.html
GASTRO GRIND BURGERS	73850 CA-111 #B	Palm Desert	CA	92260	https://www.dinersdriveinsdiveslocations.com/gastro-grind-burgers-california.html
GABINO'S CREPERIE	170 E Palm Canyon Dr #4	Palm Springs	CA	92264	https://www.dinersdriveinsdiveslocations.com/gabinos-creperie-california.html
EL MIRASOL COCINA MEXICANA	140 E Palm Canyon Dr	Palm Springs	CA	92264	https://www.dinersdriveinsdiveslocations.com/el-mirasol-cocina-mexicana-california.html
KINDRED	1503 30th St	San Diego	CA	92102	https://www.dinersdriveinsdiveslocations.com/kindred-california.html
TUETANO TAQUERIA	2540 Congress St	San Diego	CA	92110	https://www.dinersdriveinsdiveslocations.com/tuetano-taqueria-california.html
SHAWARMA GUYS FOOD TRUCK	3012 Grape Street	San Diego	CA	92102	https://www.dinersdriveinsdiveslocations.com/shawarma-guys-food-truck-california.html
SOVEREIGN MODERN THAI CUISINE	1460 J S	San Diego	CA	92101	https://www.dinersdriveinsdiveslocations.com/sovereign-modern-thai-cuisine-california.html
NOLA ON 5TH	3683 Fifth Ave	San Diego	CA	92103	https://www.dinersdriveinsdiveslocations.com/nola-on-5th-california.html
NUTMEG BAKERY AND CAFE	10755 Scripps Poway Pkwy	San Diego	CA	92131	https://www.dinersdriveinsdiveslocations.com/nutmeg-bakery-and-cafe-california.html
ROOF 106	106 Matheson St	Healdsburg	CA	95448	https://www.dinersdriveinsdiveslocations.com/roof-106-california.html
BOSSIE'S KITCHEN	901 N Milpas St	Santa Barbara	CA	93103	https://www.dinersdriveinsdiveslocations.com/bossies-kitchen-california.html
BETTINA PIZZERIA	1014 Coast Village Rd	Santa Barbara	CA	93108	https://www.dinersdriveinsdiveslocations.com/bettina-pizzeria-california.html
THE CHEF'S TOUCH BBQ RIG	Various Spots	Santa Ynez	CA	93460	https://www.dinersdriveinsdiveslocations.com/the-chefs-touch-bbq-rig-california.html
THE BLUE OWL	5 W Canon Perdido St	Santa Barbara	CA	93101	https://www.dinersdriveinsdiveslocations.com/the-blue-owl-california.html
SHALHOOB'S FUNK ZONE PATIO	220 Gray Ave	Santa Barbara	CA	93101	https://www.dinersdriveinsdiveslocations.com/shalhoobs-funk-zone-patio-california.html
SECRET BAO	1201 Anacapa St	Santa Barbara	CA	93101	https://www.dinersdriveinsdiveslocations.com/secret-bao-california.html
LA PUPUSA URBAN EATERY	1051 W Washington Blvd G	Los Angeles	CA	90015	https://www.dinersdriveinsdiveslocations.com/la-pupusa-urban-eatery-california.html
SOUTH END	2805 Abbot Kinney Blvd	Venice	CA	90291	https://www.dinersdriveinsdiveslocations.com/south-end-california.html
TACOS Y BIRRIA LA UNICA	2840 E Olympic Blvd	Los Angeles	CA	90023	https://www.dinersdriveinsdiveslocations.com/tacos-y-birria-la-unica-california.html
MAROUCH	4905 Santa Monica Blvd	Los Angeles	CA	90029	https://www.dinersdriveinsdiveslocations.com/marouch-california.html
ERROR	ERROR	ERROR	ERROR	ERROR	ERROR
STEUBEN'S FOOD SERVICE	523 E. 17th Ave.	Denver	CO	80203	https://www.dinersdriveinsdiveslocations.com/steubens-food-service-colorado.html
FOOLISH CRAIG'S CAFE	1611 Pearl Street	Boulder	CO	80302	https://www.dinersdriveinsdiveslocations.com/foolish-craigs-cafe-colorado.html
THE BAGEL DELICATESSEN RESTAURANT	6439 E Hampden	Denver	CO	80222	https://www.dinersdriveinsdiveslocations.com/the-bagel-delicatessen-restaurant-colorado.html
SAM'S NO. 3	1500 Curtis Street	Denver	CO	80210	https://www.dinersdriveinsdiveslocations.com/sams-no-3-colorado.html
LAUER-KRAUTS	26 South 6th St.	Brighton	CO	80601	https://www.dinersdriveinsdiveslocations.com/lauer-krauts-colorado.html
TOCABE AMERICAN INDIAN EATERY	3536 W. 44th Ave.	Denver	CO	80202	https://www.dinersdriveinsdiveslocations.com/tocabe-american-indian-eatery-colorado.html
BANG!	3472 W. 32nd Ave.	Denver	CO	80211	https://www.dinersdriveinsdiveslocations.com/bang-colorado.html
THE SINK	1165 13th St.	Boulder	CO	80302	https://www.dinersdriveinsdiveslocations.com/the-sink-colorado.html
HIGHLAND TAVERN	3400 Navajo St	Denver	CO	80211	https://www.dinersdriveinsdiveslocations.com/highland-tavern-colorado.html
ATOMIC COWBOY	3237 E Colfax Ave	Denver	CO	80206	https://www.dinersdriveinsdiveslocations.com/atomic-cowboy-colorado.html
HOPS & PIE	3920 Tennyson St	Denver	CO	80212	https://www.dinersdriveinsdiveslocations.com/hops-and-pie-colorado.html
PROHIBITION	504 E Colfax Ave	Denver	CO	80203	https://www.dinersdriveinsdiveslocations.com/prohibition-colorado.html
CORA FAYE'S CAFE	2861 N Colorado Blvd	Denver	CO	80207	https://www.dinersdriveinsdiveslocations.com/cora-fayes-cafe-colorado.html
A TASTE OF HOME COOKING	12365 W 58th Ave	Arvada	CO	80002	https://www.dinersdriveinsdiveslocations.com/a-taste-of-home-cooking-colorado.html
RESTAURANT 415	415 S Mason St	Fort Collins	CO	80524	https://www.dinersdriveinsdiveslocations.com/restaurant-415-colorado.html
SASQUATCH LODGE	151 N College Ave	Fort Collins	CO	80524	https://www.dinersdriveinsdiveslocations.com/the-lodge-sasquatch-kitchen-colorado.html
BIJU'S LITTLE CURRY SHOP	1441 26th St	Denver	CO	80205	https://www.dinersdriveinsdiveslocations.com/bijus-little-curry-shop-colorado.html
DAE GEE KOREAN BBQ	827 Colorado Blvd	Denver	CO	80206	https://www.dinersdriveinsdiveslocations.com/dae-gee-korean-bbq-colorado.html
AXIOS ESTIATORIO	3901 Tennyson St	Denver	CO	80212	https://www.dinersdriveinsdiveslocations.com/axios-estiatorio-colorado.html
CAFE BRAZIL	4408 Lowell Blvd	Denver	CO	80211	https://www.dinersdriveinsdiveslocations.com/cafe-brazil-colorado.html
MARIA EMPANADA	1298 S Broadway	Denver	CO	80210	https://www.dinersdriveinsdiveslocations.com/maria-empanada-colorado.html
FRONT RANGE BARBEQUE	2330 W Colorado Ave	Colorado Springs	CO	80904	https://www.dinersdriveinsdiveslocations.com/front-range-barbeque-colorado.html
SKIRTED HEIFER	204 N Tejon St	Colorado Springs	CO	80903	https://www.dinersdriveinsdiveslocations.com/skirted-heifer-colorado.html
MOUNTAIN SHADOWS	2223 W Colorado Ave	Colorado Springs	CO	80904	https://www.dinersdriveinsdiveslocations.com/mountain-shadows-restaurant-colorado.html
SPICE ISLAND GRILL	10 N Sierra Madre St	Colorado Springs	CO	80903	https://www.dinersdriveinsdiveslocations.com/spice-island-grill-colorado.html
PIGLATIN FOOD TRUCK	225 N Nevada Ave	Colorado Springs	CO		https://www.dinersdriveinsdiveslocations.com/piglatin-food-truck-colorado.html
PARAVINCINIS ITALIAN BISTRO	2802 W Colorado Ave	Colorado Springs	CO	80904	https://www.dinersdriveinsdiveslocations.com/paravicinis-italian-bistro-colorado.html
RASTA PASTA	405 N Tejon St	Colorado Springs	CO	80903	https://www.dinersdriveinsdiveslocations.com/rasta-pasta-colorado.html
THE POST CHICKEN & BEER	1258 S Hover Rd	Longmont	CO	80501	https://www.dinersdriveinsdiveslocations.com/the-post-chicken-beer-colorado.html
THE ROOST	526 Main St	Longmont	CO	80501	https://www.dinersdriveinsdiveslocations.com/the-roost-colorado.html
ALOY THAI CUISINE	2720 Canyon Blvd	Boulder	CO	80302	https://www.dinersdriveinsdiveslocations.com/aloy-thai-cuisine-colorado.html
ZOE MA MA	2010 10th St	Boulder	CO	80302	https://www.dinersdriveinsdiveslocations.com/zoe-ma-ma-colorado.html
SAMPLES WORLD BISTRO	370 Main St	Longmont	CO	80501	https://www.dinersdriveinsdiveslocations.com/samples-world-bistro-colorado.html
AUDREY JANE'S PIZZA GARAGE	2675 13th St	Boulder	CO	80304	https://www.dinersdriveinsdiveslocations.com/audrey-janes-pizza-garage-colorado.html
AREYTO FOOD TRUCK	Denver Metro Area	Denver	CO	80501	https://www.dinersdriveinsdiveslocations.com/areyto-food-truck-colorado.html
GRAMMY'S ITALIAN GOODIES	4601 N Harlan St	Wheat Ridge	CO	80033	https://www.dinersdriveinsdiveslocations.com/grammys-italian-goodies-colorado.html
WELTON STREET CAFE	2736 Welton St	Denver	CO	80205	https://www.dinersdriveinsdiveslocations.com/welton-street-cafe-colorado.html
THE ROTARY	3200 N Pecos St	Denver	CO	80211	https://www.dinersdriveinsdiveslocations.com/the-rotary-colorado.html
BLUE PAN PIZZA	3509 12th Ave	Denver	CO	80206	https://www.dinersdriveinsdiveslocations.com/blue-pan-pizza-colorado.html
JUST BE KITCHEN	2364 15th St	Denver	CO	80202	https://www.dinersdriveinsdiveslocations.com/just-be-kitchen-colorado.html
IL PORCELLINO SALUMI	4324 W 41st Ave	Denver	CO	80212	https://www.dinersdriveinsdiveslocations.com/il-porcellino-salumi-colorado.html
THE FEISTY PINT	359 Colorado Ave	Grand Junction	CO	81501	https://www.dinersdriveinsdiveslocations.com/the-feisty-pint-colorado.html
TACOPARTY	126 S 5th St	Grand Junction	CO	81501	https://www.dinersdriveinsdiveslocations.com/tacoparty-colorado.html
IL BISTRO ITALIANO	400 Main St	Grand Junction	CO	81501	https://www.dinersdriveinsdiveslocations.com/il-bistro-italiano-colorado.html
HICKORY HOUSE RIBS	730 W Main St	Aspen	CO	81611	https://www.dinersdriveinsdiveslocations.com/hickory-house-ribs-colorado.html
HIGHLAND ALEHOUSE	133 Prospector Rd # 4109A	Aspen	CO	81611	https://www.dinersdriveinsdiveslocations.com/highlands-alehouse-colorado.html
O'ROURKE'S DINER	728 Main St.	Middletown	CT	06457	https://www.dinersdriveinsdiveslocations.com/o-rourkes-diner-connecticut.html
VALENCIA LUNCHERIA	172 Main St.	Norwalk	CT	06851	https://www.dinersdriveinsdiveslocations.com/valencia-luncheria-connecticut.html
WILSON'S HOLY SMOKE BBQ	1851 Post Road	Fairfield	CT	06824	https://www.dinersdriveinsdiveslocations.com/wilsons-holy-smoke-bbq-connecticut.html
SUPER DUPER WEENIE	306 Black Rock Turnpike	Fairfield	CT	06825	https://www.dinersdriveinsdiveslocations.com/super-duper-weenie-connecticut.html
BLACK DUCK CAFE	605 Riverside Ave	Westport	CT	06880	https://www.dinersdriveinsdiveslocations.com/black-duck-cafe-connecticut.html
COREY'S CATSUP AND MUSTARD	623 Main Street	Manchester	CT	06040	https://www.dinersdriveinsdiveslocations.com/coreys-catsup-and-mustard-connecticut.html
MERRITT CANTEEN INC	4355 Main Street	Bridgeport	CT	06606	https://www.dinersdriveinsdiveslocations.com/merritt-canteen-inc-connecticut.html
THE STAMFORD DINER	135 Harvard Ave	Stamford	CT	06902	https://www.dinersdriveinsdiveslocations.com/the-stamford-diner-connecticut.html
COMET PING PONG	5037 Connecticut Ave. NW	Washington	DC	20008	https://www.dinersdriveinsdiveslocations.com/comet-ping-pong-dc.html
TUNE INN RESTAURANT & BAR	331 Pennsylvania Ave. Southeast	Washington	DC	20003	https://www.dinersdriveinsdiveslocations.com/tune-inn-restaurant-bar-dc.html
OOHHS & AAHHS GOURMET DELI	1005 U St NW	Washington	DC		https://www.dinersdriveinsdiveslocations.com/oohhs-aahhs-gourmet-deli-dc.html
TORTILLA CAFE	210 7th St SE # 1	Washington	DC	20003	https://www.dinersdriveinsdiveslocations.com/tortilla-cafe-dc.html
CARVING ROOM	300 Massachusetts Ave NW	Washington	DC	20002	https://www.dinersdriveinsdiveslocations.com/carving-room-dc.html
BUB AND POP'S	1815 M St NW	Washington	DC	20036	https://www.dinersdriveinsdiveslocations.com/bub-and-pops-dc.html
TOKI UNDERGROUND	2nd, 1234 H Street NE	Washington	DC	20002	https://www.dinersdriveinsdiveslocations.com/toki-underground-dc.html
ERROR	ERROR	ERROR	ERROR	ERROR	ERROR
MRS. ROBINO'S	520 N Union St	Wilmington	DE	19805	https://www.dinersdriveinsdiveslocations.com/mrs-robinos-delaware.html
LUIGI VITRONE'S PASTABILITIES	415, 3009, N Lincoln St	Wilmington	DE	19805	https://www.dinersdriveinsdiveslocations.com/luigi-vitrones-pastabilities-delaware.html
MAIALE DELI AND SALUMERIA	3301 Lancaster Pike	Wilmington	DE	19805	https://www.dinersdriveinsdiveslocations.com/maiale-deli-and-salumeria-delaware.html
LOCALE BBQ POST	1014 N Lincoln St	Wilmington	DE	19805	https://www.dinersdriveinsdiveslocations.com/locale-bbq-post-delaware.html
FARMER AND THE COW	413 N Market St	Wilmington	DE	19801	https://www.dinersdriveinsdiveslocations.com/farmer-and-the-cow-delaware.html
STONEY'S PUB	3007 Concord Pike	Wilmington	DE	19803	https://www.dinersdriveinsdiveslocations.com/stoneys-pub-delaware.html
KEEGAN'S SEAFOOD GRILLE	1519 Gulf Blvd.	Indian Rocks Beach	FL	33785	https://www.dinersdriveinsdiveslocations.com/keegans-seafood-grille-florida.html
TED PETERS FAMOUS SMOKED FISH	1350 S. Pasadena Ave.	South Pasadena	FL	33707	https://www.dinersdriveinsdiveslocations.com/ted-peters-famous-smoked-fish-florida.html
ALPINE STEAKHOUSE	4520 S. Tamiami Trail	Sarasota	FL	34231	https://www.dinersdriveinsdiveslocations.com/alpine-steakhouse-florida.html
SCULLY'S TAVERN	9809 SW 72nd St.	Miami	FL	33173	https://www.dinersdriveinsdiveslocations.com/scullys-tavern-florida.html
HAVANA HIDEOUT	509 Lake Ave	Lake Worth	FL	33460	https://www.dinersdriveinsdiveslocations.com/havana-hideout-florida.html
11th STREET DINER	1065 Washington Avenue	Miami Beach	FL	33139	https://www.dinersdriveinsdiveslocations.com/11th-street-diner-florida.html
BENNY'S SEAFOOD RESTAURANT	2500 SW 107th Ave.	South Miami	FL	33165	https://www.dinersdriveinsdiveslocations.com/bennys-seafood-restaurant-florida.html
JAMAICA KITCHEN	8736 SW 72 St.	Miami	FL	33173	https://www.dinersdriveinsdiveslocations.com/jamaica-kitchen-florida.html
GRAMPA'S BAKERY & RESTAURANT	17 SW First Street	Dania Beach	FL	33004	https://www.dinersdriveinsdiveslocations.com/grampas-bakery-restaurant-florida.html
FLAKOWITZ OF BOYNTON BAKERY & DELI	7410 W Boynton Beach Blvd	Boynton Beach	FL	33437	https://www.dinersdriveinsdiveslocations.com/flakowitz-of-boynton-bakery-deli-restaurant-florida.html
BLUE MARLIN FISH HOUSE RESTAURANT	2500 NE 163rd St North	Miami Beach	FL	33160	https://www.dinersdriveinsdiveslocations.com/blue-marlin-fish-house-restaurant-florida.html
LA CAMARONERA RESTAURANT & FISH MARKET	1952 West Flagler St.	Miami	FL	33135	https://www.dinersdriveinsdiveslocations.com/la-camaronera-restaurant-fish-market-florida.html
SONNY'S FAMOUS STEAK HOGIES	1857 N. 66th Avenue	Hollywood	FL	33024	https://www.dinersdriveinsdiveslocations.com/sonnys-famous-steak-hogies-florida.html
WHALE'S RIB	2031 NE 2nd St.	Deerfield Beach	FL	33441	https://www.dinersdriveinsdiveslocations.com/whales-rib-florida.html
TAP TAP HAITIAN RESTAURANT	819 5th St	Miami Beach	FL	33139	https://www.dinersdriveinsdiveslocations.com/tap-tap-haitian-restaurant-florida.html
SINGLETON'S SEAFOOD SHACK	4728 Ocean St	Atlantic Beach	FL	32233	https://www.dinersdriveinsdiveslocations.com/singletons-seafood-shack-florida.html
13 GYPSIES	887 Stockton St	Jacksonville	FL	32204	https://www.dinersdriveinsdiveslocations.com/13-gypsies-florida.html
CULHANE'S IRISH PUB	967 Atlantic Boulevard	Atlantic Beach	FL	32233	https://www.dinersdriveinsdiveslocations.com/culhanes-irish-pub-florida.html
METRO DINER	3302 Hendricks Ave	Jacksonville	FL	32207	https://www.dinersdriveinsdiveslocations.com/metro-diner-florida.html
CALIFORNIA TACOS TO GO	1450 Skipper Rd.	Tampa	FL	36613	https://www.dinersdriveinsdiveslocations.com/california-tacos-to-go-florida.html
MUNCH'S	3920 6th Street South	St. Petersburg	FL	33705	https://www.dinersdriveinsdiveslocations.com/munchs-florida.html
JOSE'S REAL CUBAN FOOD	8799 Cortez Rd. W.	Bradenton	FL	34210	https://www.dinersdriveinsdiveslocations.com/joses-real-cuban-food-florida.html
TAMPA BAY BREWING CO.	1600 E. 8th Ave.	Tampa	FL	33605	https://www.dinersdriveinsdiveslocations.com/tampa-bay-brewing-co-florida.html
TACO BUS	913 E Hillsborough Ave.	Tampa	FL	33603	https://www.dinersdriveinsdiveslocations.com/taco-bus-florida.html
DANNY'S ALL-AMERICAN DINER	4406 N. Falkenburg Rd.	Tampa	FL	33610	https://www.dinersdriveinsdiveslocations.com/dannys-all-american-diner-florida.html
SAKAYA KITCHEN	3401 N Miami Ave	Miami	FL	33127	https://www.dinersdriveinsdiveslocations.com/sakaya-kitchen-florida.html
BLUE COLLAR	6730 Biscayne Blvd	Miami	FL	33138	https://www.dinersdriveinsdiveslocations.com/blue-collar-florida.html
DJ'S CLAM SHACK	629 Duval St	Key West	FL	33040	https://www.dinersdriveinsdiveslocations.com/djs-clam-shack-florida.html
GARBO'S GRILL FOOD CART	603 Greene St	Key West	FL	33040	https://www.dinersdriveinsdiveslocations.com/garbos-grill-florida.html
BAD BOY BURRITO	1220 Simonton St	Key West	FL	33040	https://www.dinersdriveinsdiveslocations.com/bad-boy-burrito-florida.html
LATIN HOUSE: BURGER & TACO BAR	9565 Sunset Dr	Miami	FL	33173	https://www.dinersdriveinsdiveslocations.com/latin-house-burger-taco-bar-florida.html
WHISK GOURMET	7382 SW 56th Ave	Miami	FL	33143	https://www.dinersdriveinsdiveslocations.com/whisk-gourmet-florida.html
THE FEDERAL FOOD DRINK & PROVISIONS	5132 Biscayne Blvd	Miami	FL	33137	https://www.dinersdriveinsdiveslocations.com/the-federal-food-drink-provisions-florida.html
SHRIMP SHACK	81901 Overseas Hwy	Islamorada	FL	33036	https://www.dinersdriveinsdiveslocations.com/shrimp-shack-florida.html
THE FISH HOUSE	102401 Overseas Hwy	Key Largo	FL	33037	https://www.dinersdriveinsdiveslocations.com/the-fish-house-florida.html
DIGIORGIO'S CAFE LARGO	99530 Overseas Hwy	Key Largo	FL	33037	https://www.dinersdriveinsdiveslocations.com/digiorgios-cafe-largo-florida.html
MIAMI SMOKERS	306 NW 27th Ave	Miami	FL	33125	https://www.dinersdriveinsdiveslocations.com/miami-smokers-florida.html
GREEN TURTLE INN	81219 Overseas Hwy	Islamorada	FL	33036	https://www.dinersdriveinsdiveslocations.com/green-turtle-inn-florida.html
MEAT EATERY & TAP ROOM	2831 N Federal Hwy #9	Boca Raton	FL	33431	https://www.dinersdriveinsdiveslocations.com/meat-eatery-and-taproom-florida.html
PILOT HOUSE	13 Seagate Blvd	Key Largo	FL	33037	https://www.dinersdriveinsdiveslocations.com/pilot-house-florida.html
HOFBRAU BEERHALL	943 Lincoln Rd	Miami Beach	FL	33139	https://www.dinersdriveinsdiveslocations.com/hofbrau-beer-hall-florida.html
TAQUIZA	1506 Collins Ave	Miami Beach	FL	33139	https://www.dinersdriveinsdiveslocations.com/taquiza-florida.html
LOU'S BEER GARDEN	7337 Harding Ave	Miami Beach	FL	33141	https://www.dinersdriveinsdiveslocations.com/lous-beer-garden-florida.html
THE LOCAL CRAFT FOOD AND DRINK	150 Giralda Ave	Miami	FL	33134	https://www.dinersdriveinsdiveslocations.com/the-local-craft-food-and-drink-florida.html
IVAN'S COOKHOUSE	14815 Biscayne Blvd	Miami	FL	33181	https://www.dinersdriveinsdiveslocations.com/ivans-cookhouse-florida.html
THE MEATBALL STOPPE	7325 Lake Underhill Rd	Orlando	FL	32822	https://www.dinersdriveinsdiveslocations.com/the-meatball-stoppe-florida.html
SAIGON NOODLE & GRILL	101 N Bumby Ave	Orlando	FL	32803	https://www.dinersdriveinsdiveslocations.com/saigon-noodle-and-grill-florida.html
SE7EN BITES BAKE SHOP	617 Primrose Dr	Orlando	FL	32803	https://www.dinersdriveinsdiveslocations.com/se7en-bites-bake-shop-florida.html
MRS. POTATO	4550 S Kirkman Rd	Orlando	FL	32811	https://www.dinersdriveinsdiveslocations.com/mrs-potato-florida.html
WILLIE'S PINCHOS	1718 N Goldenrod Rd	Orlando	FL	32807	https://www.dinersdriveinsdiveslocations.com/willies-pinchos-florida.html
THE PASTRAMI PROJECT	175 E Par St	Orlando	FL	32804	https://www.dinersdriveinsdiveslocations.com/the-pastrami-project-florida.html
FAT ONE'S HOT DOGS & ITALIAN ICE	8001 Orange Blossom Trail	Orlando	FL	32809	https://www.dinersdriveinsdiveslocations.com/fat-ones-hot-dogs-italian-ice-florida.html
BUYA RAMEN	911 Central Ave	St. Petersburg	FL	33705	https://www.dinersdriveinsdiveslocations.com/buya-ramen-florida.html
BLACKBRICK	3451 NE 1st Ave	Miami	FL	33173	https://www.dinersdriveinsdiveslocations.com/blackbrick-chinese-florida.html
MOJO DONUTS & FRIED CHICKEN	8870 SW 40th St #13	Miami	FL	33165	https://www.dinersdriveinsdiveslocations.com/mojo-donuts-fied-chicken-florida.html
MILLY'S EMPANADA FACTORY	13911 SW 66th St	Miami	FL	33183	https://www.dinersdriveinsdiveslocations.com/millys-empanada-factory-florida.html
MR AND MRS BUN	15572 Sunset Dr	Miami	FL	33193	https://www.dinersdriveinsdiveslocations.com/mr-mrs-bun-florida.html
PROOF	3328 N Miami Ave	Miami	FL	33127	https://www.dinersdriveinsdiveslocations.com/proof-florida.html
DOCE PROVISIONS	541 SW 12th Ave	Miami	FL	33130	https://www.dinersdriveinsdiveslocations.com/doce-provisions-florida.html
LOBA	7420 Biscayne Blvd	Miami	FL	33138	https://www.dinersdriveinsdiveslocations.com/loba-florida.html
PIRATE REPUBLIC SEAFOOD	400 SW 3rd Ave	Fort Lauderdale	FL	33315	https://www.dinersdriveinsdiveslocations.com/pirate-republic-seafood-florida.html
KRAKATOA INDONESIAN CUISINE	1910 Hollywood Blvd #B	Hollywood	FL	33024	https://www.dinersdriveinsdiveslocations.com/krakatoa-indonesian-cuisine-florida.html
3 SONS BREWING CO.	236 N Federal Hwy #104	Dania Beach	FL	33004	https://www.dinersdriveinsdiveslocations.com/3-sons-brewing-co-florida.html
KABABI CAFE BY KULUCK	3828 N University Dr	Sunrise	FL	33351	https://www.dinersdriveinsdiveslocations.com/kababi-cafe-by-kuluck-florida.html
LOS BOCADOS	3828 N University Dr	Parkland	FL	33073	https://www.dinersdriveinsdiveslocations.com/los-bocados-florida.html
J28 SANDWICH BAR	1854 N Young Cir	Hollywood	FL	33020	https://www.dinersdriveinsdiveslocations.com/j28-sandwich-bar-florida.html
HERBIE'S BAR & CHOWDER HOUSE	6350 Overseas Hwy	Marathon	FL	33050	https://www.dinersdriveinsdiveslocations.com/herbies-bar-chowder-house-florida.html
CHOLO SOY COCINA	3715 S Dixie Hwy	West Palm Beach	FL	33405	https://www.dinersdriveinsdiveslocations.com/cholo-soy-cocina-florida.html
THE BUTCHER SHOP BEER GARDEN AND GRILL	209 6th St	West Palm Beach	FL	33401	https://www.dinersdriveinsdiveslocations.com/the-butcher-shop-beer-garden-grill-florida.html
COOLINARY CAFE	4650 Donald Ross Rd #110	Palm Beach Gardens	FL	33418	https://www.dinersdriveinsdiveslocations.com/coolinary-cafe-florida.html
IRIE ISLAND EATS	4540 Overseas Hwy	Marathon	FL	33050	https://www.dinersdriveinsdiveslocations.com/irie-island-eats-florida.html
CASTAWAY WATERFRONT RESTAURANT AND SUSHI BAR	1406 Ocean View Ave	Marathon	FL	33050	https://www.dinersdriveinsdiveslocations.com/castaway-waterfront-restaurant-sushi-bar-florida.html
PANHEADS PIZZERIA	113 S Orange St	New Smyrna Beach	FL	32168	https://www.dinersdriveinsdiveslocations.com/panheads-pizzeria-florida.html
THE GARLIC	556 E 3rd Ave	New Smyrna Beach	FL	32169	https://www.dinersdriveinsdiveslocations.com/the-garlic-florida.html
MILLIE'S RESTAURANT AND CATERING	3218 S Atlantic Ave	Daytona Beach	FL	32118	https://www.dinersdriveinsdiveslocations.com/millies-restaurant-catering-florida.html
AREPITA BEACH	174 N Beach St	Daytona Beach	FL	32114	https://www.dinersdriveinsdiveslocations.com/arepita-beach-florida.html
ROSE VILLA SOUTHERN TABLE AND BAR	43 W Granada Blvd	Ormond Beach	FL	32174	https://www.dinersdriveinsdiveslocations.com/rose-villa-southern-table-bar-florida.html
THIRD WAVE CAFE AND WINE BAR	204 Flagler Ave	New Smyrna Beach	FL	32169	https://www.dinersdriveinsdiveslocations.com/third-wave-cafe-wine-bar-florida.html
REBEL HOUSE	297 E Palmetto Park Rd	Boca Raton	FL	33432	https://www.dinersdriveinsdiveslocations.com/rebel-house-florida.html
ROSE'S DAUGHTER	169 NE 2nd Ave	Delray Beach	FL	33444	https://www.dinersdriveinsdiveslocations.com/roses-daughter-florida.html
THE BUTCHER AND THE BAR	510 E Ocean Ave Unit 101	Boynton Beach	FL	33435	https://www.dinersdriveinsdiveslocations.com/the-butcher-and-the-bar-florida.html
CHEFFREY EATS	1141 S Rogers Cir #5	Boca Raton	FL	33487	https://www.dinersdriveinsdiveslocations.com/cheffrey-eats-florida.html
LA COSINITA LATINA	2480 S Congress Ave	West Palm Beach	FL	33406	https://www.dinersdriveinsdiveslocations.com/la-cosinita-latina-florida.html
HELLENIC REPUBLIC	2764 N University Dr	Coral Springs	FL	33065	https://www.dinersdriveinsdiveslocations.com/hellenic-republic-florida.html
BIG LEE'S	343 NE 1st Ave	Ocala	FL	34471	https://www.dinersdriveinsdiveslocations.com/big-lees-florida.html
ERROR	ERROR	ERROR	ERROR	ERROR	ERROR
MARIETTA DINER	306 Cobb Parkway	Marietta	GA	30060	https://www.dinersdriveinsdiveslocations.com/marietta-diner-georgia.html
MATTHEW'S CAFETERIA	2299 Main St.	Tucker	GA	30084	https://www.dinersdriveinsdiveslocations.com/matthews-cafeteria-georgia.html
THE HIGHLANDER	931 Monroe Dr.	Atlanta	GA	30308	https://www.dinersdriveinsdiveslocations.com/the-highlander-georgia.html
CABBAGE TOWN MARKET	198 Carroll St. SE	Atlanta	GA	30312	https://www.dinersdriveinsdiveslocations.com/cabbage-town-market-georgia.html
COLONNADE	1879 Cheshire Bridge Rd. NE	Atlanta	GA	30324	https://www.dinersdriveinsdiveslocations.com/colonnade-georgia.html
THE SILVER SKILLET	200 14th St.	Atlanta	GA	30318	https://www.dinersdriveinsdiveslocations.com/the-silver-skillet-georgia.html
BLACKWATER GRILL	260 Redfern Village St.	Simons Island	GA	31522	https://www.dinersdriveinsdiveslocations.com/blackwater-grill-georgia.html
SOUTHERN SOUL BARBEQUE	2020 Demere Rd.	St. Simons Island	GA	31522	https://www.dinersdriveinsdiveslocations.com/southern-soul-barbeque-georgia.html
BUTTERMILK KITCHEN	4225 Roswell Road Northeast	Atlanta	GA	30342	https://www.dinersdriveinsdiveslocations.com/buttermilk-kitchen-georgia.html
WRECKING BAR BREWPUB	292 Moreland Ave NE	Atlanta	GA	30307	https://www.dinersdriveinsdiveslocations.com/wrecking-bar-brewpub-georgia.html
THE GENERAL MUIR	Emory Point, 1540 Avenue Pl B-230	Atlanta	GA	30329	https://www.dinersdriveinsdiveslocations.com/the-general-muir-georgia.html
FOX BROS BAR-B-Q	1238 DeKalb Ave NE	Atlanta	GA	30307	https://www.dinersdriveinsdiveslocations.com/fox-bros-bar-b-q-georgia.html
FOLK ART	465 N Highland Ave NE	Atlanta	GA	30307	https://www.dinersdriveinsdiveslocations.com/folk-art-georgia.html
JOY CAFE	316 Pharr Rd NE	Atlanta	GA	30305	https://www.dinersdriveinsdiveslocations.com/joy-cafe-georgia.html
RREAL TACOS	100 6th St NE 110	Atlanta	GA	30308	https://www.dinersdriveinsdiveslocations.com/rreal-tacos-georgia.html
YAKITORI JINBEI	2421 Cobb Pkwy SE	Smyrna	GA	30080	https://www.dinersdriveinsdiveslocations.com/yakitori-jinbei-georgia.html
TWISTED SOUL COOKHOUSE & POURS	1133 Huff Rd NW #D	Atlanta	GA	30318	https://www.dinersdriveinsdiveslocations.com/twisted-soul-cookhouse-pours-georgia.html
GREENS AND GRAVY	1540 Ralph David Abernathy Blvd	Atlanta	GA	30310	https://www.dinersdriveinsdiveslocations.com/greens-and-gravy-georgia.html
HANKOOK TAQUERIA	1341 Collier Rd NW	Atlanta	GA	30318	https://www.dinersdriveinsdiveslocations.com/hankook-taqueria-georgia.html
PIJIU BELLY	678 10th St NW	Atlanta	GA	30318	https://www.dinersdriveinsdiveslocations.com/pijiu-belly-georgia.html
BIG BON BODEGA PIZZA	2011 Bull St	Savannah	GA	31404	https://www.dinersdriveinsdiveslocations.com/big-bon-bodega-pizza-georgia.html
SISTERS OF THE NEW SOUTH	2605 Skidaway Rd	Savannah	GA	31404	https://www.dinersdriveinsdiveslocations.com/sisters-of-the-new-south-georgia.html
SEA WOLF TYBEE	106 S Campbell Ave	Tybee Island	GA	31238	https://www.dinersdriveinsdiveslocations.com/sea-wolf-tybee-georgia.html
SUNDAE CAFE	304 1st St	Tybee Island	GA	31238	https://www.dinersdriveinsdiveslocations.com/sundae-cafe-georgia.html
THE GARAGE AT VICTORY NORTH	2605 Whitaker St	Savannah	GA	31401	https://www.dinersdriveinsdiveslocations.com/the-garage-at-victory-north-georgia.html
CHAZITO'S LATIN CUISINE	217 US-80	Pooler	GA	31322	https://www.dinersdriveinsdiveslocations.com/chazitos-latin-cuisine-georgia.html
HIGHWAY INN & HO'OKIPA CATERING	94-226 Leoku St.	Waipahu	HI	96797	https://www.dinersdriveinsdiveslocations.com/highway-inn-ho-okipa-catering-hawaii.html
HANK'S HAUTE DOGS	324 Coral St.	Honolulu	HI	96813	https://www.dinersdriveinsdiveslocations.com/hanks-haute-dogs-hawaii.html
NICO'S PIER 38	1133 North Nimitz Highway	Honolulu	HI	96817	https://www.dinersdriveinsdiveslocations.com/nicos-pier-38-hawaii.html
GERMAINE'S LUAU	91-119 Olai St.	Kapolei	HI	96707	https://www.dinersdriveinsdiveslocations.com/germaines-luau-hawaii.html
POKE STOP MILILANI-MAUKA LLC	95-1840 Meheula Parkway	Mililani	HI	96789	https://www.dinersdriveinsdiveslocations.com/poke-stop-mililani-mauka-llc-hawaii.html
MURPHY'S BAR & GRILL	2 Merchant St.	Honolulu	HI	96813	https://www.dinersdriveinsdiveslocations.com/murphys-bar-grill-hawaii.html
RAINBOW DRIVE-IN	3308 Kanaina Avenue	Honolulu	HI	96815	https://www.dinersdriveinsdiveslocations.com/rainbow-drive-in-hawaii.html
JAWAIIAN IRIE JERK	1137 11th Ave.	Honolulu	HI	96816	https://www.dinersdriveinsdiveslocations.com/jawaiian-irie-jerk-restaurant-hawaii.html
CAMILLE'S ON WHEELS	Moving Food Truck	Kailua	HI	96734	https://www.dinersdriveinsdiveslocations.com/camilles-on-wheels-hawaii.html
HE'EIA KEA PIER DELI	46-499 Kamehameha HWY.	Kaneohe	HI	96744	https://www.dinersdriveinsdiveslocations.com/he-eia-kea-pier-general-store-and-deli-hawaii.html
SWEET HOME WAIMANALO	41-1025 Kalanianaole Hwy	Waimanalo	HI	96795	https://www.dinersdriveinsdiveslocations.com/sweet-home-waimanalo-hawaii.html
FRESH CATCH	1113 Kapahulu Ave	Honolulu	HI	96816	https://www.dinersdriveinsdiveslocations.com/fresh-catch-hawaii.html
BIG WAVE SHRIMP TRUCK	66-521 Kamehameha Hwy.	Haleiwa	HI	96712	https://www.dinersdriveinsdiveslocations.com/big-wave-shrimp-truck-hawaii.html
OPAL THAI FOOD	197 C Kamehameha Hwy	Haleiwa	HI	96712	https://www.dinersdriveinsdiveslocations.com/opal-thai-food-hawaii.html
BOOTS & KIMO'S HOMESTYLE KITCHEN	151 Hekili St	Kailua	HI	96734	https://www.dinersdriveinsdiveslocations.com/boots-kimos-homestyle-kitchen-hawaii.html
ELENA'S FILIPINO FOODS	99-115 Aiea Heights Dr	Aiea	HI	96701	https://www.dinersdriveinsdiveslocations.com/elenas-restaurant-hawaii.html
THE ALLY AT AIEA BOWL	1020 Keolu Dr	Kailua	HI	96734	https://www.dinersdriveinsdiveslocations.com/the-alley-at-aiea-bowl-hawaii.html
DEAN'S DRIVE-IN	45-773 Kamehameha Highway	Kaneohe	HI	96744	https://www.dinersdriveinsdiveslocations.com/deans-drive-in-hawaii.html
MIKE'S HULI HULI CHICKEN	47-525 Kamehameha Hwy	Kaneohe	HI	96744	https://www.dinersdriveinsdiveslocations.com/mikes-huli-huli-chicken-hawaii.html
UAHI ISLAND GRILL	131 Hekili St #102	Kailua	HI	96734	https://www.dinersdriveinsdiveslocations.com/uahi-island-grill-hawaii.html
THE OUTRIGGER PIZZA COMPANY	1819 S Kihei Rd	Maui	HI	96753	https://www.dinersdriveinsdiveslocations.com/the-outrigger-pizza-company-hawaii.html
DA KITCHEN	425 Koloa St	Kahului	HI	96732	https://www.dinersdriveinsdiveslocations.com/da-kitchen-hawaii.html
FAT DADDY'S SMOKEHOUSE	1913 S Kihei Rd	Kihei	HI	96753	https://www.dinersdriveinsdiveslocations.com/fat-daddys-smokehouse-hawaii.html
LIKE POKE	591 Haleakala Hwy	Kahului	HI	96732	https://www.dinersdriveinsdiveslocations.com/like-poke-hawaii.html
STAR NOODLE	286 Kupuohi St	Lahaina	HI	96761	https://www.dinersdriveinsdiveslocations.com/star-noodle-hawaii.html
MISO PHAT SUSHI	4310 Lower Honoapiilani Hwy	Lahaina	HI	96761	https://www.dinersdriveinsdiveslocations.com/miso-phat-sushi-hawaii.html
THREE'S BAR AND GRILL	1945 S Kihei Rd	Kihei	HI	96753	https://www.dinersdriveinsdiveslocations.com/threes-bar-grill-hawaii.html
MAUI BRICK OVEN	1215 S Kihei Rd	Kihei	HI	96753	https://www.dinersdriveinsdiveslocations.com/maui-brick-oven-hawaii.html
THAI MEE UP	591 Haleakala Hwy	Kahului	HI	96732	https://www.dinersdriveinsdiveslocations.com/thai-mee-up-hawaii.html
MAUI FRESH STREATERY	137 E Kaahumanu Ave	Kahului	HI	96732	https://www.dinersdriveinsdiveslocations.com/maui-fresh-streatery-hawaii.html
DOWN THE HATCH	658 Front St Suite 101	Lahaina	HI	96761	https://www.dinersdriveinsdiveslocations.com/down-the-hatch-hawaii.html
FLEETWOOD'S ON FRONT ST	744 Front St	Lahaina	HI	96761	https://www.dinersdriveinsdiveslocations.com/fleetwoods-on-front-st-hawaii.html
BRIGIT AND BERNARD'S GARDEN CAFE	335 Hoohana St	Kahului	HI	96732	https://www.dinersdriveinsdiveslocations.com/brigit-bernards-garden-cafe-hawaii.html
UMEKES FISHMARKET BAR & GRILL	74-5563 Kaiwi St	Kailua-Kona	HI	96740	https://www.dinersdriveinsdiveslocations.com/umekes-fishmarket-bar-grill-hawaii.html
FOSTER'S KITCHEN	75-5805 Ali'i Dr	Kailua-Kona	HI	96740	https://www.dinersdriveinsdiveslocations.com/fosters-kitchen-hawaii.html
REBEL KITCHEN	79-7399 Hawaii Belt Rd	Kealakekua	HI	96750	https://www.dinersdriveinsdiveslocations.com/rebel-kitchen-hawaii.html
ISLAND LAVA JAVA	Bldg 1 75-5801 Ali'i Drive	Kailua-Kona	HI	96740	https://www.dinersdriveinsdiveslocations.com/island-lava-java-hawaii.html
KANAKA KAVA	75-5803 Alii Dr	Kailua-Kona	HI	96740	https://www.dinersdriveinsdiveslocations.com/kanaka-kava-hawaii.html
ORIGINAL THAI CUISINE	75-5629 Kuakini Hwy	Kailua-Kona	HI	96740	https://www.dinersdriveinsdiveslocations.com/original-thai-cuisine-hawaii.html
BROKE DA MOUTH GRINDZ	74-5565 Luhia St B-2	Kailua-Kona	HI	96740	https://www.dinersdriveinsdiveslocations.com/broke-da-mouth-grindz-hawaii.html
TAHITI NUI	5-5134 Kuhio Hwy	Hanalei	HI	96714	https://www.dinersdriveinsdiveslocations.com/tahiti-nui-hawaii.html
THE DOLPHIN	5-5016 Kuhio Hwy	Hanalei	HI	96714	https://www.dinersdriveinsdiveslocations.com/the-dolphin-hawaii.html
HANALEI POKE	5-5190 Kuhio Hwy	Hanalei	HI	96714	https://www.dinersdriveinsdiveslocations.com/hanalei-poke-hawaii.html
TIKI INIKI	5-4280 Kuhio Hwy	Princeville	HI	96722	https://www.dinersdriveinsdiveslocations.com/tiki-iniki-hawaii.html
SAIMIN DOJO	4-733 Kuhio Hwy Suite 103	Kapaa	HI	96746	https://www.dinersdriveinsdiveslocations.com/saimin-dojo-hawaii.html
KENJI BURGER	4-788 Kuhio Hwy	Kapaa	HI	96746	https://www.dinersdriveinsdiveslocations.com/kenji-burger-hawaii.html
JOEY'S KITCHEN	5095 Napilihau St	Lahaina	HI	96761	https://www.dinersdriveinsdiveslocations.com/joeys-kitchen-hawaii.html
SOUTH MAUI FISH COMPANY	1794 S Kihei Rd	Kihea	HI	96753	https://www.dinersdriveinsdiveslocations.com/south-maui-fish-company-hawaii.html
LE YELLOW SUB FOOD TRUCK	213 Kalanianaole Ave	Hilo	HI	96720	https://www.dinersdriveinsdiveslocations.com/le-yellow-sub-food-truck-hawaii.html
CAFE PESTO	308 Kamehameha Ave #101	Hilo	HI	96720	https://www.dinersdriveinsdiveslocations.com/cafe-pesto-hawaii.html
HILO BAY CAFE	123 Lihiwai St	Hilo	HI	96720	https://www.dinersdriveinsdiveslocations.com/hilo-bay-cafe-hawaii.html
MATTEO'S OSTERIA	161 Wailea Ike Pl	Wailea	HI	96753	https://www.dinersdriveinsdiveslocations.com/matteos-osteria-hawaii.html
BAR GERNIKA	202 S. Capitol Blvd.	Boise	ID	83702	https://www.dinersdriveinsdiveslocations.com/bar-gernika-idaho.html
CHEF LOU'S WESTSIDE DRIVE-IN	1939 W State St	Boise	ID	83702	https://www.dinersdriveinsdiveslocations.com/chef-lous-westside-drive-in-idaho.html
DONN'S HILLTOP KODIAK GRILL	12342 East Highway 21	Boise	ID	83716	https://www.dinersdriveinsdiveslocations.com/donns-hilltop-kodiak-grill-idaho.html
RICK'S PRESS ROOM GRILL & BAR	130 East Idaho Street	Meridian	ID	83642	https://www.dinersdriveinsdiveslocations.com/ricks-press-room-grill-bar-idaho.html
DONNIE MAC'S TRAILER PARK CUISINE	1515 W. Grove St.	Boise	ID	83702	https://www.dinersdriveinsdiveslocations.com/donnie-macs-trailer-park-cuisine-idaho.html
PIZZALCHIK	7330 W State St	Boise	ID	83714	https://www.dinersdriveinsdiveslocations.com/pizzalchik-idaho.html
CAPONE'S PUB	751 North 4th Street	Coeur d'Alene	ID	83814	https://www.dinersdriveinsdiveslocations.com/capones-pub-idaho.html
JIMMY'S DOWN THE STREET	1613 E. Sherman	Coeur d'Alene	ID	83814	https://www.dinersdriveinsdiveslocations.com/jimmys-down-the-street-idaho.html
ALYONKA RUSSIAN CUISINE	2870 W State St	Boise	ID	83702	https://www.dinersdriveinsdiveslocations.com/alyonka-russian-cuisine-idaho.html
TAJ MAHAL HOMESTYLE INDIAN AND PAKISTANI CUISINE	150 N 8th St #222	Boise	ID	83702	https://www.dinersdriveinsdiveslocations.com/taj-mahal-homestyle-indian-pakistani-cuisine-idaho.html
TANGO'S EMPANADAS	701 N Orchard St	Boise	ID	83706	https://www.dinersdriveinsdiveslocations.com/tangos-empanadas-idaho.html
SAINT LAWRENCE GRIDIRON	705 W Bannock St	Boise	ID	83702	https://www.dinersdriveinsdiveslocations.com/saint-lawrence-gridiron-idaho.html
SUNSHINE SPICE CAFE	6911 Fairview Ave	Boise	ID	83704	https://www.dinersdriveinsdiveslocations.com/sunshine-spice-cafe-idaho.html
MADRE BOUTIQUE TAQUERIA	1034 S La Pointe St	Boise	ID	83706	https://www.dinersdriveinsdiveslocations.com/madre-boutique-taqueria-idaho.html
FROSTED MUG	11541 South Pulaski Road	Alsip	IL	60803	https://www.dinersdriveinsdiveslocations.com/frosted-mug-illinois.html
HACKNEY'S	1241 Harms Rd.	Glenview	IL	60025	https://www.dinersdriveinsdiveslocations.com/hackneys-illinois.html
SMOQUE	3800 N. Pulaski Rd.	Chicago	IL	60641	https://www.dinersdriveinsdiveslocations.com/smoque-illinois.html
PARADISE PUP	1724 S. River Rd.	Des Plaines	IL	60018	https://www.dinersdriveinsdiveslocations.com/paradise-pup-illinois.html
WHITE PALACE GRILL	1159 S. Canal St.	Chicago	IL	60607	https://www.dinersdriveinsdiveslocations.com/white-palace-grill-illinois.html
GALEWOOD COOKSHACK	2135 N Milwaukee Ave	Chicago	IL	60647	https://www.dinersdriveinsdiveslocations.com/galewood-cook-shack-illinois.html
CHARLIE PARKER'S	700 North St.	Springfield	IL	62704	https://www.dinersdriveinsdiveslocations.com/charlie-parkers-illinois.html
CEMITAS PUEBLA	3619 W North Ave.	Chicago	IL	60647	https://www.dinersdriveinsdiveslocations.com/cemitas-puebla-illinois.html
CHUCK'S SOUTHERN COMFORTS CAFE	6501 W. 79th St.	Burbank	IL	60459	https://www.dinersdriveinsdiveslocations.com/chucks-southern-comforts-cafe-illinois.html
THE ORIGINAL VITO & NICK'S PIZZERIA	8433 South Pulaski Road	Chicago	IL	60652	https://www.dinersdriveinsdiveslocations.com/the-original-vito-nicks-pizzeria-illinois.html
TUFANO'S VERNON PARK TAP	1073 W Vernon Park	Chicago	IL	60607	https://www.dinersdriveinsdiveslocations.com/tufanos-vernon-park-tap-illinois.html
DELL RHEA'S CHICKEN BASKET	645 Joliet Road	Willowbrook	IL	60527	https://www.dinersdriveinsdiveslocations.com/dell-rheas-chicken-basket-illinois.html
KUMA'S CORNER	2900 W. Belmont Ave.	Chicago	IL	60618	https://www.dinersdriveinsdiveslocations.com/kumas-corner-illinois.html
THE DEPOT AMERICAN DINER	5840 W. Roosevelt Road	Chicago	IL	60644	https://www.dinersdriveinsdiveslocations.com/the-depot-american-diner-illinois.html
TRE KRONOR	3258 West Foster Avenue	Chicago	IL	60625	https://www.dinersdriveinsdiveslocations.com/tre-kronor-illinois.html
HONKY TONK BBQ	1800 S. Racine	Chicago	IL	60608	https://www.dinersdriveinsdiveslocations.com/honky-tonk-bbq-illinois.html
THE SHANTY	38995 N US Highway 41	Wadsworth	IL	60083	https://www.dinersdriveinsdiveslocations.com/the-shanty-illinois.html
TASTE OF PERU	6545 North Clark Street	Chicago	IL	60626	https://www.dinersdriveinsdiveslocations.com/taste-of-peru-illinois.html
GARIFUNA FLAVA	2516-2518 W 63rd St.	Chicago	IL	60629	https://www.dinersdriveinsdiveslocations.com/garifuna-flava-illinois.html
NANA ORGANIC	3267 S. Halsted St.	Chicago	IL	60608	https://www.dinersdriveinsdiveslocations.com/nana-organic-illinois.html
CHILAM BALAM	3023 N. Broadway St.	Chicago	IL	60657	https://www.dinersdriveinsdiveslocations.com/chilam-balam-illinois.html
IRAZU	1865 N. Milwaukee	Chicago	IL	60647	https://www.dinersdriveinsdiveslocations.com/irazu-illinois.html
DMK BURGER BAR	2954 N. Sheffield Ave.	Chicago	IL	60657	https://www.dinersdriveinsdiveslocations.com/dmk-burger-bar-illinois.html
GLEN'S DINER	1820 W. Montrose Ave.	Chicago	IL	60613	https://www.dinersdriveinsdiveslocations.com/glenns-diner-illinois.html
BIG & LITTLES	860 N. Orleans St.	Chicago	IL	60610	https://www.dinersdriveinsdiveslocations.com/big-and-littles-illinois.html
PANOZZO'S ITALIAN MARKET	1303 S. Michigan Ave.	Chicago	IL	60605	https://www.dinersdriveinsdiveslocations.com/panozzos-italian-market-illinois.html
HOPLEAF BAR	5148 N. Clark St.	Chicago	IL	60640	https://www.dinersdriveinsdiveslocations.com/hopleaf-bar-illinois.html
CHICAGO BRAUHAUS	4732 N Lincoln Ave.	Chicago	IL	60625	https://www.dinersdriveinsdiveslocations.com/chicago-brauhaus-illinois.html
REX ITALIAN FOODS	4431 N. Harlem Ave.	Norridge	IL	60706	https://www.dinersdriveinsdiveslocations.com/rex-italian-foods-illinois.html
BOP N GRILL	6604 N Sheridan Rd	Chicago	IL	60626	https://www.dinersdriveinsdiveslocations.com/bop-n-grill-illinois.html
90 MILES CUBAN CAFE	2540 W. Armitage Ave.	Chicago	IL	60647	https://www.dinersdriveinsdiveslocations.com/90-miles-cuban-cafe-illinois.html
LA SCAROLA	721 W Grand Ave	Chicago	IL	60654	https://www.dinersdriveinsdiveslocations.com/la-scarola-illinois.html
SAUCY PORKA	400 S Financial Pl	Chicago	IL	60605	https://www.dinersdriveinsdiveslocations.com/saucy-porka-illinois.html
MANNY'S DELI	1141 S Jefferson St	Chicago	IL	60607	https://www.dinersdriveinsdiveslocations.com/mannys-deli-illinois.html
DEL SEOUL	2568 N Clark St	Chicago	IL	60614	https://www.dinersdriveinsdiveslocations.com/del-seoul-illinois.html
MFK	432 W Diversey Pkwy	Chicago	IL	60614	https://www.dinersdriveinsdiveslocations.com/mfk-illinois.html
SUN WAH BBQ	5039 N Broadway St	Chicago	IL	60640	https://www.dinersdriveinsdiveslocations.com/sun-wah-bbq-illinois.html
BELLA LUNA CAFE	731 N Dearborn St	Chicago	IL	60654	https://www.dinersdriveinsdiveslocations.com/bella-luna-cafe-illinois.html
TRIPLE XXX RESTAURANT	2 N. Salisbury St.	West Lafayette	IN	47906	https://www.dinersdriveinsdiveslocations.com/triple-xxx-restaurant-indiana.html
3 SISTERS CAFE	6223 Guilford Ave.	Indianapolis	IN	46220	https://www.dinersdriveinsdiveslocations.com/3-sisters-cafe-indiana.html
SOUTH SIDE SODA SHOP AND DINER	1122 S Main St	Goshen	IN	46526	https://www.dinersdriveinsdiveslocations.com/southside-soda-shop-and-diner-indiana.html
INDY'S HISTORIC STEER-IN RESTAURANT	5130 E 10th Street	Indianapolis	IN	46219	https://www.dinersdriveinsdiveslocations.com/indys-historic-steer-in-restaurant-indiana.html
JERSEY'S CAFE	13710 North Meridian Street	Carmel	IN	46032	https://www.dinersdriveinsdiveslocations.com/jerseys-cafe-indiana.html
THE BARKING DOG	115 E 49th St.	Indianapolis	IN	46205	https://www.dinersdriveinsdiveslocations.com/the-barking-dog-indiana.html
ZEST! EXCITING FOOD CREATIONS	1134 E. 54th St.	Indianapolis	IN	46220	https://www.dinersdriveinsdiveslocations.com/zest-exciting-food-creations-indiana.html
THE TAMALE PLACE	5226 Rockville Rd.	Indianapolis	IN	46224	https://www.dinersdriveinsdiveslocations.com/the-tamale-place-indiana.html
ZYDECO'S	11 E. Main St.	Mooresville	IN	46158	https://www.dinersdriveinsdiveslocations.com/zydecos-indiana.html
ERROR	ERROR	ERROR	ERROR	ERROR	ERROR
PATTON'S CATERING	1552 E Grand Ave	Des Moines	IA	50316	https://www.dinersdriveinsdiveslocations.com/pattons-iowa.html
SMOKEY D'S BBQ	5055 NW 2nd St	Des Moines	IA	50313	https://www.dinersdriveinsdiveslocations.com/smokey-ds-bbq-iowa.html
TACOPOCOLYPSE	407 E 5th St	Des Moines	IA	50309	https://www.dinersdriveinsdiveslocations.com/tacopocalypse-iowa.html
GEORGE THE CHILI KING	5722 Hickman Rd	Des Moines	IA	50310	https://www.dinersdriveinsdiveslocations.com/george-the-chili-king-iowa.html
MI PATRIA	1410 22nd St	West Des Moines	IA	50266	https://www.dinersdriveinsdiveslocations.com/mi-patria-iowa.html
FLYING MANGO	4345 Hickman Rd	Des Moines	IA	50310	https://www.dinersdriveinsdiveslocations.com/flying-mango-iowa.html
BRINT'S DINER	4834 E. Lincoln Street	Wichita	KS	67218	https://www.dinersdriveinsdiveslocations.com/brints-diner-kansas.html
CAFE ON THE ROUTE	1101 Military Ave.	Baxter Springs	KS	66713	https://www.dinersdriveinsdiveslocations.com/cafe-on-the-route-kansas.html
BBQ SHACK	1613 E. Peoria St.	Paola	KS	66071	https://www.dinersdriveinsdiveslocations.com/bbq-shack-kansas.html
BOBO'S DRIVE IN	2300 SW 10th Ave.	Topeka	KS	66604	https://www.dinersdriveinsdiveslocations.com/bobos-drive-in-kansas.html
RJ'S BOB-BE-QUE SHACK	5835 Lamar Ave.	Mission	KS	66062	https://www.dinersdriveinsdiveslocations.com/rjs-bob-be-que-shack-kansas.html
JOHNNY'S BAR-B-Q	5959 Broadmoor	Mission	KS	66201	https://www.dinersdriveinsdiveslocations.com/johnnys-bar-b-q-kansas.html
WOODYARD BAR-B-QUE	3001 Merriam Ln	Kansas City	KS	66106	https://www.dinersdriveinsdiveslocations.com/woodyard-bar-b-que-kansas.html
ERROR	ERROR	ERROR	ERROR	ERROR	ERROR
SMOKEY VALLEY TRUCK STOP	60 Bond Ct.	Olive Hill	KY	41164	https://www.dinersdriveinsdiveslocations.com/smokey-valley-truck-stop-kentucky.html
VIRGIL'S CAFE	710 Fairfield Ave.	Bellevue	KY	41073	https://www.dinersdriveinsdiveslocations.com/virgils-cafe-kentucky.html
WALLACE STATION	3854 Old Frankfort Pike	Versailles	KY	40383	https://www.dinersdriveinsdiveslocations.com/wallace-station-kentucky.html
RICK'S WHITE LIGHT DINER	114 Bridge Street	Frankfort	KY	40601	https://www.dinersdriveinsdiveslocations.com/ricks-white-light-diner-kentucky.html
PARKETTE DRIVE IN	1230 E New Circle Rd.	Lexington	KY	40505	https://www.dinersdriveinsdiveslocations.com/parkette-drive-in-kentucky.html
JJ McBREWSTER'S	3101 Clays Mill Road #301	Lexington	KY	40503	https://www.dinersdriveinsdiveslocations.com/j-j-mcbrewsters-kentucky.html
MOMMA'S MUSTARD, PICKLES & BBQ	102 Bauer Ave	Louisville	KY	40207	https://www.dinersdriveinsdiveslocations.com/mommas-mustard-pickles-bbq-kentucky.html
GRIND BURGER KITCHEN	829 E Market St	Louisville	KY	40206	https://www.dinersdriveinsdiveslocations.com/grind-burger-kitchen-kentucky.html
THE TABLE	1800 Portland Ave	Louisville	KY	40203	https://www.dinersdriveinsdiveslocations.com/the-table-kentucky.html
GRALEHAUS	1001 Baxter Ave	Louisville	KY	40204	https://www.dinersdriveinsdiveslocations.com/gralehaus-kentucky.html
THE SEAFOOD LADY	103 W Oak St	Louisville	KY	40203	https://www.dinersdriveinsdiveslocations.com/the-seafood-lady-kentucky.html
IRISH ROVER	2319 Frankfort Ave	Louisville	KY	40206	https://www.dinersdriveinsdiveslocations.com/irish-rover-kentucky.html
THE RIVERSHACK TAVERN	3449 River Rd.	Jefferson	LA	70121	https://www.dinersdriveinsdiveslocations.com/the-rivershack-tavern-louisiana.html
THE JOINT	701 Mazant St.	New Orleans	LA	70117	https://www.dinersdriveinsdiveslocations.com/the-joint-louisiana.html
THE CREOLE CREAMERY	4924 Prytania St.	New Orleans	LA	70115	https://www.dinersdriveinsdiveslocations.com/the-creole-creamery-louisiana.html
CASAMENTO'S RESTAURANT	4330 Magazine St.	New Orleans	LA	70115	https://www.dinersdriveinsdiveslocations.com/casamentos-restaurant-louisiana.html
SURREY'S CAFE	1418 Magazine St.	New Orleans	LA	70130	https://www.dinersdriveinsdiveslocations.com/surreys-cafe-louisiana.html
PARASOL'S BAR & RESTAURANT	2533 Constance St.	New Orleans	LA	70130	https://www.dinersdriveinsdiveslocations.com/parasols-bar-louisiana.html
JOEY K'S RESTAURANT & BAR	3001 Magazine Street	New Orleans	LA	70115	https://www.dinersdriveinsdiveslocations.com/joey-k-restaurant-bar-louisiana.html
SAMMY'S FOOD SERVICE & DELI	3000 Elysian Fields	New Orleans	LA	70122	https://www.dinersdriveinsdiveslocations.com/sammys-food-service-deli-louisiana.html
MAHONY'S PO-BOY SHOP	3454 Magazine Street	New Orleans	LA	70115	https://www.dinersdriveinsdiveslocations.com/mahonys-po-boy-shop-louisiana.html
LOUIE & THE REDHEAD LADY	1851 Florida St.	Mandeville	LA	70448	https://www.dinersdriveinsdiveslocations.com/louie-and-the-redhead-lady-louisiana.html
LA PINES CAFE	1061 Robert Rd.	Slidell	LA	70458	https://www.dinersdriveinsdiveslocations.com/la-pines-cafe-louisiana.html
KATIE'S RESTAURANT	3701 Iberville Street	New Orleans	LA	70119	https://www.dinersdriveinsdiveslocations.com/katies-restaurant-louisiana.html
THE OLD COFFEE POT RESTAURANT	714 Saint Peter St.	New Orleans	LA	70116	https://www.dinersdriveinsdiveslocations.com/the-old-coffeepot-restaurant-louisiana.html
BOURREE AT BOUCHERIE	1510 S Carrollton Ave	New Orleans	LA	70118	https://www.dinersdriveinsdiveslocations.com/bourree-at-boucherie-louisiana.html
RED'S CHINESE	3048 St Claude Ave	New Orleans	LA	70117	https://www.dinersdriveinsdiveslocations.com/reds-chinese-louisiana.html
TURKEY AND THE WOLF	739 Jackson Ave	New Orleans	LA	70130	https://www.dinersdriveinsdiveslocations.com/turkey-and-the-wolf-louisiana.html
MARJIE'S GRILL	320 S Broad Ave	New Orleans	LA	70119	https://www.dinersdriveinsdiveslocations.com/marjies-grill-louisiana.html
AVERY'S ON TULANE	2510 Tulane Ave	New Orleans	LA	70119	https://www.dinersdriveinsdiveslocations.com/averys-on-tulane-louisiana.html
Seither's Seafood	279 Hickory Ave	New Orleans	LA	70123	https://www.dinersdriveinsdiveslocations.com/seithers-seafood-louisiana.html
Piece of Meat	3301 Bienville St	New Orleans	LA	70119	https://www.dinersdriveinsdiveslocations.com/piece-of-meat-louisiana.html
A1 DINER	3 Bridge St.	Gardiner	ME	04345	https://www.dinersdriveinsdiveslocations.com/a1-diner-maine.html
MAINE DINER	2265 Post Rd.	Wells	ME	04090	https://www.dinersdriveinsdiveslocations.com/maine-diner.html
BOB'S CLAM HUT	315 US Route 1	Kittery	ME	03904	https://www.dinersdriveinsdiveslocations.com/bobs-clam-hut-maine.html
PORTHOLE RESTAURANT	20 Custom House Wharf	Portland	ME	04101	https://www.dinersdriveinsdiveslocations.com/porthole-restaurant-maine.html
BECKY'S DINER	390 Commercial Street	Portland	ME	04101	https://www.dinersdriveinsdiveslocations.com/beckys-diner-maine.html
ERROR	ERROR	ERROR	ERROR	ERROR	ERROR
BLUE MOON CAFE	1621 Aliceanna St.	Baltimore	MD	21321	https://www.dinersdriveinsdiveslocations.com/blue-moon-cafe-maryland.html
CHAPS PIT BEEF	5801 Pulaski Highway	Baltimore	MD	21205	https://www.dinersdriveinsdiveslocations.com/chaps-pit-beef-maryland.html
BROADWAY DINER	6501 Eastern Ave	Baltimore	MD	21224	https://www.dinersdriveinsdiveslocations.com/broadway-diner-maryland.html
G&A RESTAURANT	3802 Eastern Avenue	Baltimore	MD	21224	https://www.dinersdriveinsdiveslocations.com/g-a-restaurant-maryland.html
BRICK OVEN PIZZA	800 S Broadway	Baltimore	MD	21231	https://www.dinersdriveinsdiveslocations.com/brick-oven-pizza-maryland.html
STONEY CREEK INN	8238 Fort Smallwood Rd.	Greenland Beach	MD	21226	https://www.dinersdriveinsdiveslocations.com/stoney-creek-inn-maryland.html
DI PASQUALE'S	3700 Gough St	Baltimore	MD	21224	https://www.dinersdriveinsdiveslocations.com/di-pasquales-maryland.html
THE GENERAL STORE	6 Post Office Road	Silver Spring	MD	20910	https://www.dinersdriveinsdiveslocations.com/the-general-store-maryland.html
BOULEVARD DINER	1660 Merritt Blvd.	Dundalk	MD	21222	https://www.dinersdriveinsdiveslocations.com/boulevard-diner-maryland.html
GALWAY BAY IRISH PUB	63 Maryland Ave.	Annapolis	MD	21401	https://www.dinersdriveinsdiveslocations.com/galway-bay-irish-pub-maryland.html
R&R TAQUERIA	7894 Washington Blvd.	Elkridge	MD	21075	https://www.dinersdriveinsdiveslocations.com/r-r-taqueria-maryland.html
JOE SQUARED PIZZA	133 W. North Ave.	Baltimore	MD	21201	https://www.dinersdriveinsdiveslocations.com/joe-squared-pizza-maryland.html
SIP & BITE RESTAURANT	2200 Boston St.	Baltimore	MD	21231	https://www.dinersdriveinsdiveslocations.com/sip-and-bite-restaurant-maryland.html
DAVIS' PUB	400 Chester Ave	Annapolis	MD	21403	https://www.dinersdriveinsdiveslocations.com/davis-pub-maryland.html
GRANO PASTA BAR	1031 W 36th St	Baltimore	MD	21211	https://www.dinersdriveinsdiveslocations.com/grano-pasta-bar-maryland.html
SLAINTE IRISH PUB	Historic Fells Point, 1700 Thames Street	Baltimore	MD	21231	https://www.dinersdriveinsdiveslocations.com/slainte-irish-pub-maryland.html
JIMMY'S FAMOUS SEAFOOD	6526 Holabird Ave	Baltimore	MD	21224	https://www.dinersdriveinsdiveslocations.com/jimmys-famous-seafood-maryland.html
CLEMENTINE	5402 Harford Rd	Baltimore	MD	21214	https://www.dinersdriveinsdiveslocations.com/clementine-maryland.html
JOHNNY RAD'S PIZZERIA TAVERN	2108 Eastern Ave	Baltimore	MD	21231	https://www.dinersdriveinsdiveslocations.com/johnny-rads-pizzeria-tavern-maryland.html
SWALLOW AT THE HOLLOW	5921 York Rd	Baltimore	MD	21212	https://www.dinersdriveinsdiveslocations.com/swallow-at-the-hollow-maryland.html
ALEWIFE	21 N Eutaw St	Baltimore	MD	21201	https://www.dinersdriveinsdiveslocations.com/alewife-maryland.html
MISS SHIRLEY'S CAFE	513 W. Cold Spring Lane	Baltimore	MD	21210	https://www.dinersdriveinsdiveslocations.com/miss-shirleys-cafe-maryland.html
THE SMOKING SWINE	1600 Thames St.	Baltimore	MD	21231	https://www.dinersdriveinsdiveslocations.com/the-smoking-swine-maryland.html
ERROR	ERROR	ERROR	ERROR	ERROR	ERROR
KELLY'S DINER	674 Broadway	Somerville	MA	02144-2220	https://www.dinersdriveinsdiveslocations.com/kellys-diner-massachusetts.html
MIKE'S CITY DINER	1714 Washington St.	Boston	MA	02118	https://www.dinersdriveinsdiveslocations.com/mikes-city-diner-massachusetts.html
JT FARNHAM'S SEAFOOD & GRILL	88 Eastern Ave.	South Essex	MA	01929	https://www.dinersdriveinsdiveslocations.com/jt-farnhams-seafood-grill-massachusetts.html
THE LITTLE DEPOT DINER	1 Railroad Ave	Peabody	MA	01961	https://www.dinersdriveinsdiveslocations.com/the-little-depot-diner-massachusetts.html
SAM LAGRASSA'S	44 Province St.	Boston	MA	02108	https://www.dinersdriveinsdiveslocations.com/sam-lagrassas-massachusetts.html
MORIN'S HOMETOWN BAR & GRILLE	16 S Main Street	Attleboro	MA	02703	https://www.dinersdriveinsdiveslocations.com/morins-hometown-bar-grille-massachusetts.html
MR. BARTLEY'S GOURMET BURGERS	1246 Massachusetts Ave	Cambridge	MA	02138	https://www.dinersdriveinsdiveslocations.com/mr-bartleys-gourmet-burgers-massachusetts.html
GREEK CORNER RESTAURANT	2366 Massachusetts Ave.	Cambridge	MA	02140	https://www.dinersdriveinsdiveslocations.com/greek-corner-restaurant-massachusetts.html
THE LOBSTER SHANTY	25 Front St.	Salem	MA	01970	https://www.dinersdriveinsdiveslocations.com/the-lobster-shanty-massachusetts.html
RINO'S PLACE	258 Saratoga St	Boston	MA	02128	https://www.dinersdriveinsdiveslocations.com/rinos-place-massachusetts.html
ITALIAN EXPRESS PIZZERIA	336 Sumner St.	East Boston	MA	02128	https://www.dinersdriveinsdiveslocations.com/italian-express-pizzeria-massachusetts.html
CUTTY'S	284 Washington St	Brookline	MA	02445	https://www.dinersdriveinsdiveslocations.com/cuttys-massachusetts.html
TUPELO	1193 Cambridge St.	Cambridge	MA	02139	https://www.dinersdriveinsdiveslocations.com/tupelo-massachusetts.html
PATTI'S PIEROGIS	1019 S. Main St.	Fall River	MA	02724	https://www.dinersdriveinsdiveslocations.com/pattis-pierogis-massachusetts.html
BOSTON BURGER COMPANY	1100 Boylston St	Boston	MA	02215	https://www.dinersdriveinsdiveslocations.com/boston-burger-company-massachusetts.html
ANGELA'S CAFE	131 Lexington St.	East Boston	MA	02128	https://www.dinersdriveinsdiveslocations.com/angelas-cafe-massachusetts.html
YANKEE LOBSTER COMPANY RESTAURANT	300 Northern Ave.	Boston	MA	02210	https://www.dinersdriveinsdiveslocations.com/yankee-lobster-company-massachusetts.html
CHARLIE'S DINER	5 Meadow Street	Spencer	MA	01562	https://www.dinersdriveinsdiveslocations.com/charlies-diner-massachusetts.html
BLUNCH	59 E Springfield St	Boston	MA	02118	https://www.dinersdriveinsdiveslocations.com/blunch-massachusetts.html
DEEP ELLUM	477 Cambridge St	Boston	MA	02134	https://www.dinersdriveinsdiveslocations.com/deep-ellum-massachusetts.html
LONE STAR TACO BAR	479 Cambridge St	Boston	MA	02134	https://www.dinersdriveinsdiveslocations.com/lone-star-taco-bar-massachusetts.html
TRINA'S STARLITE LOUNGE	3 Beacon St	Somerville	MA	02143	https://www.dinersdriveinsdiveslocations.com/trinas-starlite-lounge-massachusetts.html
SAUS	33 Union St	Boston	MA	02108	https://www.dinersdriveinsdiveslocations.com/saus-massachusetts.html
CAFE POLONIA	611 Dorchester Ave	Boston	MA	02127	https://www.dinersdriveinsdiveslocations.com/cafe-polonia-massachusetts.html
CASA RAZDORA	115 Water St	Boston	MA	02109	https://www.dinersdriveinsdiveslocations.com/casa-razdora-massachusetts.html
BLUE EYED CRAB	170 Water St	Plymouth	MA	02360	https://www.dinersdriveinsdiveslocations.com/the-blue-eyed-crab-caribbean-grill-rum-bar-massachusetts.html
SHUCKERS	91 Water St	Woods Hole	MA	02543	https://www.dinersdriveinsdiveslocations.com/shuckers-world-famous-raw-bar-cafe-massachusetts.html
DANA'S KITCHEN	881 Palmer Ave	Falmouth	MA	02540	https://www.dinersdriveinsdiveslocations.com/danas-kitchen-massachusetts.html
PICKLE JAR KITCHEN	170 Main St	Falmouth	MA	02540	https://www.dinersdriveinsdiveslocations.com/pickle-jar-kitchen-massachusetts.html
PARKSIDE MARKET	281 Main St	Falmouth	MA	02540	https://www.dinersdriveinsdiveslocations.com/parkside-market-massachusetts.html
DRIFTWOOD PUBLICK HOUSE	39 Court St	Plymouth	MA	02360	https://www.dinersdriveinsdiveslocations.com/the-driftwood-publick-house-massachusetts.html
VEGGIE GALAXY	450 Massachusetts Ave	Cambridge	MA	02139	https://www.dinersdriveinsdiveslocations.com/veggie-galaxy-massachusetts.html
DIRTY WATER DOUGH	222 Newbury St	Boston	MA	02116	https://www.dinersdriveinsdiveslocations.com/dirty-water-dough-massachusetts.html
BAGELSAURUS	1796 Massachusetts Ave	Cambridge	MA	02140	https://www.dinersdriveinsdiveslocations.com/bagelsaurus-massachusetts.html
HIGHLAND FRIED	1271 Cambridge St	Cambridge	MA	02139	https://www.dinersdriveinsdiveslocations.com/highland-fried-massachusetts.html
PAULI'S	65 Salem St	Boston	MA	02113	https://www.dinersdriveinsdiveslocations.com/paulis-massachusetts.html
IN A PICKLE	265 Moody St	Waltham	MA	024533	https://www.dinersdriveinsdiveslocations.com/in-a-pickle-massachusetts.html
ERROR	ERROR	ERROR	ERROR	ERROR	ERROR
ROSIE'S DINER	4500 14 Mile Rd.	Rockford	MI	49341	https://www.dinersdriveinsdiveslocations.com/rosies-diner-michigan.html
JOE'S GIZZARD CITY	120 W. Main St.	Potterville	MI	48876	https://www.dinersdriveinsdiveslocations.com/joes-gizzard-city-michigan.html
THE FLY TRAP	22950 Woodward Ave.	Ferndale	MI	48220	https://www.dinersdriveinsdiveslocations.com/the-fly-trap-michigan.html
KRAZY JIM'S BLIMPY BURGER	551 S. Division St.	Ann Arbor	MI	48104	https://www.dinersdriveinsdiveslocations.com/krazy-jims-blimpy-burger-michigan.html
SUPINO PIZZERIA	2457 Russell St.	Detroit	MI	48207	https://www.dinersdriveinsdiveslocations.com/supino-pizzeria-michigan.html
POLISH VILLAGE CAFE	2990 Yemans Ave.	Hamtramck	MI	48212	https://www.dinersdriveinsdiveslocations.com/polish-village-cafe-michigan.html
TRAFFIC JAM & SNUG	511 W. Canfield St.	Detroit	MI	48201	https://www.dinersdriveinsdiveslocations.com/traffic-jam-and-snug-michigan.html
CLARKSTON UNION BAR & KITCHEN	54 S. Main St.	Clarkston	MI	48346	https://www.dinersdriveinsdiveslocations.com/clarkston-union-bar-and-kitchen-michigan.html
UNION WOODSHOP	18 S. Main St.	Clarkston	MI	48346	https://www.dinersdriveinsdiveslocations.com/union-woodshop-michigan.html
MICHIGAN BREWING CO.	1093 Highview Dr.	Webberville	MI	48892	https://www.dinersdriveinsdiveslocations.com/michigan-brewing-co.html
ZAYTOON	940 Elmwood Rd	Lansing	MI	48917	https://www.dinersdriveinsdiveslocations.com/zaytoon-michigan.html
MEAT BBQ	1224 Turner St	Lansing	MI	48906	https://www.dinersdriveinsdiveslocations.com/meat-bbq-michigan.html
CAPITAL CITY BBQ	1026 W Saginaw St	Lansing	MI	48915	https://www.dinersdriveinsdiveslocations.com/capital-city-bbq-michigan.html
EASTSIDE FISH FRY & GRILL	2417 E Kalamazoo St	Lansing	MI	48912	https://www.dinersdriveinsdiveslocations.com/eastside-fish-fry-grill-michigan.html
THE COSMOS	611 E Grand River Ave	Lansing	MI	48906	https://www.dinersdriveinsdiveslocations.com/the-cosmos-michigan.html
THE PURPLE CARROT	4480 Hagadorn Rd	Okemos	MI		https://www.dinersdriveinsdiveslocations.com/the-purple-carrot-michigan.html
AL'S BREAKFAST	413 14th Ave SE	Minneapolis	MN	55414	https://www.dinersdriveinsdiveslocations.com/als-breakfast-minnesota.html
PSYCHO SUZIE'S MOTOR LOUNGE	1900 Marshall St. NE	Minneapolis	MN	55418	https://www.dinersdriveinsdiveslocations.com/psycho-suzies-motor-lounge-minnesota.html
THE NOOK	492 Hamline Ave. S.	St. Paul	MN	55116	https://www.dinersdriveinsdiveslocations.com/the-nook-minnesota.html
TOWN TALK DINER	2707 1/2 E Lake St.	Minneapolis	MN	55406	https://www.dinersdriveinsdiveslocations.com/town-talk-diner-minnesota.html
THE WIENERY	414 Cedar Ave. S.	Minneapolis	MN	55454	https://www.dinersdriveinsdiveslocations.com/the-wienery-minnesota.html
BRYANT-LAKE BOWL	810 W Lake St.	Minneapolis	MN	55408	https://www.dinersdriveinsdiveslocations.com/bryant-lake-bowl-minnesota.html
VICTOR'S 1959 CAFE	756 Grand Ave S	Minneapolis	MN	55409	https://www.dinersdriveinsdiveslocations.com/victors-1959-cafe-minnesota.html
DONATELLI'S	2692 E County Road E	White Bear Lake	MN	55110	https://www.dinersdriveinsdiveslocations.com/donatellis-minnesota.html
MODERN CAFE	337 13th Ave NE	Minneapolis	MN	55413	https://www.dinersdriveinsdiveslocations.com/modern-cafe-minnesota.html
EMILY'S LEBANESE DELICATESSEN	641 University Ave NE	Minneapolis	MN	55413	https://www.dinersdriveinsdiveslocations.com/emilys-lebanese-delicatessen-minnesota.html
NORTHERN WATERS SMOKEHAUS	Dewitt-Seitz Marketplace	Duluth	MN	55802	https://www.dinersdriveinsdiveslocations.com/northern-waters-smokehaus-minnesota.html
GORDY'S HI-HAT	415 Sunnyside Dr.	Cloquet	MN	55720	https://www.dinersdriveinsdiveslocations.com/gordys-hi-hat-minnesota.html
KRAMARCZUK'S	215 East Hennepin Avenue	Minneapolis	MN	55414	https://www.dinersdriveinsdiveslocations.com/kramarczuks-minnesota.html
AT SARA'S TABLE CHESTER CREEK CAFE	1902 East 8th Street	Duluth	MN	55812	https://www.dinersdriveinsdiveslocations.com/at-saras-table-chester-creek-cafe-minnesota.html
THE BLUE DOOR PUB	1811 Selby Avenue	St. Paul	MN	55104	https://www.dinersdriveinsdiveslocations.com/the-blue-door-pub-minnesota.html
DULUTH GRILL	118 S 27th Ave. West	Duluth	MN	55806	https://www.dinersdriveinsdiveslocations.com/duluth-grill-minnesota.html
COLOSSAL CAFE	1839 East 42nd Street	Minneapolis	MN	55407	https://www.dinersdriveinsdiveslocations.com/colossal-cafe-minnesota.html
Q FANATIC BBQ	180 Miller Rd.	Champlin	MN	55316	https://www.dinersdriveinsdiveslocations.com/q-fanatic-bbq-minnesota.html
NYE'S POLONAISE ROOM	112 East Hennepin Ave.	Minneapolis	MN	55414	https://www.dinersdriveinsdiveslocations.com/nyes-polonaise-room-minnesota.html
PIZZERIA LOLA	5557 Xerxes Ave. S.	Minneapolis	MN	55410	https://www.dinersdriveinsdiveslocations.com/pizzeria-lola-minnesota.html
SMACK SHACK AT THE 1029 BAR	1029 Marshall St. Northeast	Minneapolis	MN	55413	https://www.dinersdriveinsdiveslocations.com/smack-shack-at-the-1029-bar-minnesota.html
BRODERS' CUCINA ITALIAN	2308 W. 50th St.	Minneapolis	MN	55410	https://www.dinersdriveinsdiveslocations.com/broders-cucina-italiana-minnesota.html
MARLA'S CARIBBEAN CUISINE	3761 Bloomington Ave. S.	Minneapolis	MN	55407	https://www.dinersdriveinsdiveslocations.com/marlas-caribbean-cuisine-minnesota.html
SMALLEY'S CARIBBEAN BARBEQUE	423 Main St. South	Stillwater	MN	55082	https://www.dinersdriveinsdiveslocations.com/smalleys-caribbean-barbeque-minnesota.html
CASPER & RUNYON'S NOOK	492 S. Hamline Ave.	St. Paul	MN	55116	https://www.dinersdriveinsdiveslocations.com/casper-and-runyons-nook-minnesota.html
GANNUCCI'S ITALIAN MARKET	301 N Central Ave	Duluth	MN	55807	https://www.dinersdriveinsdiveslocations.com/gannuccis-italian-market-minnesota.html
PAK'S GREEN CORNER	4131 Grand Ave	Duluth	MN	55807	https://www.dinersdriveinsdiveslocations.com/paks-green-corner-minnesota.html
UNIDELI	2015 E 24th St	Minneapolis	MN	55404	https://www.dinersdriveinsdiveslocations.com/united-noodles-minnesota.html
GEORGE & DRAGON PUB	813 W 50th St	Minneapolis	MN	55419	https://www.dinersdriveinsdiveslocations.com/george-and-the-dragon-pub-minnesota.html
BAYPORT BBQ	328 5th Ave N	Bayport	MN	55003	https://www.dinersdriveinsdiveslocations.com/bayport-bbq-minnesota.html
ANDALE TAQUERIA & MERCADO	W 77th St	Richfield	MN	55423	https://www.dinersdriveinsdiveslocations.com/andale-taqueria-mercado-minnesota.html
BUSTER'S ON 28TH	4204 S 28th Ave	Minneapolis	MN	55406	https://www.dinersdriveinsdiveslocations.com/busters-on-28th-minnesota.html
NORTHBOUND SMOKEHOUSE & BREWPUB	2716 E 38th St	Minneapolis	MN	55406	https://www.dinersdriveinsdiveslocations.com/northbound-smokehouse-brewpub-minnesota.html
GANDHI MAHAL	3009 27th Ave S	Minneapolis	MN	55406	https://www.dinersdriveinsdiveslocations.com/gandhi-mahal-minnesota.html
THE HERBIVOROUS BUTCHER	507 1st Ave NE	Minneapolis	MN	55413	https://www.dinersdriveinsdiveslocations.com/the-herbivorous-butcher-minnesota.html
SURLY BREWING CO	520 Malcolm Ave SE	Minneapolis	MN	55414	https://www.dinersdriveinsdiveslocations.com/surly-brewing-company-minnesota.html
HOLY LAND	2513 Central Ave NE	Minneapolis	MN	55418	https://www.dinersdriveinsdiveslocations.com/holy-land-minnesota.html
PRAIRIE DOGS	610 W Lake St	Minneapolis	MN	55408	https://www.dinersdriveinsdiveslocations.com/prairie-dogs-minnesota.html
RED WAGON PIZZA CO	5416 Penn Ave S	Minneapolis	MN	55419	https://www.dinersdriveinsdiveslocations.com/red-wagon-pizza-minnesota.html
SOL AVE. KITCHEN	1408 1st Ave N	Moorhead	MN	56560	https://www.dinersdriveinsdiveslocations.com/sol-ave-kitchen-minnesota.html
RUSTICA EATERY AND TAVERN	315 Main Ave	Moorhead	MN	56560	https://www.dinersdriveinsdiveslocations.com/rustica-eatery-tavern-minnesota.html
ERROR	ERROR	ERROR	ERROR	ERROR	ERROR
THE SHED BARBECUE & BLUES JOINT	7501 Hwy 57	Ocean Springs	MS	39565	https://www.dinersdriveinsdiveslocations.com/the-shed-barbecue-blues-joint-mississippi.html
DARWELL'S CAFE	127 E. First St.	Long Beach	MS	39560	https://www.dinersdriveinsdiveslocations.com/darwells-cafe-mississippi.html
BLOW FLY INN	1201 Washington Ave	Gulfport	MS	39507	https://www.dinersdriveinsdiveslocations.com/blow-fly-inn-mississippi.html
MEMPHIS STREET CAFE	2476 Memphis St.	Hernando	MS	38632	https://www.dinersdriveinsdiveslocations.com/memphis-street-cafe-mississippi.html
MEMPHIS BARBECUE CO.	709 Desoto Cove	Horn Lake	MS	38637	https://www.dinersdriveinsdiveslocations.com/memphis-barbecue-co-mississippi.html
ERROR	ERROR	ERROR	ERROR	ERROR	ERROR
GRINDER'S	417 E. 18th St.	Kansas City	MO	64108	https://www.dinersdriveinsdiveslocations.com/grinders-missouri.html
MAMA'S 39th STREET	3906 Waddell St.	Kansas City	MO	64111	https://www.dinersdriveinsdiveslocations.com/39th-street-mamas-missouri.html
SWEETIE PIE'S	4270 Manchester Ave	St. Louis	MO	63110	https://www.dinersdriveinsdiveslocations.com/sweetie-pies-missouri.html
IRON BARLEY	5510 Virginia Ave	St. Louis	MO	63111	https://www.dinersdriveinsdiveslocations.com/iron-barley-missouri.html
YJ'S SNACK BAR	128 W. 18th St.	Kansas City	MO	64108	https://www.dinersdriveinsdiveslocations.com/yjs-snack-bar-missouri.html
SMOKIN' GUNS BBQ	1218 Swift Avenue North	Kansas City	MO	64116	https://www.dinersdriveinsdiveslocations.com/smokin-guns-bbq-missouri.html
SWAGGER FINE SPIRITS AND FOOD	8431 Wornall Road	Kansas City	MO	64114	https://www.dinersdriveinsdiveslocations.com/swagger-fine-spirits-and-food-missouri.html
HAPPY GILLIS CAFE & HANGOUT	549 Gillis Street	Kansas City	MO	64106	https://www.dinersdriveinsdiveslocations.com/happy-gillis-cafe-hangout-missouri.html
THE BRICK	1727 McGee St	Kansas City	MO	64108	https://www.dinersdriveinsdiveslocations.com/the-brick-missouri.html
GUERRILLA STREET FOOD	856 Pennsylvania Ave	St. Louis	MO	63130	https://www.dinersdriveinsdiveslocations.com/guerrilla-street-food-missouri.html
ANTHONINO'S TAVERNA	2225 Macklind Ave.	St. Louis	MO	63110	https://www.dinersdriveinsdiveslocations.com/anthoninos-taverna-missouri.html
HIGHWAY 61 ROADHOUSE AND KITCHEN	34 S Old Orchard Ave	St. Louis	MO	63119	https://www.dinersdriveinsdiveslocations.com/highway-61-roadhouse-and-kitchen-missouri.html
THE SHAVED DUCK	2900 Virginia Ave.	St. Louis	MO	63118	https://www.dinersdriveinsdiveslocations.com/the-shaved-duck-missouri.html
DRESSEL'S PUBLIC HOUSE	419 N. Euclid Ave.	St. Louis	MO	63108	https://www.dinersdriveinsdiveslocations.com/dressels-public-house-missouri.html
ESPINO'S MEXICAN BAR & GRILL	17409 Chesterfield Airport Rd.	Chesterfield	MO	63005	https://www.dinersdriveinsdiveslocations.com/espinos-mexican-bar-and-grill-missouri.html
DANNY EDWARDS BOULEVARD BBQ	2900 Southwest Blvd	Kansas City	MO	64108	https://www.dinersdriveinsdiveslocations.com/danny-edwards-boulevard-bbq-missouri.html
BB'S LAWNSIDE BLUES AND BBQ	1205 E 85th St	Kansas City	MO	64131	https://www.dinersdriveinsdiveslocations.com/bbs-lawnside-blues-and-bbq-missouri.html
SUCCOTASH	2601 Holmes St	Kansas City	MO	64108	https://www.dinersdriveinsdiveslocations.com/succotash-missouri.html
CUPINI'S	1809 Westport Rd	Kansas City	MO	64111	https://www.dinersdriveinsdiveslocations.com/cupinis-missouri.html
POT PIE	904 Westport Rd	Kansas City	MO	64111	https://www.dinersdriveinsdiveslocations.com/pot-pie-missouri.html
BLUE KOI	1803 W 39th St	Kansas City	MO	64111	https://www.dinersdriveinsdiveslocations.com/blue-koi-missouri.html
BANKSIA	105 W 9th St	Kansas City	MO	64105	https://www.dinersdriveinsdiveslocations.com/banksia-missouri.html
JAROCHO	105 W 9th St	Kansas City	MO	64105	https://www.dinersdriveinsdiveslocations.com/jarocho-missouri.html
KC TACO COMPANY	520 Walnut St	Kansas City	MO	64106	https://www.dinersdriveinsdiveslocations.com/kc-taco-company-missouri.html
KROKSTROM SCANDINAVIAN	3601 Broadway Blvd	Kansas City	MO	64111	https://www.dinersdriveinsdiveslocations.com/krokstrom-scandinavian-comfort-food-missouri.html
EXTRA VIRGIN	1900 Main St	Kansas City	MO	64108	https://www.dinersdriveinsdiveslocations.com/extra-virgin-missouri.html
PIGWICH	20 E 5th St	Kansas City	MO	64106	https://www.dinersdriveinsdiveslocations.com/pigwich-missouri.html
ERROR	ERROR	ERROR	ERROR	ERROR	ERROR
ROOST FRIED CHICKEN	1520 W Main St	Bozeman	MT	59715	https://www.dinersdriveinsdiveslocations.com/roost-fried-chicken-montana.html
STORM CASTLE CAFE	5 Tai Ln	Bozeman	MT	59715	https://www.dinersdriveinsdiveslocations.com/storm-castle-cafe-montana.html
DIXIE QUICKS	1915 Leavenworth St.	Omaha	NE	68102	https://www.dinersdriveinsdiveslocations.com/dixie-quicks-nebraska.html
AMATO'S	6405 Center St.	Omaha	NE	68016	https://www.dinersdriveinsdiveslocations.com/amatos-nebraska.html
BIG MAMA'S KITCHEN & CATERING	3223 North 45th Street	Omaha	NE	68104	https://www.dinersdriveinsdiveslocations.com/big-mamas-kitchen-catering-nebraska.html
BREWBURGERS'S	4629 South 108th Street	Omaha	NE	68127	https://www.dinersdriveinsdiveslocations.com/brewburgers-nebraska.html
JOE TESS PLACE	5424 South 24th St.	Omaha	NE	68102	https://www.dinersdriveinsdiveslocations.com/joe-tess-place-nebraska.html
CALIFORNIA TACOS	3235 California Street	Omaha	NE	68131	https://www.dinersdriveinsdiveslocations.com/california-tacos-nebraska.html
IZZY'S PIZZA BUS	5402 S 108th St	Omaha	NE	68137	https://www.dinersdriveinsdiveslocations.com/izzys-pizza-bus-nebraska.html
ERROR	ERROR	ERROR	ERROR	ERROR	ERROR
FOUR KEGS SPORTS PUB	276 N. Jones Blvd.	Las Vegas	NV	89107	https://www.dinersdriveinsdiveslocations.com/four-kegs-sports-pub-nevada.html
THE COFFEE CUP	512 Nevada Highway	Boulder City	NV	89005	https://www.dinersdriveinsdiveslocations.com/the-coffee-cup-nevada.html
DISH CAFE & CATERING	855 Mill St.	Reno	NV	89502	https://www.dinersdriveinsdiveslocations.com/dish-cafe-catering-nevada.html
GOLD 'N SILVER	790 West 4th Street	Reno	NV	89503	https://www.dinersdriveinsdiveslocations.com/gold-n-silver-inn-nevada.html
FORTE EUROPEAN TAPAS BAR & BISTRO	4180 S. Rainbow, Ste. 806	Las Vegas	NV	89103	https://www.dinersdriveinsdiveslocations.com/forte-european-tapas-bar-and-bistro-nevada.html
JOHN MULL'S MEATS & ROAD KILL GRILL	3730 Thom Blvd.	Las Vegas	NV	89130	https://www.dinersdriveinsdiveslocations.com/john-mulls-meats-and-road-kill-grill-nevada.html
NAKED CITY PIZZA	3240 S. Arville St.	Las Vegas	NV	89102	https://www.dinersdriveinsdiveslocations.com/naked-city-pizza-nevada.html
LOUIS' BASQUE CORNER	301 E 4th St.	Reno	NV	89512	https://www.dinersdriveinsdiveslocations.com/louis-basque-corner-nevada.html
UNLV	4505 S. Maryland Pkwy.	Las Vegas	NV	89154	https://www.dinersdriveinsdiveslocations.com/unlv-nevada.html
LOLA'S - A LOUISIANA KITCHEN	241 W.Charleston Ste.101	Las Vegas	NV	89102	https://www.dinersdriveinsdiveslocations.com/lolas-a-louisiana-kitchen-nevada.html
BACHI BURGER	470 E. Windmill Ln.	Las Vegas	NV	89123	https://www.dinersdriveinsdiveslocations.com/bachi-burger-nevada.html
YAYO TACO	4632 S Maryland Pkwy	Las Vegas	NV	89119	https://www.dinersdriveinsdiveslocations.com/yayo-taco-nevada.html
FAT CHOY	595 E Sahara Ave	Las Vegas	NV	89104	https://www.dinersdriveinsdiveslocations.com/fat-choy-nevada.html
CREPE EXPECTATIONS	9500 S Eastern Ave	Las Vegas 	NV	89123	https://www.dinersdriveinsdiveslocations.com/crepe-expectations-nevada.html
THOSE GUYS PIES	2916 Lake East Dr.	Las Vegas	NV	89117	https://www.dinersdriveinsdiveslocations.com/those-guys-pies-nevada.html
VEGAS KITCHEN BAR	3535 S Las Vegas Blvd	Las Vegas	NV	89109	https://www.dinersdriveinsdiveslocations.com/guy-fieris-vegas-kitchen-bar-nevada.html
OSAKA JAPANESE BISTRO	4205 W Sahara Ave	Las Vegas	NV	89102	https://www.dinersdriveinsdiveslocations.com/osaka-japanese-bistro-nevada.html
NOBLE PIE PARLOR	239 W 2nd St	Reno	NV	89501	https://www.dinersdriveinsdiveslocations.com/noble-pie-parlor-nevada.html
BUTCHER'S KITCHEN CHAR-B-QUE	7689 S Virginia St N	Reno	NV	89511	https://www.dinersdriveinsdiveslocations.com/butchers-kitchen-char-b-que-nevada.html
FULL BELLY DELI	3064 Mill St	Reno	NV	89502	https://www.dinersdriveinsdiveslocations.com/full-belly-deli-nevada.html
WASHOE PUBLIC HOUSE	275 Hill St	Reno	NV	89501	https://www.dinersdriveinsdiveslocations.com/washoe-public-house-nevada.html
YOSH'S UNIQUE DELI	85 Foothill Rd #4	Reno	NV	89511	https://www.dinersdriveinsdiveslocations.com/yoshs-unique-deli-nevada.html
CAROLINA KITCHEN AND BBQ CO.	950 Glendale Ave	Sparks	NV	89431	https://www.dinersdriveinsdiveslocations.com/carolina-kitchen-bbq-co-nevada.html
CHICKPEAS MEDITERRANEAN CAFE	6110 W Flamingo Rd	Las Vegas	NV	89103	https://www.dinersdriveinsdiveslocations.com/chickpeas-mediterranean-cafe-nevada.html
NOBUTCHER	3565 S Rainbow Blvd Suite 110	Las Vegas	NV	89103	https://www.dinersdriveinsdiveslocations.com/nobutcher-nevada.html
MARSIGLIANO'S PIZZERIA AND MORE	8125 W Sahara Ave #170	Las Vegas	NV	89117	https://www.dinersdriveinsdiveslocations.com/marsiglianos-pizzeria-more-nevada.html
HOUSE OF DUTCH POT	4255 S Durango Dr	Las Vegas	NV	89147	https://www.dinersdriveinsdiveslocations.com/house-of-dutch-pot-nevada.html
WHAT'S ZAAP?	9575 W Tropicana Ave #1	Las Vegas	NV	89147	https://www.dinersdriveinsdiveslocations.com/whats-zaap-nevada.html
LETTY'S DE LETICIA'S COCINA	807 S Main St	Las Vegas	NV	89101	https://www.dinersdriveinsdiveslocations.com/lettys-de-leticias-cocina-nevada.html
ERROR	ERROR	ERROR	ERROR	ERROR	ERROR
RED ARROW DINER	61 Lowell St.	Manchester	NH	03101	https://www.dinersdriveinsdiveslocations.com/red-arrow-diner-new-hampshire.html
TUCKAWAY TAVERN & BUTCHERY	58 NH-27	Raymond	NH	03077	https://www.dinersdriveinsdiveslocations.com/tuckaway-tavern-and-butchery-new-hampshire.html
45 MARKET STREET BAKERY & CAFE	45 Market St	Somersworth	NH	03878	https://www.dinersdriveinsdiveslocations.com/45-market-street-bakery-cafe-new-hampshire.html
STREET Food 360	801 Islington St	Portsmouth	NH	03801	https://www.dinersdriveinsdiveslocations.com/street-food-360-new-hampshire.html
MOXY	106 Penhallow St	Portsmouth	NH	03801	https://www.dinersdriveinsdiveslocations.com/moxy-new-hampshire.html
THE KITCHEN	171 Islington St	Portsmouth	NH	03801	https://www.dinersdriveinsdiveslocations.com/the-kitchen-new-hampshire.html
VIDA CANTINA	2456 Lafayette Rd	Portsmouth	NH	03801	https://www.dinersdriveinsdiveslocations.com/vida-cantina-new-hampshire.html
MOAT MOUNTAIN SMOKEHOUSE AND BREWING COMPANY	3378 White Mountain Hwy	North Conway	NH	03860	https://www.dinersdriveinsdiveslocations.com/moat-mountain-smokehouse-brewing-company-new-hampshire.html
BIG DAVE'S BAGELS AND DELI	1130 Eastman Rd	North Conway	NH	03860	https://www.dinersdriveinsdiveslocations.com/big-daves-bagels-deli-new-hampshire.html
BARLEY AND SALT TAP HOUSE AND KITCHEN	1699 White Mountain Hwy	North Conway	NH	03860	https://www.dinersdriveinsdiveslocations.com/barley-salt-tap-house-kitchen-new-hampshire.html
BAY WAY DINER	2019 S Wood Ave.	Linden	NJ	07036	https://www.dinersdriveinsdiveslocations.com/bay-way-diner-new-jersey.html
MUSTACHE BILL'S	8th Ave. &amp; Broadway St.	Barnegat Light	NJ	08005	https://www.dinersdriveinsdiveslocations.com/mustache-bills-new-jersey.html
TICK TOCK DINER	281 Allwood Rd.	Clifton	NJ	07012	https://www.dinersdriveinsdiveslocations.com/tick-tock-diner-new-jersey.html
WHITE MANNA HAMBURGERS	358 River St.	Hackensack	NJ	07601	https://www.dinersdriveinsdiveslocations.com/white-manna-hamburgers-new-jersey.html
THE RITZ DINER	72 East Mount Pleasant Ave.	Livingston	NJ	07039	https://www.dinersdriveinsdiveslocations.com/the-ritz-diner-new-jersey.html
HIGHTSTOWN DINER	151 Mercer St.	Hightstown	NJ	08520	https://www.dinersdriveinsdiveslocations.com/hightstown-diner-new-jersey.html
SKYLARK DINER	Route 1 and Wooding Ave.	Edison	NJ	08817	https://www.dinersdriveinsdiveslocations.com/skylark-diner-new-jersey.html
JEFFERSON DINER	5 Bowling Green Pkwy.	Lake Hopatcong	NJ	07849	https://www.dinersdriveinsdiveslocations.com/jefferson-diner-new-jersey.html
BROWNSTONE DINER	426 Jersey Ave.	Jersey City	NJ	07302	https://www.dinersdriveinsdiveslocations.com/brownstone-diner-new-jersey.html
BAYWAY CATERING	2019 S Wood Ave.	Linden	NJ	07036	https://www.dinersdriveinsdiveslocations.com/bayway-diner-new-jersey.html
GEORGE'S PLACE	301 Beach Drive	Cape May	NJ	08204	https://www.dinersdriveinsdiveslocations.com/georges-place-new-jersey.html
10TH AVENUE BURRITO	801 Belmar Plaza	Belmar	NJ	07719	https://www.dinersdriveinsdiveslocations.com/10th-avenue-burrito-new-jersey.html
MAUI'S DOG HOUSE	806 New Jersey Avenue	Wildwood	NJ	08260	https://www.dinersdriveinsdiveslocations.com/mauis-dog-house-new-jersey.html
QUAHOG'S SEAFOOD SHACK	206 97th St.	Stone Harbor	NJ	08084	https://www.dinersdriveinsdiveslocations.com/quahogs-seafood-shack-new-jersey.html
LA ISLA RESTAURANT	104 Washington St.	Hoboken	NJ	07030	https://www.dinersdriveinsdiveslocations.com/la-isla-restaurant-new-jersey.html
MARIE'S ITALIAN SPECIALTIES	641 Shunpike Rd	Chatham	NJ	07928	https://www.dinersdriveinsdiveslocations.com/maries-italian-specialties-new-jersey.html
ANCHORAGE TAVERN	823 Bay Ave	Somers Point	NJ	08244	https://www.dinersdriveinsdiveslocations.com/anchorage-tavern-restaurant-new-jersey.html
GRILLED CHEESE & CRAB CAKE CO	55 W Laurel Dr	Somers Point	NJ	08244	https://www.dinersdriveinsdiveslocations.com/grilled-cheese-crab-cake-co-new-jersey.html
CARLUCCIOS COAL FIRED PIZZA	1200 New Rd	Northfield	NJ	08225	https://www.dinersdriveinsdiveslocations.com/carluccios-coal-fired-pizza-new-jersey.html
KELSEY & KIM'S SOUTHERN CAFE	201 Melrose Ave	Atlantic City	NJ	08401	https://www.dinersdriveinsdiveslocations.com/kelsey-kims-southern-cafe-new-jersey.html
ERNEST & SON MEAT MARKET	3305 W Brigantine Ave	Brigantine	NJ	08203	https://www.dinersdriveinsdiveslocations.com/ernest-son-meat-market-new-jersey.html
OYSTER CREEK INN & BOAT BAR	41 North Oyster Creek Rd	Leeds Point	NJ	08220	https://www.dinersdriveinsdiveslocations.com/oyster-creek-restaurant-boat-bar-new-jersey.html
PICCINI PIZZA	1260 West Ave	Ocean City	NJ	08226	https://www.dinersdriveinsdiveslocations.com/piccini-new-jersey.html
VAGABOND KITCHEN	672 N Trenton Ave	Atlantic City	NJ	08401	https://www.dinersdriveinsdiveslocations.com/vagabond-kitchen-tap-house-new-jersey.html
SAM'S RIALTO BAR & GRILL	18 S Main St	Pleasantville	NJ	08232	https://www.dinersdriveinsdiveslocations.com/sams-rialto-bar-grill-new-jersey.html
VINCENTOWN DINER	2357 US-206	Vincentown	NJ	08088	https://www.dinersdriveinsdiveslocations.com/vincentown-diner-new-jersey.html
JAMMIN' CREPES	20 Nassau St	Princeton	NJ	08542	https://www.dinersdriveinsdiveslocations.com/jammin-crepes-new-jersey.html
ROCKY HILL INN	137 Washington St	Rocky Hill	NJ	08553	https://www.dinersdriveinsdiveslocations.com/rocky-hill-inn-new-jersey.html
BAGEL STREET GRILL	660 Plainsboro Rd	Plainsboro	NJ	08536	https://www.dinersdriveinsdiveslocations.com/bagel-street-grill-new-jersey.html
DOLCE & CLEMENTE'S	2 N Commerce Square	Robbinsville	NJ	08691	https://www.dinersdriveinsdiveslocations.com/dolce-clementes-new-jersey.html
JERSEY GIRL CAFE	608 Marketplace Blvd	Hamilton	NJ	08691	https://www.dinersdriveinsdiveslocations.com/jersey-girl-cafe-new-jersey.html
HALDI CHOWK	1409 NJ-35 # 2012	Middletown	NJ	07748	https://www.dinersdriveinsdiveslocations.com/haldi-chowk-new-jersey.html
TURF SURF AND EARTH	46 E Main St	Somerville	NJ	08876	https://www.dinersdriveinsdiveslocations.com/turf-surf-earth-new-jersey.html
THE CHUBBY PICKLE	23 Bay Ave.	Highlands	NJ	07732	https://www.dinersdriveinsdiveslocations.com/the-chubby-pickle-new-jersey.html
MOO TAI THAI	1064 Ocean Ave N	Sea Bright	NJ	07760	https://www.dinersdriveinsdiveslocations.com/moo-yai-thai-new-jersey.html
BIG PINKS BBQ	483 Union Ave	Bridgewater Township	NJ	08807	https://www.dinersdriveinsdiveslocations.com/big-pinks-bbq-new-jersey.html
JOE'S MEAT MARKET	28 Main S	South Bound Brook	NJ	08880	https://www.dinersdriveinsdiveslocations.com/joes-meat-market-new-jersey.html
ERROR	ERROR	ERROR	ERROR	ERROR	ERROR
TECOLOTE CAFE	1203 Cerrillos Rd.	Santa Fe	NM	87505	https://www.dinersdriveinsdiveslocations.com/tecolote-cafe-new-mexico.html
MONTE CARLO STEAK HOUSE	3916 Central SW	Albuquerque	NM	87105	https://www.dinersdriveinsdiveslocations.com/monte-carlo-steak-house-new-mexico.html
HARRY'S ROADHOUSE	96 B Old Las Vegas Hwy	Santa Fe	NM	87507	https://www.dinersdriveinsdiveslocations.com/harrys-roadhouse-new-mexico.html
SOPHIA'S PLACE	6313 4th St N.W.	Albuquerque	NM	87107	https://www.dinersdriveinsdiveslocations.com/sophias-place-new-mexico.html
TUNE-UP CAFE	1115 Hickox St	Santa Fe	NM	87501	https://www.dinersdriveinsdiveslocations.com/tune-up-cafe-new-mexico.html
STANDARD DINER	320 Central Ave. SE	Albuquerque	NM	87102	https://www.dinersdriveinsdiveslocations.com/standard-diner-new-mexico.html
CECILIA'S CAFE	230 Sixth St. SW	Albuquerque	NM	87102	https://www.dinersdriveinsdiveslocations.com/cecilias-cafe-new-mexico.html
BERT'S BURGER BOWL	235 N Guadalupe St.	Santa Fe	NM	87501	https://www.dinersdriveinsdiveslocations.com/berts-burger-bowl-new-mexico.html
BACKROAD PIZZA	1807 2nd St.	Santa Fe	NM	87505	https://www.dinersdriveinsdiveslocations.com/backroad-pizza-new-mexico.html
ZIA DINER & ANGEL FOOD CATERING	326 S Guadalupe Street	Santa Fe	NM	87501	https://www.dinersdriveinsdiveslocations.com/zia-diner-angel-food-catering-new-mexico.html
CASA CHIMAYO	409 W Water St	Santa Fe	NM	87501	https://www.dinersdriveinsdiveslocations.com/casa-chimayo-restaurant-new-mexico.html
TORINO'S @ HOME	7600 Jefferson St	Albuquerque	NM	87109	https://www.dinersdriveinsdiveslocations.com/torinos-at-home-new-mexico.html
BOCADILLO'S	1609 Indian School Rd NW	Albuquerque	NM	87104	https://www.dinersdriveinsdiveslocations.com/bocadillos-new-mexico.html
JAMBO CAFE	2010 Cerrillos Rd	Santa Fe	NM	87505	https://www.dinersdriveinsdiveslocations.com/jambo-cafe-new-mexico.html
GOLDEN CROWN PANADERIA	1103 Mountain Rd NW	Albuquerque	NM	87102	https://www.dinersdriveinsdiveslocations.com/golden-crown-panaderia-new-mexico.html
BACK STREET BISTRO	513 Camino De Los Marquez	Santa Fe	NM	87505	https://www.dinersdriveinsdiveslocations.com/back-street-bistro-new-mexico.html
NEXUS BREWERY	4730 Pan American Fwy	Albuquerque	NM	87109	https://www.dinersdriveinsdiveslocations.com/nexus-brewery-new-mexico.html
THE CUBE BBQ	1520 Central Ave SE	Albuquerque	NM	87106	https://www.dinersdriveinsdiveslocations.com/the-cube-new-mexico.html
ARABLE	7 Ave Vista Grande B-6	Santa Fe	NM	87508	https://www.dinersdriveinsdiveslocations.com/arable-new-mexico.html
THE BEESTRO	66 E San Francisco St Suite 21	Santa Fe	NM	87501	https://www.dinersdriveinsdiveslocations.com/the-beestro-new-mexico.html
JOSEPH'S CULINARY PUB	428 Agua Fria St	Santa Fe	NM	87501	https://www.dinersdriveinsdiveslocations.com/josephs-culinary-pub-new-mexico.html
PAPER DOSA	551 W Cordova Rd	Santa Fe	NM	87505	https://www.dinersdriveinsdiveslocations.com/paper-dosa-new-mexico.html
DR. FIELD GOODS KITCHEN	2860 Cerrillos Rd	Santa Fe	NM	87507	https://www.dinersdriveinsdiveslocations.com/dr-field-goods-kitchen-new-mexico.html
ROWLEY FARMHOUSE ALES	1405 Maclovia St	Santa Fe	NM	87505	https://www.dinersdriveinsdiveslocations.com/rowley-farmhouse-ales-new-mexico.html
FRANK'S FAMOUS CHICKEN AND WAFFLES	400 Washington St SE	Albuquerque	NM	87108	https://www.dinersdriveinsdiveslocations.com/franks-famous-chicken-and-waffles-new-mexico.html
RED ROCK DELI	2414 San Mateo Pl NE	Albuquerque	NM	87110	https://www.dinersdriveinsdiveslocations.com/red-rock-deli-new-mexico.html
KITSUNE	524 Romero St NW	Albuquerque	NM	87104	https://www.dinersdriveinsdiveslocations.com/kitsune-new-mexico.html
GUAVA TREE CAFE	118 Richmond Dr NE	Albuquerque	NM	87106	https://www.dinersdriveinsdiveslocations.com/guava-tree-cafe-new-mexico.html
THE ACRE	4410 Wyoming Blvd NE	Albuquerque	NM	87111	https://www.dinersdriveinsdiveslocations.com/the-acre-new-mexico.html
CODA BAKERY	230 Louisiana Blvd SE C	Albuquerque	NM	87108	https://www.dinersdriveinsdiveslocations.com/coda-bakery-new-mexico.html
RANCHOS PLAZA GRILL	8 Ranchos Plz	Taos	NM	87557	https://www.dinersdriveinsdiveslocations.com/ranchos-plaza-grill-new-mexico.html
ANTONIO'S THE TASTE OF MEXICO	1379 Paseo Del Pueblo Sur	Taos	NM	87571	https://www.dinersdriveinsdiveslocations.com/antonios-the-taste-of-mexico-new-mexico.html
GUTIZ	812B Paseo Del Pueblo Norte	Taos	NM	87571	https://www.dinersdriveinsdiveslocations.com/gutiz-new-mexico.html
DONABE ASIAN KITCHEN	133 Paseo Del Pueblo Norte	Taos	NM	87571	https://www.dinersdriveinsdiveslocations.com/donabe-asian-kitchen-new-mexico.html
ALY'S TAOS EATS	498 NM-150	Arroyo Seco	NM	87514	https://www.dinersdriveinsdiveslocations.com/alys-taos-eats-new-mexico.html
ACEQ	498 NM-150	Arroyo Seco	NM	87514	https://www.dinersdriveinsdiveslocations.com/aceq-new-mexico.html
EVEREADY DINER	4189 Albany Post Rd. Route 9 N.	Hyde Park	NY	12538	https://www.dinersdriveinsdiveslocations.com/eveready-diner-new-york.html
MO GRIDDER'S BBQ	565 Hunt's Point Ave.	Bronx	NY	10474	https://www.dinersdriveinsdiveslocations.com/mo-gridders-bbq-new-york.html
GROVER'S BAR & GRILL	9160 Transit Road	East Amherst	NY	14051	https://www.dinersdriveinsdiveslocations.com/grovers-bar-grill-new-york.html
LAKE EFFECT DINER	3165 Main St	Buffalo	NY	14214	https://www.dinersdriveinsdiveslocations.com/lake-effect-diner-new-york.html
PIZZA JUNCTION	1269 Erie Avenue	North Tonawanda	NY	14120	https://www.dinersdriveinsdiveslocations.com/pizza-junction-new-york.html
BLACKTHORN RESTAURANT & PUB	2134 Seneca Street	Buffalo	NY	14210	https://www.dinersdriveinsdiveslocations.com/blackthorn-restaurant-and-pub-new-york.html
SOPHIA RESTAURANT	749 Military Road	Buffalo	NY	14216	https://www.dinersdriveinsdiveslocations.com/sophia-restaurant-new-york.html
EARL'S DRIVE-IN	12139 Olean Rd. at Rt 16	Chaffee	NY	14030	https://www.dinersdriveinsdiveslocations.com/earls-drive-in-new-york.html
MULBERRY ITALIAN RISTORANTE	64 Jackson Ave.	Lackawanna	NY	14218	https://www.dinersdriveinsdiveslocations.com/mulberry-italian-ristorante-new-york.html
SAGE GENERAL STORE	24-20 Jackson Ave.	Long Island City	NY	11101	https://www.dinersdriveinsdiveslocations.com/sage-general-store-new-york.html
EVA'S EUROPEAN SWEETS	1305 Milton Ave	Syracuse	NY	13204	https://www.dinersdriveinsdiveslocations.com/evas-european-sweets-new-york.html
THE PIT STOP RESTAURANT	1706 Sunrise Hwy	Merrick	NY	11566	https://www.dinersdriveinsdiveslocations.com/the-pit-stop-restaurant-new-york.html
BEN'S BEST DELI	96-40 Queens Boulevard	Rego Park	NY	11374	https://www.dinersdriveinsdiveslocations.com/bens-best-deli-new-york.html
HILDEBRANDT'S	84 Hillside Ave.	Williston Park	NY	11596	https://www.dinersdriveinsdiveslocations.com/hildebrandts-new-york.html
THE SPARROW TAVERN	24-01 29th St	Astoria	NY	11102	https://www.dinersdriveinsdiveslocations.com/the-sparrow-tavern-new-york.html
TORTILLERIA NIXTAMAL	10405 47th Ave.	Corona	NY	11368	https://www.dinersdriveinsdiveslocations.com/tortilleria-nixtamal-new-york.html
MAMA's FOOD SHOP	200 E. Third St.	New York	NY	10009	https://www.dinersdriveinsdiveslocations.com/mamas-food-shop-new-york.html
THE REDHEAD	349 E. 13th St.	New York	NY	10003	https://www.dinersdriveinsdiveslocations.com/the-redhead-new-york.html
RINCON CRIOLLO	40-09 Junction Blvd.	Corona-Queens	NY	11368	https://www.dinersdriveinsdiveslocations.com/rincon-criollo-new-york.html
JOHN'S OF 12TH STREET	302 E. 12th St.	New York	NY	10003	https://www.dinersdriveinsdiveslocations.com/johns-of-12th-street-new-york.html
SIDECAR	560 Fifth Ave.	Brooklyn	NY	11215	https://www.dinersdriveinsdiveslocations.com/sidecar-new-york.html
DEFONTE'S SANDWICH SHOP	379 Columbia St.	Brooklyn	NY	11231	https://www.dinersdriveinsdiveslocations.com/defontes-sandwich-shop-new-york.html
GAZALA'S PLACE	709 9th Ave.	New York	NY	10036	https://www.dinersdriveinsdiveslocations.com/gazalas-place-new-york.html
KITTY HOYNES	301 West Fayette St.	Syracuse	NY	13202	https://www.dinersdriveinsdiveslocations.com/kitty-hoynes-new-york.html
BYBLOS MEDITERRANEAN CAFE	223 N Clinton St	Syracuse	NY	13202	https://www.dinersdriveinsdiveslocations.com/byblos-mediterranean-cafe-new-york.html
PASTABILITIES	311 S. Franklin St.	Syracuse	NY	13201	https://www.dinersdriveinsdiveslocations.com/pastabilities-new-york.html
FUNK 'N WAFFLES	727 S Crouse Ave	Syracuse	NY	13210	https://www.dinersdriveinsdiveslocations.com/funk-n-waffles-new-york.html
THE SMOKE JOINT	87 S. Elliot Place	Brooklyn	NY	11217	https://www.dinersdriveinsdiveslocations.com/the-smoke-joint-new-york.html
JIMMY'S DINER	577 Union Ave	Brooklyn	NY	11211	https://www.dinersdriveinsdiveslocations.com/jimmys-diner-new-york.html
EMPIRE BREWING COMPANY	120 Walton St	Syracuse	NY	13202	https://www.dinersdriveinsdiveslocations.com/empire-brewing-company-new-york.html
PIES 'N' THIGHS	166 S. 4th St.	Brooklyn	NY	11211	https://www.dinersdriveinsdiveslocations.com/pies-n-thighs-new-york.html
BLACK TREE	131 Orchard St	New York	NY	10002	https://www.dinersdriveinsdiveslocations.com/black-tree-new-york.html
QUEENS COMFORT	4009 30th Ave	Astoria	NY	11103	https://www.dinersdriveinsdiveslocations.com/queens-comfort-new-york.html
BRINDLE ROOM	277 E 10th St	New York	NY	10009	https://www.dinersdriveinsdiveslocations.com/brindle-room-new-york.html
BUN-KER VIETNAMESE	46-63 Metropolitan Ave	Ridgewood	NY	11385	https://www.dinersdriveinsdiveslocations.com/bunker-vietnamese-new-york.html
DON ANTONIO BY STARITA	309 W 50th St	New York	NY	10019	https://www.dinersdriveinsdiveslocations.com/don-antonio-by-starita-new-york.html
DUCKS EATERY	351 E 12th St	New York	NY	10003	https://www.dinersdriveinsdiveslocations.com/ducks-eatery-new-york.html
RINCONCITO SALVADORENO	20 Broad St	Port Chester	NY	10573	https://www.dinersdriveinsdiveslocations.com/rinconcito-salvadoreno-new-yorkk.html
THE PENGUIN	1921 Commonwealth Ave.	Charlotte	NC	28205	https://www.dinersdriveinsdiveslocations.com/the-penguin-north-carolina.html
BAR-B-Q KING DRIVE-IN	2900 Wilkinson Blvd.	Charlotte	NC	28208	https://www.dinersdriveinsdiveslocations.com/barbecue-king-drive-in-north-carolina.html
SOUTH 21 DRIVE-IN	3101 E. Independence Blvd.	Charlotte	NC	28205	https://www.dinersdriveinsdiveslocations.com/south-21-drive-in-north-carolina.html
DISH	1220 Thomas Ave.	Charlotte	NC	28205	https://www.dinersdriveinsdiveslocations.com/dish-north-carolina.html
LANDMARK DINER	4429 Central Ave.	Charlotte	NC	28205	https://www.dinersdriveinsdiveslocations.com/landmark-diner-north-carolina.html
CABO FISH TACO	3201 North Davidson St.	Charlotte	NC		https://www.dinersdriveinsdiveslocations.com/cabo-fish-taco-north-carolina.html
JAKE'S GOOD EATS	12721 Albemarle Rd.	Charlotte	NC	28227	https://www.dinersdriveinsdiveslocations.com/jakes-good-eats-north-carolina.html
OUTER BANKS BREWING STATION	600 South Croatan Hwy	Kill Devils Hill	NC	27948	https://www.dinersdriveinsdiveslocations.com/outer-banks-brewing-station-north-carolina.html
THE BRINE AND BOTTLE	7531 S. Virginia Dare Trail	Nags Head	NC	27959	https://www.dinersdriveinsdiveslocations.com/the-brine-and-bottle-north-carolina.html
COASTAL CRAVINGS	1209 Duck Rd	Duck	NC	27949	https://www.dinersdriveinsdiveslocations.com/coastal-cravings-north-carolina.html
ORTEGAZ' SOUTHWESTERN GRILL	201 Sir Walter Raleigh Street	Manteo	NC	27954	https://www.dinersdriveinsdiveslocations.com/ortegaz-southwestern-grill-north-carolina.html
THE WEEPING RADISH	6810 Caratoke Hwy	Grandy	NC	27939	https://www.dinersdriveinsdiveslocations.com/weeping-radish-farm-brewery-north-carolina.html
BLACK PELICAN	3848 Virginia Dare Trl	Kitty Hawk	NC	27949	https://www.dinersdriveinsdiveslocations.com/black-pelican-north-carolina.html
TORTUGAS LIE SHELLFISH BAR & GRILL	3014 S Virginia Dare Trl	Nags Head	NC	27959	https://www.dinersdriveinsdiveslocations.com/tortugas-lie-shellfish-bar-and-grill-north-carolina.html
PINKY'S WESTSIDE GRILL	1600 W.Morehead St.	Charlotte	NC	28208	https://www.dinersdriveinsdiveslocations.com/pinkys-westside-grill-north-carolina.html
PIT ROAD BAR & GRILL	2330 Tipton Dr Suite 100	Charlotte	NC	28206	https://www.dinersdriveinsdiveslocations.com/pit-road-bar-grill-north-carolina.html
THE TIN KITCHEN	525 N Tryon St	Charlotte	NC	28202	https://www.dinersdriveinsdiveslocations.com/the-tin-kitchen-food-truck-north-carolina.html
KRAZY FISH	2501 Central Ave	Charlotte	NC	28205	https://www.dinersdriveinsdiveslocations.com/krazy-fish-north-carolina.html
300 EAST	300 East Blvd	Charlotte	NC	28203	https://www.dinersdriveinsdiveslocations.com/300-east-north-carolina.html
INTERMEZZO PIZZERIA	1427 E 10th St	Charlotte	NC	28204	https://www.dinersdriveinsdiveslocations.com/cafe-intermezzo-north-carolina.html
MERT'S HEART & SOUL	214 N College St	Charlotte	NC	28202	https://www.dinersdriveinsdiveslocations.com/merts-heart-soul-north-carolina.html
JJ'S RED HOTS	1514 East Blvd	Charlotte	NC	28203	https://www.dinersdriveinsdiveslocations.com/jjs-red-hots-north-carolina.html
PAPI QUESO FOOD TRUCK	Third Ward	Charlotte	NC	28202	https://www.dinersdriveinsdiveslocations.com/papi-queso-food-truck-north-carolina.html
BANG BANG BURGERS	2001 E 7th St D	Charlotte	NC	28204	https://www.dinersdriveinsdiveslocations.com/bang-bang-burgers-north-carolina.html
THE IMPROPER PIG	110 S Sharon Amity Rd	Charlotte	NC	28211	https://www.dinersdriveinsdiveslocations.com/the-improper-pig-north-carolina.html
HEIST BREWERY	2909 N Davidson St #200	Charlotte	NC	28205	https://www.dinersdriveinsdiveslocations.com/heist-brewery-north-carolina.html
SALUD BEER SHOP	3306 N Davidson	Charlotte	NC	28205	https://www.dinersdriveinsdiveslocations.com/salud-beer-shop-north-carolina.html
FORK N CORK	122 Market St	Wilmington	NC	28401	https://www.dinersdriveinsdiveslocations.com/fork-n-cork-north-carolina.html
COPPER PENNY	109 Chestnut St	Wilmington	NC	28402	https://www.dinersdriveinsdiveslocations.com/copper-penny-north-carolina.html
CEVICHE'S	7210 Wrightsville Ave	Wilmington	NC	28403	https://www.dinersdriveinsdiveslocations.com/ceviches-north-carolina.html
SWEET N SAVORY	1611 Pavilion Pl	Wilmington	NC	28403	https://www.dinersdriveinsdiveslocations.com/sweet-n-savory-cafe-north-carolina.html
SOMETHING FISHY	3436 S College Rd	Wilmington	NC	28412	https://www.dinersdriveinsdiveslocations.com/something-fishy-north-carolina.html
CAST IRON KITCHEN	8024 Market St unit 6	Wilmington	NC	28411	https://www.dinersdriveinsdiveslocations.com/cast-iron-kitchen-north-carolina.html
AMOS MOSQUITO'S	703 E Fort Macon Rd	Atlantic Beach	NC	28512	https://www.dinersdriveinsdiveslocations.com/amos-mosquitos-north-carolina.html
FLOYD'S 1921 RESTAURANT BAR AND CATERING	400 Bridges St	Morehead City	NC	28557	https://www.dinersdriveinsdiveslocations.com/floyds-1921-restaurant-bar-catering-north-carolina.html
SHEPARD BARBECUE	7801 Emerald Dr	Emerald Isle	NC	28594	https://www.dinersdriveinsdiveslocations.com/shepard-barbecue-north-carolina.html
BLACKBIRD WOODFIRE	206 Broadway N	Fargo	ND	58102	https://www.dinersdriveinsdiveslocations.com/blackbird-woodfire-north-dakota.html
POUNDS	612 1st Ave N	Fargo	ND	58102	https://www.dinersdriveinsdiveslocations.com/pounds-north-dakota.html
NICHOLE'S FINE PASTRY AND CAFE	13 8th St S	Fargo	ND	58103	https://www.dinersdriveinsdiveslocations.com/nicholes-fine-pastry-cafe-north-dakota.html
PASSAGE TO INDIA	855 45th St S a3	Fargo	ND	58103	https://www.dinersdriveinsdiveslocations.com/passage-to-india-north-dakota.html
LUCKY'S CAFE	777 Starkweather Ave.	Cleveland	OH	44113	https://www.dinersdriveinsdiveslocations.com/luckys-cafe-ohio.html
PARKVIEW NITECLUB	1261 West 58th Street	Cleveland	OH	44102	https://www.dinersdriveinsdiveslocations.com/parkview-niteclub-ohio.html
GERACI'S RESTAURANT	2266 Warrensville Center Rd	Cleveland	OH	44118	https://www.dinersdriveinsdiveslocations.com/geracis-restaurant-ohio.html
STERLE'S SLOVENIAN COUNTRY HOUSE	1401 East 55th Street	Cleveland	OH	44103	https://www.dinersdriveinsdiveslocations.com/sterles-slovenian-country-house-ohio.html
MELT BAR & GRILLED	14718 Detroit Ave.	Lakewood	OH	44107	https://www.dinersdriveinsdiveslocations.com/melt-bar-grilled-ohio.html
MOMOCHO	1835 Fulton Rd.	Cleveland	OH	44113	https://www.dinersdriveinsdiveslocations.com/momocho-ohio.html
TERRY'S TURF CLUB	4618 Eastern Ave	Cincinnati	OH	45226	https://www.dinersdriveinsdiveslocations.com/terrys-turf-club-ohio.html
BLUE ASH CHILI RESTAURANT	9565 Kenwood Rd.	Cincinnati	OH	45242	https://www.dinersdriveinsdiveslocations.com/blue-ash-chili-restaurant-ohio.html
BAKERSFIELD OTR	1213 Vine St	Cincinnati	OH	45202	https://www.dinersdriveinsdiveslocations.com/bakersfield-otr-ohio.html
TASTE OF BELGIUM	1133 Vine Street	Cincinnati	OH	45202	https://www.dinersdriveinsdiveslocations.com/taste-of-belgium-ohio.html
SENATE	1212 Vine St	Cincinnati	OH	45202	https://www.dinersdriveinsdiveslocations.com/senate-ohio.html
ISLAND FRYDAYS	2826 Vine St	Cincinnati	OH	45219	https://www.dinersdriveinsdiveslocations.com/island-frydays-ohio.html
MELT ECLECTIC CAFE	4165 Hamilton Ave	Cincinnati	OH	45223	https://www.dinersdriveinsdiveslocations.com/melt-eclectic-cafe-ohio.html
PHO LANG THANG	114 W Elder St	Cincinnati	OH	45202	https://www.dinersdriveinsdiveslocations.com/pho-lang-thang-ohio.html
LOOPS	1629 Northwest Blvd	Columbus	OH	43212	https://www.dinersdriveinsdiveslocations.com/loops-ohio.html
PIEROGI MOUNTAIN	2216 Summit St	Columbus	OH	43201	https://www.dinersdriveinsdiveslocations.com/pierogi-mountain-ohio.html
ENA'S CARIBBEAN KITCHEN	2444 Cleveland Ave	Columbus	OH	43211	https://www.dinersdriveinsdiveslocations.com/enas-caribbean-kitchen-ohio.html
RAY RAY'S HOG PIT	2619 N High St	Columbus	OH	43202	https://www.dinersdriveinsdiveslocations.com/ray-rays-hog-pit-ohio.html
SWEET CARROT	1417 W 5th Ave	Columbus	OH	43212	https://www.dinersdriveinsdiveslocations.com/sweet-carrot-ohio.html
MOMO GHAR	1265 Morse Road	Columbus	OH	43229	https://www.dinersdriveinsdiveslocations.com/momo-ghar-ohio.html
THE ROWLEY INN	1104 Rowley Ave.	Cleveland	OH	43109	https://www.dinersdriveinsdiveslocations.com/the-rowley-inn-ohio.html
MABEL'S BBQ	2050 E 4th St	Cleveland	OH	43115	https://www.dinersdriveinsdiveslocations.com/mabels-bbq-ohio.html
MASON'S CREAMERY	4401 Bridge Av	Cleveland	OH	43113	https://www.dinersdriveinsdiveslocations.com/masons-creamery-ohio.html
FAT CATS	2061 W 10th St	Cleveland	OH	43113	https://www.dinersdriveinsdiveslocations.com/fat-cats-ohio.html
ASTORIA CAFE AND MARKET	5417 Detroit Ave	Cleveland	OH	44102	https://www.dinersdriveinsdiveslocations.com/astoria-cafe-market-ohio.html
GOOD COMPANY	1200 W 76th St	Cleveland	OH	44102	https://www.dinersdriveinsdiveslocations.com/good-company-ohio.html
THE GOVERNOR	231 Main St	Milford	OH	45150	https://www.dinersdriveinsdiveslocations.com/the-governor-ohio.html
LUCIUS Q	1131 Broadway	Cincinnati	OH	45202	https://www.dinersdriveinsdiveslocations.com/lucius-q-ohio.html
SCHOOLHOUSE	8031 Glendale Milford Rd	Camp Dennison	OH	45111	https://www.dinersdriveinsdiveslocations.com/schoolhouse-ohio.html
KIKI COLLEGE HILL	5932 Hamilton Ave	Cincinnati	OH	45224	https://www.dinersdriveinsdiveslocations.com/kiki-college-hill-ohio.html
CITRUS AND SAGO	1004 Delta Ave	Cincinnati	OH	45208	https://www.dinersdriveinsdiveslocations.com/citrus-sago-ohio.html
ERROR	ERROR	ERROR	ERROR	ERROR	ERROR
THE ROCK CAFE	114 W. Main St.	Stroud	OK	74079	https://www.dinersdriveinsdiveslocations.com/the-rock-cafe-oklahoma.html
CLANTON'S CAFE	319 E. Illinois Ave.	Vinita	OK	74301	https://www.dinersdriveinsdiveslocations.com/clantons-cafe-oklahoma.html
MAMA E'S WINGS & WAFFLES	3838 Springlake Dr	Oklahoma City	OK	73111	https://www.dinersdriveinsdiveslocations.com/mama-es-oklahoma.html
LEO'S BBQ	3631 N. Kelley Ave.	Oklahoma City	OK	73111	https://www.dinersdriveinsdiveslocations.com/leos-bbq-oklahoma.html
NIC'S GRILL	1201 N. Pennsylvania Avenue	Oklahoma City	OK	73107	https://www.dinersdriveinsdiveslocations.com/nics-grill-oklahoma.html
EISCHEN'S BAR & GRILL	108 2nd South St.	Okarche	OK	73762	https://www.dinersdriveinsdiveslocations.com/eischens-bar-grill-oklahoma.html
CATTLEMEN'S STEAKHOUSE	1309 S Agnew	Oklahoma City	OK	73108	https://www.dinersdriveinsdiveslocations.com/cattlemens-steakhouse-oklahoma.html
THE DINER	213 E Main St.	Norman	OK	73069	https://www.dinersdriveinsdiveslocations.com/the-diner-oklahoma.html
INGRID'S KITCHEN	3701 North Youngs Blvd.	Oklahoma City	OK	73112	https://www.dinersdriveinsdiveslocations.com/ingrids-kitchen-oklahoma.html
FLORENCE'S	1437 NE 23rd St	Oklahoma City	OK	73111	https://www.dinersdriveinsdiveslocations.com/florences-oklahoma.html
THE SAUCESS SICILIAN	1807 N Classen Blvd	Oklahoma City	OK	73106	https://www.dinersdriveinsdiveslocations.com/the-saucee-sicilian-oklahoma.html
TRAVEL BY TASTE DELI AND MARKET	4818 N MacArthur Blv	Warr Acres	OK	73122	https://www.dinersdriveinsdiveslocations.com/travel-by-taste-deli-market-oklahoma.html
STONE SISTERS PIZZA BAR	2124 N Broadway Ave	Oklahoma City	OK	73103	https://www.dinersdriveinsdiveslocations.com/stone-sisters-pizza-bar-oklahoma.html
CHICK N BEER	715 NW 23rd St	Oklahoma City	OK	73103	https://www.dinersdriveinsdiveslocations.com/chick-n-beer-oklahoma.html
HUNNYBUNNY BISCUIT CO	429 NW 23rd St	Oklahoma City	OK	73103	https://www.dinersdriveinsdiveslocations.com/hunnybunny-biscuit-co-oklahoma.html
GUYUTES	730 NW 23rd St	Oklahoma City	OK	73103	https://www.dinersdriveinsdiveslocations.com/guyutes-oklahoma.html
BYWAYS CAFE	1212 NW Glisan St.	Portland	OR	97209	https://www.dinersdriveinsdiveslocations.com/byways-cafe-oregon.html
ARLETA LIBRARY BAKERY & CAFE	5513 SE 72nd at Harold	Portland	OR	97206	https://www.dinersdriveinsdiveslocations.com/arleta-library-bakery-cafe-oregon.html
OTTO'S SAUSAGE KITCHEN & MEAT MARKET	4138 SE Woodstock Blvd	Portland	OR	97202	https://www.dinersdriveinsdiveslocations.com/ottos-sausage-kitchen-meat-market-oregon.html
INDUSTRIAL CAFE & SALOON	2572 NW Vaughn St	Portland	OR	97210	https://www.dinersdriveinsdiveslocations.com/industrial-cafe-and-saloon-oregon.html
PINE STATE BISCUITS	3640 SE Belmont St.	Portland	OR	97214	https://www.dinersdriveinsdiveslocations.com/pine-state-biscuits-oregon.html
BUNK SANDWICHES	621 SE Morrison St.	Portland	OR	97214	https://www.dinersdriveinsdiveslocations.com/bunk-sandwiches-oregon.html
PODNAH'S PIT BARBECUE	1625 NE Killingsworth	Portland	OR	97211	https://www.dinersdriveinsdiveslocations.com/podnahs-pit-barbecue-oregon.html
POK POK	3226 SE Dvision St.	Portland	OR	97202	https://www.dinersdriveinsdiveslocations.com/pok-pok-oregon.html
BLUEPLATE LUNCH COUNTER & SODA FOUNTAIN	308 SW Washington St	Portland	OR	97204	https://www.dinersdriveinsdiveslocations.com/blueplate-lunch-counter-soda-fountain-oregon.html
SHIRLEY'S TIPPY CANOE	28242 E Historic Columbia River Hwy	Troutdale	OR	97060	https://www.dinersdriveinsdiveslocations.com/shirleys-tippy-canoe-oregon.html
EDELWEISS SAUSAGE & DELICATESSEN	3119 SE 12th St	Portland	OR	97202	https://www.dinersdriveinsdiveslocations.com/edelweiss-sausage-delicatessen-oregon.html
COUNTRY CAT DINNERHOUSE & BAR	7937 SE Stark St	Portland	OR	97215	https://www.dinersdriveinsdiveslocations.com/country-cat-dinnerhouse-and-bar-oregon.html
PDX SIX SEVEN ONE	NE 52nd Ave &amp; NE Sandy Blvd	Portland	OR	97213	https://www.dinersdriveinsdiveslocations.com/pdx-six-seven-one-oregon.html
FRANK'S NOODLE HOUSE	822 NE Broadway	Portland	OR	97232	https://www.dinersdriveinsdiveslocations.com/franks-noodle-house-oregon.html
TIN SHED GARDEN CAFE	1438 NE Alberta St	Portland	OR	97211	https://www.dinersdriveinsdiveslocations.com/tin-shed-garden-cafe-oregon.html
CORNBREAD CAFE	1290 W 7th Ave	Eugene	OR	97402	https://www.dinersdriveinsdiveslocations.com/cornbread-cafe-oregon.html
PAPA'S SOUL FOOD BBQ	400 Blair Blvd	Eugene	OR	97402	https://www.dinersdriveinsdiveslocations.com/papas-soul-food-kitchen-bbq-oregon.html
FISHERMAN'S MARKET	830 W 7th Ave	Eugene	OR	97402	https://www.dinersdriveinsdiveslocations.com/fishermans-market-oregon.html
THE SANDWICH LEAGUE	245 Van Buren St	Eugene	OR	97402	https://www.dinersdriveinsdiveslocations.com/the-sandwich-league-oregon.html
JUNKYARD EXTREME BRATS	95410 Highway 99 E	Junction City	OR	97448	https://www.dinersdriveinsdiveslocations.com/junkyard-extreme-burgers-brats-oregon.html
SOUP NATION	525 High St	Eugene	OR	97401	https://www.dinersdriveinsdiveslocations.com/soup-nation-oregon.html
MATT'S BBQ	4709 NE Martin Luther King Jr Blvd	Portland	OR	97211	https://www.dinersdriveinsdiveslocations.com/matts-bbq-oregon.html
ATAULA	1818 NW 23rd Pl	Portland	OR	97210	https://www.dinersdriveinsdiveslocations.com/ataula-oregon.html
P'S & Q'S MARKET	1301 NE Dekum St	Portland	OR	97211	https://www.dinersdriveinsdiveslocations.com/ps-qs-market-oregon.html
THE ORIGINAL DINERANT	300 SW 6th Ave	Portland	OR	97204	https://www.dinersdriveinsdiveslocations.com/the-original-dinerant-oregon.html
SWISS HIBISCUS	4950 NE 14th Ave	Portland	OR	97211	https://www.dinersdriveinsdiveslocations.com/swiss-hibiscus-oregon.html
CHOP BUTCHERY & CHARCUTERIE	735 NW 21st Ave	Portland	OR	97209	https://www.dinersdriveinsdiveslocations.com/chop-butchery-charcuterie-oregon.html
TAILS & TROTTERS	525 NE 24th Ave	Portland	OR	97232	https://www.dinersdriveinsdiveslocations.com/tails-trotters-oregon.html
AGAVE	5 Granite St	Ashland	OR	97520	https://www.dinersdriveinsdiveslocations.com/agave-oregon.html
SAMMICH	424 Bridge St	Ashland	OR	97520	https://www.dinersdriveinsdiveslocations.com/sammich-oregon.html
BLUE TOBA	1690 Ashland St	Ashland	OR	97520	https://www.dinersdriveinsdiveslocations.com/blue-toba-oregon.html
AVIV	1125 SE Division St	Portland	OR	97202	https://www.dinersdriveinsdiveslocations.com/aviv-oregon.html
SEASONS & REGIONS SEAFOOD GRILL	6660 SW Capitol Hwy	Portland	OR	97219	https://www.dinersdriveinsdiveslocations.com/seasons-regions-seafood-grill-oregon.html
CHIN'S KITCHEN	4126 NE Broadway St	Portland	OR	97232	https://www.dinersdriveinsdiveslocations.com/chins-kitchen-oregon.html
VIKING SOUL FOOD	4255 SE Belmont St	Portland	OR	97215	https://www.dinersdriveinsdiveslocations.com/viking-soul-food-oregon.html
GUERO	200 NE 28th Ave	Portland	OR	97232	https://www.dinersdriveinsdiveslocations.com/guero-oregon.html
YONDER	636 NE 42nd Ave Suite A	Portland	OR	97218	https://www.dinersdriveinsdiveslocations.com/yonder-oregon.html
ZYDECO KITCHEN AND COCKTAILS	919 NW Bond St	Bend	OR	97701	https://www.dinersdriveinsdiveslocations.com/zydeco-kitchen-cocktails-oregon.html
ROCKIN' DAVE'S BISTRO AND BACKSTAGE LOUNGE	661 NE Greenwood Ave	Bend	OR	97701	https://www.dinersdriveinsdiveslocations.com/rockin-daves-bistro-backstage-lounge-oregon.html
DUMP CITY DUMPLINGS	384 SW Upper Terrace Dr	Bend	OR	97703	https://www.dinersdriveinsdiveslocations.com/dump-city-dumplings-oregon.html
BIG SKI'S PIEROGIS	536 NW Arizona Ave	Bend	OR	97702	https://www.dinersdriveinsdiveslocations.com/big-skis-pierogis-oregon.html
GRACE AND HAMMER	641 SW Cascade Ave	Redmond	OR	97756	https://www.dinersdriveinsdiveslocations.com/grace-and-hammer-oregon.html
ANITA'S KITCHEN GOURMET INDIAN FOOD	420 SE 3rd St	Bend	OR	97702	https://www.dinersdriveinsdiveslocations.com/anitas-kitchen-gourmet-indian-food-oregon.html
A BROKEN ANGEL	1124 NW Newport Ave	Bend	OR	97703	https://www.dinersdriveinsdiveslocations.com/a-broken-angel-oregon.html
HIGH CAMP TAPHOUSE	523 US-20	Sisters	OR	97759	https://www.dinersdriveinsdiveslocations.com/high-camp-taphouse-oregon.html
ERROR	ERROR	ERROR	ERROR	ERROR	ERROR
SILK CITY DINER	435 Spring Garden St.	Philadelphia	PA	19123	https://www.dinersdriveinsdiveslocations.com/silk-city-diner-pennsylvania.html
THE DINING CAR & MARKET	8826 Frankford Ave.	Philadelphia	PA	19136	https://www.dinersdriveinsdiveslocations.com/the-dining-car-market-pennsylvania.html
DADDYPOPS	232 N York Rd	Hatboro	PA	19040	https://www.dinersdriveinsdiveslocations.com/daddypops-pennsylvania.html
STARLITE LOUNGE	364 Freeport Road	Blawnox	PA	15238	https://www.dinersdriveinsdiveslocations.com/starlite-lounge-pennsylvania.html
CRYSTAL RESTAURANT	1211 Penn Avenue	Pittsburgh	PA	15222	https://www.dinersdriveinsdiveslocations.com/crystal-restaurant-pennsylvania.html
NADINE'S RESTAURANT	19 S 27th St	Pittsburgh	PA	15203	https://www.dinersdriveinsdiveslocations.com/nadines-restaurant-pennsylvania.html
DOR-STOP RESTAURANT	1430 Potomac Ave	Pittsburgh	PA	15216	https://www.dinersdriveinsdiveslocations.com/dor-stop-restaurant-pennsylvania.html
LO BELLO'S	809 Fifth Ave	Coraopolis	PA	15108	https://www.dinersdriveinsdiveslocations.com/lobellos-spaghetti-house-pennsylvania.html
BIG JIM'S	201 Saline St.	Pittsburgh	PA	15207	https://www.dinersdriveinsdiveslocations.com/big-jims-pennsylvania.html
KELLY O'S DINER	1130 Perry Hwy	Pittsburgh	PA	15237	https://www.dinersdriveinsdiveslocations.com/kelly-os-diner-pennsylvania.html
GOOD DOG BAR & RESTAURANT	224 South 15th Street	Philadelphia	PA	19102-3806	https://www.dinersdriveinsdiveslocations.com/good-dog-bar-restaurant-pennsylvania.html
MEMPHIS TAPROOM	2331 East Cumberland St.	Philadelphia	PA	19125	https://www.dinersdriveinsdiveslocations.com/memphis-taproom-pennsylvania.html
HONEY'S SIT-N-EAT	800 North 4th Street	Philadelphia	PA	19123	https://www.dinersdriveinsdiveslocations.com/honeys-sit-n-eat-pennsylvania.html
PINEVILLE TAVERN	Route 413 Durham Road	Pineville	PA	18946	https://www.dinersdriveinsdiveslocations.com/pineville-tavern-pennsylvania.html
SIDECAR BAR & GRILLE	2201 Christian St	Philadelphia	PA	19146	https://www.dinersdriveinsdiveslocations.com/sidecar-bar-and-grille-pennsylvania.html
SOUTH PHILADELPHIA TAPROOM	1509 Mifflin St	Philadelphia	PA	19145	https://www.dinersdriveinsdiveslocations.com/south-philadelphia-taproom-pennsylvania.html
PERCY STREET BARBEQUE	900 South St	Philadelphia	PA	19147	https://www.dinersdriveinsdiveslocations.com/percy-street-barbecue-pennsylvania.html
STANDARD TAP	901 N 2nd St	Philadelphia	PA	19123	https://www.dinersdriveinsdiveslocations.com/standard-tap-pennsylvania.html
JAMAICAN JERK HUT	1436 South St	Philadelphia	PA	19146	https://www.dinersdriveinsdiveslocations.com/jamaican-jerk-hut-pennsylvania.html
GEECHEE GIRL RICE CAFE	6825 Germantown Ave	Philadelphia	PA	19144	https://www.dinersdriveinsdiveslocations.com/geechee-girl-rice-cafe-pennsylvania.html
HARDENA WAROENG SURABAYA	1754 S Hicks St #2217	Philadelphia	PA	19145	https://www.dinersdriveinsdiveslocations.com/hardena-waroeng-surabaya-pennsylvania.html
FARMER'S KEEP	10 S 20th St	Philadelphia	PA	19105	https://www.dinersdriveinsdiveslocations.com/farmers-keep-pennsylvania.html
MOM-MOM'S KITCHEN	2551 Orthodox St	Philadelphia	PA	19137	https://www.dinersdriveinsdiveslocations.com/mom-moms-kitchen-pennsylvania.html
GAUL AND CO. MALT HOUSE	3133 Gaul St	Philadelphia	PA	19134	https://www.dinersdriveinsdiveslocations.com/gaul-co-malt-house-pennsylvania.html
WOODROW'S SANDWICH SHOP	630 South St	Philadelphia	PA	19147	https://www.dinersdriveinsdiveslocations.com/woodrows-sandwich-shop-pennsylvania.html
STOGIE JOE'S TAVERN	1801 E Passyunk Ave	Philadelphia	PA	19148	https://www.dinersdriveinsdiveslocations.com/stogie-joes-tavern-pennsylvania.html
EVELYN'S DRIVE-IN	2335 Main Rd.	Tiverton	RI	02878	https://www.dinersdriveinsdiveslocations.com/evelyns-drive-in-rhode-island.html
LOUIE'S RESTAURANT	286 Brook St	Providence	RI	02906	https://www.dinersdriveinsdiveslocations.com/louies-restaurant-rhode-island.html
CRAZY BURGER CAFE & JUICE BAR	144 Boon St.	Narragansett	RI	02882	https://www.dinersdriveinsdiveslocations.com/crazy-burger-cafe-juice-bar-rhode-island.html
THE LIBERTY ELM DINER	777 Elmwood Ave.	Providence	RI	02907	https://www.dinersdriveinsdiveslocations.com/the-liberty-elm-diner-rhode-island.html
ANGELO'S CIVITA FARNESE	141 Atwells Ave.	Providence	RI	02903	https://www.dinersdriveinsdiveslocations.com/angelos-civita-farnese-rhode-island.html
MEDITERRANEO CAFFE	134 Atwells Ave.	Providence	RI	02903	https://www.dinersdriveinsdiveslocations.com/mediterraneo-caffe-rhode-island.html
ANTHONY'S SEAFOOD	963 Aquidneck Ave.	Middletown	RI	02842	https://www.dinersdriveinsdiveslocations.com/anthonys-seafood-rhode-island.html
ITALIAN CORNER	10 Boyd Ave.	East Providence	RI	02914	https://www.dinersdriveinsdiveslocations.com/italian-corner-rhode-island.html
AUNT CARRIE'S	1240 Ocean Rd.	Narragansett	RI	02882	https://www.dinersdriveinsdiveslocations.com/aunt-carries-rhode-island.html
EDGEWOOD CAFE	1864 Broad St.	Cranston	RI	02905	https://www.dinersdriveinsdiveslocations.com/edgewood-cafe-rhode-island.html
HAROLD'S	602 N. Limestone St.	Gaffney	SC	28340	https://www.dinersdriveinsdiveslocations.com/harolds-cafe-south-carolina.html
THE BEACON DRIVE-IN	255 John B. White Sr. Boulevard	Spartanburg	SC	29306	https://www.dinersdriveinsdiveslocations.com/beacon-drive-in-south-carolina.html
PAWLEYS FRONT PORCH	827 Harden St.	Columbia	SC	29205	https://www.dinersdriveinsdiveslocations.com/pawleys-front-porch-south-carolina.html
THE FARMER'S SHED	Augusta Highway	Lexington	SC	29072	https://www.dinersdriveinsdiveslocations.com/the-farmers-shed-south-carolina.html
PERFECTLY FRANK'S	118 N. Main St.	Summerville	SC	29483	https://www.dinersdriveinsdiveslocations.com/perfectly-franks-south-carolina.html
TATTOOED MOOSE RESTAURANT	1137 Morrison Dr.	Charleston	SC	29403	https://www.dinersdriveinsdiveslocations.com/tattooed-moose-south-carolina.html
THE EARLY BIRD DINER	1644 Savannah Hwy.	Charleston	SC	29407	https://www.dinersdriveinsdiveslocations.com/the-early-bird-diner-south-carolina.html
FUEL CANTINA	211 Rutledge Ave.	Charleston	SC	29403	https://www.dinersdriveinsdiveslocations.com/fuel-cantina-south-carolina.html
THE GLASS ONION	1219 Savannah Hwy.	Charleston	SC	29407	https://www.dinersdriveinsdiveslocations.com/the-glass-onion-south-carolina.html
DIXIE SUPPLY BAKERY & CAFE	62 State St.	Charleston	SC	29401	https://www.dinersdriveinsdiveslocations.com/dixie-supply-bakery-and-cafe-south-carolina.html
LOOK'S MARKETPLACE	500 E 69th St	Sioux Falls	SD	57108	https://www.dinersdriveinsdiveslocations.com/looks-marketplace-south-dakota.html
BREAD AND CIRCUS SANDWICH KITCHEN	600 N Main Ave #110	Sioux Falls	SD	57104	https://www.dinersdriveinsdiveslocations.com/bread-circus-sandwich-kitchen-south-dakota.html
O SO GOOD	529 N Main Ave	Garettson	SD	57030	https://www.dinersdriveinsdiveslocations.com/o-so-good-south-dakota.html
URBAN CHISLIC	431 W 85th St	Sioux Falls	SD	57108	https://www.dinersdriveinsdiveslocations.com/urban-chislic-south-dakota.html
LALIBELA ETHIOPIAN	200 S Kiwanis Ave	Sioux Falls	SD	57104	https://www.dinersdriveinsdiveslocations.com/lalibela-ethiopian-south-dakota.html
DAILY CLEAN FOOD AND DRINK	6215 S Western Ave	Sioux Falls	SD	57108	https://www.dinersdriveinsdiveslocations.com/daily-clean-food-and-drink-south-dakota.html
PIZZA PALACE	3132 East Magnolia Avenue	Knoxville	TN	37914	https://www.dinersdriveinsdiveslocations.com/pizza-palace-tennesse.html
LITTLE TEA SHOP	69 Monroe Avenue	Memphis	TN	38103	https://www.dinersdriveinsdiveslocations.com/little-tea-shop-tennessee.html
COZY CORNER	745 N Parkway	Memphis	TN	38105	https://www.dinersdriveinsdiveslocations.com/cozy-corner-tennessee.html
LEONARD'S PIT BBQ	5465 Fox Plaza Drive	Memphis	TN	38115	https://www.dinersdriveinsdiveslocations.com/leonards-bbq-tennessee.html
MARLOWE'S RIBS	4381 Elvis Presley Blvd	Memphis	TN	38116	https://www.dinersdriveinsdiveslocations.com/marlowes-ribs-tennessee.html
TOM'S BAR-B-Q	4087 New Getwell Rd.	Memphis	TN	38118	https://www.dinersdriveinsdiveslocations.com/toms-bar-b-q-tennessee.html
UNCLE LOU'S	3633 Millbranch Rd.	Memphis	TN	38116	https://www.dinersdriveinsdiveslocations.com/uncle-lous-tennessee.html
ALCENIA'S	317 N Main St.	Memphis	TN	38103	https://www.dinersdriveinsdiveslocations.com/alcenias-tennessee.html
MARTIN'S BAR-B-QUE JOINT	7238 Nolensville Rd.	Nolensville	TN	37135	https://www.dinersdriveinsdiveslocations.com/martins-bar-b-que-joint-tennessee.html
ATHENS FAMILY RESTAURANT	2526 Franklin Pike	Nashville	TN	37204	https://www.dinersdriveinsdiveslocations.com/athens-family-restaurant-tennessee.html
ARNOLD'S COUNTRY KITCHEN	605 8th Avenue South	Nashville	TN	37203	https://www.dinersdriveinsdiveslocations.com/arnolds-country-kitchen-tennessee.html
BRO'S CAJUN CUISINE	3214 Charlotte Ave	Nashville	TN	37209	https://www.dinersdriveinsdiveslocations.com/bros-cajun-cuisine-tennessee.html
CAFE RAKKA	71A New Shackle Island Rd.	Hendersonville	TN	37075	https://www.dinersdriveinsdiveslocations.com/cafe-rakka-tennessee.html
SAVARINO'S CUCINA	2121 Belcourt Avenue	Nashville	TN	37212	https://www.dinersdriveinsdiveslocations.com/savarinos-cucina-tennessee.html
JAMAICAWAY	900 Rosa L Parks Blvd.	Nashville	TN	37208	https://www.dinersdriveinsdiveslocations.com/jamaicaway-tennessee.html
RIZZO'S DINER	106 E GE Patterson Ave	Memphis	TN	38103	https://www.dinersdriveinsdiveslocations.com/rizzos-diner-tennessee.html
(SOB) SOUTH OF BEALE	361 S. Main Street	Memphis	TN	38103	https://www.dinersdriveinsdiveslocations.com/sob-south-of-beale-tennessee.html
THE ELEGANT FARMER	262 S Highland St	Memphis	TN	38111	https://www.dinersdriveinsdiveslocations.com/the-elegant-farmer-tennessee.html
THREE ANGLES DINER	2617 Broad Ave	Memphis	TN	38112	https://www.dinersdriveinsdiveslocations.com/three-angels-diner-tennessee.html
CENTER POINT BBQ	1212 W Main St	Hendersonville	TN	37075	https://www.dinersdriveinsdiveslocations.com/center-point-barbecue-tennessee.html
MAS TACOS POR FAVOR	732 Mcferrin Ave	Nashville	TN	37206	https://www.dinersdriveinsdiveslocations.com/mas-tacos-por-favor-tennessee.html
55 SOUTH	403 Main St	Franklin	TN	37064	https://www.dinersdriveinsdiveslocations.com/55-south-tennessee.html
PHAT BITES	940 Allen Rd	Nashville	TN	37214	https://www.dinersdriveinsdiveslocations.com/phat-bites-tennessee.html
GRILLED CHEESERIE	Mobile Food Truck	Nashville	TN	37219	https://www.dinersdriveinsdiveslocations.com/grilled-cheeserie-tennessee.html
CAFFE NONNA	4427 Murphy Rd	Nashville	TN	37209	https://www.dinersdriveinsdiveslocations.com/caffe-nonna-tennessee.html
RIDDIM N SPICE	2116 Meharry Blvd	Nashville	TN	37208	https://www.dinersdriveinsdiveslocations.com/riddim-n-spice-tennessee.html
SOY BISTRO	5008 Maryland Way	Brentwood	TN	37027	https://www.dinersdriveinsdiveslocations.com/soy-bistro-tennessee.html
NICKY'S COAL FIRED	5026 Centennial Blvd	Brentwood	TN	37209	https://www.dinersdriveinsdiveslocations.com/nickys-coal-fired-tennessee.html
GRAZE NASHVILLE	1888 Eastland Ave	Nashville	TN	37206	https://www.dinersdriveinsdiveslocations.com/graze-nashville-tennessee.html
FATTOUSH CAFE	1716 Charlotte Ave	Nashville	TN	37203	https://www.dinersdriveinsdiveslocations.com/fattoush-cafe-tennessee.html
CHAATABLE	345 40th Ave N	Nashville	TN	37209	https://www.dinersdriveinsdiveslocations.com/chaatable-tennessee.html
EAST SIDE BANH MI	1000 Gallatin Ave	Nashville	TN	37206	https://www.dinersdriveinsdiveslocations.com/east-side-banh-mi-tennessee.html
HOMEGROWN TAPROOM AND KITCHEN	2720 Old Lebanon Rd	Nashville	TN	37214	https://www.dinersdriveinsdiveslocations.com/homegrown-taproom-kitchen-tennessee.html
PIE TOWN TACOS	614 Ewing Ave #4628	Nashville	TN	37203	https://www.dinersdriveinsdiveslocations.com/pie-town-tacos-tennessee.html
KING TUT'S	3716 Nolensville Pk	Nashville	TN	37211	https://www.dinersdriveinsdiveslocations.com/king-tuts-tennessee.html
BOTTLE CAP	2403 12th Ave S	Nashville	TN	37204	https://www.dinersdriveinsdiveslocations.com/bottle-cap-tennessee.html
REDHEADED STRANGER	305 Arrington St	Nashville	TN	37207	https://www.dinersdriveinsdiveslocations.com/redheaded-stranger-tennessee.html
ERROR	ERROR	ERROR	ERROR	ERROR	ERROR
MAC and ERNIE'S	11804 FM 470	Tarpley	TX	78883	https://www.dinersdriveinsdiveslocations.com/mac-ernies-texas.html
HULLABALOO DINER	15045 F.M. 2154	Wellborn	TX	77845	https://www.dinersdriveinsdiveslocations.com/hullabaloo-diner-texas.html
LOUIE MUELLER BBQ	206 W. Second St.	Taylor	TX	76574	https://www.dinersdriveinsdiveslocations.com/louie-mueller-bbq-texas.html
MARIA'S TACO EXPRESS	2529 S. Lamar Blvd.	Austin	TX	78704	https://www.dinersdriveinsdiveslocations.com/marias-taco-express-texas.html
TIP TOP CAFE	2814 Fredericksburg Rd.	San Antonio	TX	78201	https://www.dinersdriveinsdiveslocations.com/tip-top-cafe-texas.html
TEXAS PRIDE BBQ	2980 E Loop 1604 S	Adkins	TX	78101	https://www.dinersdriveinsdiveslocations.com/texas-pride-bbq-texas.html
CASINO EL CAMINO	517 E 6th St.	Austin	TX	78701	https://www.dinersdriveinsdiveslocations.com/casino-el-camino-texas.html
THE COVE	606 W. Cypress St.	San Antonio	TX	78212	https://www.dinersdriveinsdiveslocations.com/the-cove-texas.html
MAGNOLIA CAFE	1920 S Congress Ave	Austin	TX	78704	https://www.dinersdriveinsdiveslocations.com/magnolia-cafe-texas.html
GREEN MESQUITE	1400 Barton Springs Rd.	Austin	TX	78704	https://www.dinersdriveinsdiveslocations.com/green-mesquite-texas.html
LOUIE'S	1839 N Henderson Avenue	Dallas	TX	75206	https://www.dinersdriveinsdiveslocations.com/louies-texas.html
CHEF POINT CAFE	5901 Watauga Rd.	Watauga	TX	76148	https://www.dinersdriveinsdiveslocations.com/chef-point-cafe-texas.html
TWISTED ROOT BURGER CO.	2615 Commerce St	Dallas	TX	75226	https://www.dinersdriveinsdiveslocations.com/twisted-root-burger-co-texas.html
JAMAICA GATES CARIBBEAN CUISINE	1020 W Arkansas Lane	Arlington	TX	76013	https://www.dinersdriveinsdiveslocations.com/jamaica-gates-caribbean-cuisine-texas.html
FRED'S TEXAS CAFE	915 Currie St	Fort Worth	TX	76107	https://www.dinersdriveinsdiveslocations.com/freds-texas-cafe.html
AVILA'S CAFE	4714 Maple Avenue	Dallas	TX	75219	https://www.dinersdriveinsdiveslocations.com/avilas-cafe-texas.html
LANKFORD GROCERY	88 Dennis Street	Houston	TX	77006	https://www.dinersdriveinsdiveslocations.com/lankford-grocery-texas.html
PRINCE LEBANESE GRILL	502 W Randol Mill Road	Arlington	TX	76011	https://www.dinersdriveinsdiveslocations.com/prince-lebanese-grill-texas.html
KENNY & ZIGGY'S	2327 Post Oak Blvd	Houston	TX	77056	https://www.dinersdriveinsdiveslocations.com/kenny-ziggys-texas.html
NIKO NIKO'S	2520 Montrose Blvd	Houston	TX	77006	https://www.dinersdriveinsdiveslocations.com/niko-nikos-texas.html
CAFE PITA +	10890 Westheimer	Houston	TX	77042	https://www.dinersdriveinsdiveslocations.com/cafe-pita-texas.html
T-BONE TOM'S STEAKHOUSE	707 Highway 146	Kemah	TX	77565	https://www.dinersdriveinsdiveslocations.com/t-bone-toms-steakhouse-texas.html
BOB'S TACO STATION	1901 Avenue H	Rosenberg	TX	77471	https://www.dinersdriveinsdiveslocations.com/bobs-taco-station-texas.html
RED LION PUB & RESTAURANT	2316 South Shepherd Drive	Houston	TX	77019	https://www.dinersdriveinsdiveslocations.com/red-lion-pub-restaurant-texas.html
DOUGH PIZZERIA NAPOLETANA	6989 Blanco Rd.	San Antonio	TX	78213	https://www.dinersdriveinsdiveslocations.com/dough-pizzeria-napoletana-texas.html
MOROCCAN BITES	5714 Evers Rd.	San Antonio	TX	78238	https://www.dinersdriveinsdiveslocations.com/moroccan-bites-texas.html
BUN 'N' BARREL	1150 Austin Highway	San Antonio	TX	78209	https://www.dinersdriveinsdiveslocations.com/bun-n-barrel-texas.html
BETO'S COMIDA LATINA	8142 Broadway St.	San Antonio	TX	78209	https://www.dinersdriveinsdiveslocations.com/betos-comida-latina-texas.html
TACO TACO CAFE	145 E Hildebrand Ave.	San Antonio	TX	78212	https://www.dinersdriveinsdiveslocations.com/taco-taco-cafe-texas.html
EL BOHIO	1127 Harry Wurzbach	San Antonio	TX	78234	https://www.dinersdriveinsdiveslocations.com/el-bohio-texas.html
MAGNOLIA PANCAKE HAUS	606 Embassy Oaks	San Antonio	TX	78216	https://www.dinersdriveinsdiveslocations.com/magnolia-pancake-haus-texas.html
PEPE'S AND MITO'S	2911 Elm St.	Dallas	TX	75226	https://www.dinersdriveinsdiveslocations.com/pepes-and-mitos-texas.html
MONUMENT CAFE	500 S. Austin Ave.	Georgetown	TX	78627	https://www.dinersdriveinsdiveslocations.com/monument-cafe-texas.html
LUKE'S INSIDE OUT	1109 S. Lamar Blvd.	Austin	TX	78704	https://www.dinersdriveinsdiveslocations.com/lukes-inside-out-texas.html
MAPLE & MOTOR	4810 Maple Ave.	Dallas	TX	75219	https://www.dinersdriveinsdiveslocations.com/maple-and-motor-texas.html
CHOP HOUSE BURGERS	2502 Little Rd	Arlington	TX	76013	https://www.dinersdriveinsdiveslocations.com/chop-house-burgers-texas.html
CANE ROSSO	2612 Commerce St.	Dallas	TX	75226	https://www.dinersdriveinsdiveslocations.com/cane-rosso-texas.html
COUNTER CAFE	626 North Lamar	Austin	TX	78703	https://www.dinersdriveinsdiveslocations.com/counter-cafe-texas.html
PECAN LODGE	1010 S. Pearl Expy.	Dallas	TX	75201	https://www.dinersdriveinsdiveslocations.com/pecan-lodge-texas.html
NOBLE PIG SANDWICHES	11815 620 N. Ste. 4	Austin	TX	78750	https://www.dinersdriveinsdiveslocations.com/noble-pig-sandwiches-texas.html
AFRAH	314 E.Main St.	Richardson	TX	75081	https://www.dinersdriveinsdiveslocations.com/afrah-texas.html
FOREIGN & DOMESTIC	306 E. 53rd St.	Austin	TX	78751	https://www.dinersdriveinsdiveslocations.com/foreign-and-domestic-texas.html
TASTE OF EUROPE	1901 W. Pioneer Parkway	Arlington	TX	76013	https://www.dinersdriveinsdiveslocations.com/taste-of-europe-texas.html
MARINI'S EMPANADA HOUSE	10001 Westheimer Rd	Houston	TX	77042	https://www.dinersdriveinsdiveslocations.com/the-original-marinis-empanada-house-texas.html
THE ORIGINAL IRMA'S	22 N Chenevert St	Houston	TX	77002	https://www.dinersdriveinsdiveslocations.com/the-original-irmas-texas.html
CUCHARA	214 Fairview St	Houston	TX	77006	https://www.dinersdriveinsdiveslocations.com/cuchara-texas.html
COOL RUNNINGS GRILL	8270 W Bellfort Blvd	Houston	TX	77071	https://www.dinersdriveinsdiveslocations.com/cool-runnings-jamaican-grill-texas.html
CAFE LILI	5757 Westheimer Rd #112	Houston	TX	77057	https://www.dinersdriveinsdiveslocations.com/lebanese-grill-cafe-lili-texas.html
Q-SHI BBQ & SUSHI	1491 Spring Cypress Rd	Houston	TX	77373	https://www.dinersdriveinsdiveslocations.com/q-shi-bbq-sushi-texas.html
LA PANADERIA	8305 Broadway St	San Antonio	TX	78209	https://www.dinersdriveinsdiveslocations.com/la-panaderia-texas.html
ONE90 SMOKED MEATS	10240 Northwest Hwy	Dallas	TX	75238	https://www.dinersdriveinsdiveslocations.com/one90-smoked-meats-texas.html
WHISTLE BRITCHES	6110 Frankford Rd	Dallas	TX	75252	https://www.dinersdriveinsdiveslocations.com/whistle-britches-texas.html
TACOS MARIACHI	602 Singleton Blvd	Dallas	TX	75212	https://www.dinersdriveinsdiveslocations.com/tacos-mariachi-texas.html
TUTTA'S PIZZA	1710 N Record St #110	Dallas	TX	75202	https://www.dinersdriveinsdiveslocations.com/tuttas-pizza-texas.html
NORA RESTAURANT AND BAR	1928 Greenville Ave	Dallas	TX	75206	https://www.dinersdriveinsdiveslocations.com/nora-restaurant-and-bar-texas.html
CRUSHCRAFT THAI	2800 Routh St #150	Dallas	TX	75201	https://www.dinersdriveinsdiveslocations.com/crushcraft-thai-texas.html
SMOKE SHACK	3714 Broadway St	San Antonio	TX	78209	https://www.dinersdriveinsdiveslocations.com/smoke-shack-texas.html
WRIGLEYVILLE GRILL	602 Northwest Loop 410 #146	San Antonio	TX	78216	https://www.dinersdriveinsdiveslocations.com/wrigleyville-grill-texas.html
FAT TUMMY EMPANADAS	2922 W Commerce St	San Antonio	TX	78207	https://www.dinersdriveinsdiveslocations.com/fat-tummy-empanadas-texas.html
MA HARPER'S CREOLE KITCHEN	1816 N New Braunfels Ave	San Antonio	TX	78208	https://www.dinersdriveinsdiveslocations.com/ma-harpers-creole-kitchen-texas.html
LUNA ROSA PUERTO RICAN GRILL Y TAPAS	2603 SE Military Dr #106	San Antonio	TX	78223	https://www.dinersdriveinsdiveslocations.com/luna-rosa-puerto-rican-grill-y-tapas-texas.html
DIGNOWITY MEATS	1701 E Houston St	San Antonio	TX	78202	https://www.dinersdriveinsdiveslocations.com/dignowity-meats-texas.html
HOLY ROLLER	509 Rio Grande St	Austin	TX	78701	https://www.dinersdriveinsdiveslocations.com/holy-roller-texas.html
SLAB BBQ & BEER	9012 Research Blvd C4	Austin	TX	78758	https://www.dinersdriveinsdiveslocations.com/slab-bbq-beer-texas.html
BOTECO FOOD TRUCK	1209 East 6th Street	Austin	TX	78702	https://www.dinersdriveinsdiveslocations.com/boteco-food-truck-texas.html
PIEOUS	166 Hargraves Dr h	Austin	TX	78737	https://www.dinersdriveinsdiveslocations.com/pieous-texas.html
LICK IT UP	204 E. Rio Grande Ave	El Paso	TX	79902	https://www.dinersdriveinsdiveslocations.com/lick-it-up-food-truck-texas.html
DELIGHT	502 N Oregon St	El Paso	TX	79901	https://www.dinersdriveinsdiveslocations.com/delight-texas.html
TASTY KABOB	6110 N Mesa St D	El Paso	TX	79921	https://www.dinersdriveinsdiveslocations.com/tasty-kabob-texas.html
RULIS INTERNATIONAL KITCHEN	4176 N Mesa St	El Paso	TX	79902	https://www.dinersdriveinsdiveslocations.com/rulis-international-kitchen-texas.html
DESERT OAK BARBECUE	1320 N Zaragoza Rd #105	El Paso	TX	79936	https://www.dinersdriveinsdiveslocations.com/desert-oak-barbecue-texas.html
LA COLONIAL TORTILLA FACTORY	212 N Copia St	El Paso	TX	79905	https://www.dinersdriveinsdiveslocations.com/la-colonial-tortilla-factory-texas.html
TOASTED COCONUT	1617 Richmond Ave	Houston	TX	77006	https://www.dinersdriveinsdiveslocations.com/toasted-coconut-texas.html
THE PIT ROOM	1201 Richmond Ave	Houston	TX	77006	https://www.dinersdriveinsdiveslocations.com/the-pit-room-texas.html
TRAVELER'S TABLE	520 Westheimer Rd	Houston	TX	77006	https://www.dinersdriveinsdiveslocations.com/travelers-table-texas.html
WEIGHTS + MEASURES	2808 Caroline St	Houston	TX	77004	https://www.dinersdriveinsdiveslocations.com/weights-measures-texas.html
FRESCO CAFE ITALIANO	3277 Southwest Fwy ste a	Houston	TX	77027	https://www.dinersdriveinsdiveslocations.com/fresco-cafe-italiano-texas.html
BE MORE PACIFIC	506 Yale St Suite E	Houston	TX	77007	https://www.dinersdriveinsdiveslocations.com/be-more-pacific-texas.html
BURGER BAR	5291 S 1900 W	Roy	UT	84067	https://www.dinersdriveinsdiveslocations.com/burger-bar-utah.html
BLUE PLATE DINER	2041 S 2100 East	Salt Lake City	UT	84108	https://www.dinersdriveinsdiveslocations.com/blue-plate-diner-utah.html
RED IGUANA	736 W North Temple	Salt Lake City	UT	84116	https://www.dinersdriveinsdiveslocations.com/red-iguana-utah.html
MOOCHIE'S MEATBALLS & MORE	232 E 800 South	Salt Lake City	UT	84111	https://www.dinersdriveinsdiveslocations.com/moochies-meatballs-more-utah.html
LONE STAR TAQUERIA	2265 Fort Union Boulevard	Salt Lake City	UT	84121	https://www.dinersdriveinsdiveslocations.com/lone-star-taqueria-utah.html
RUTH'S DINER	2100 Emigration Canyon	Salt Lake City	UT	84108	https://www.dinersdriveinsdiveslocations.com/ruths-diner-utah.html
PAT'S BBQ	155 West Commonwealth Ave.	Salt Lake City	UT	84115	https://www.dinersdriveinsdiveslocations.com/pats-bbq-utah.html
SAMMY'S BISTRO	1890 Bonanza Dr	Park City	UT	84060	https://www.dinersdriveinsdiveslocations.com/sammys-bistro-utah.html
OH MAI VIETNAMESE SANDWICH	3425 S State St	Salt Lake City	UT	84115	https://www.dinersdriveinsdiveslocations.com/oh-mai-vietnamese-utah.html
ARISTO'S GREEK RESTAURANT	224 S 1300 E	Salt Lake City	UT	84102	https://www.dinersdriveinsdiveslocations.com/aristos-greek-restaurant-utah.html
MAXWELL'S EAST COAST EATERY	357 S Main St	Salt Lake City	UT	84111	https://www.dinersdriveinsdiveslocations.com/maxwells-utah.html
THE SILVER STAR CAFE	1825 Three Kings Drive	Park City	UT	84060	https://www.dinersdriveinsdiveslocations.com/the-silver-star-cafe-utah.html
TIN ROOF GRILL	9284 S 700 E	Sandy	UT	84070	https://www.dinersdriveinsdiveslocations.com/tin-roof-grill-utah.html
FINN'S CAFE	1624 1100 E	Salt Lake City	UT	84105	https://www.dinersdriveinsdiveslocations.com/finns-cafe-utah.html
HRUSKA'S KOLACHES	2030 South 900 East	Salt Lake City	UT	84105	https://www.dinersdriveinsdiveslocations.com/hruskas-kolaches-utah.html
CURRY PIZZA	2927 South 5600 West D	West Valley City	UT	84120	https://www.dinersdriveinsdiveslocations.com/curry-pizza-utah.html
PROPER BURGER CO	865 Main St	Salt Lake City	UT	84111	https://www.dinersdriveinsdiveslocations.com/proper-burger-co-utah.html
LAZIZ KITCHEN	912 Jefferson St W	Salt Lake City	UT	84101	https://www.dinersdriveinsdiveslocations.com/laziz-kitchen-utah.html
WHISKEY STREET	323 Main St	Salt Lake City	UT	84111	https://www.dinersdriveinsdiveslocations.com/whiskey-street-utah.html
PURGATORY	62 East 700 South	Salt Lake City	UT	84111	https://www.dinersdriveinsdiveslocations.com/purgatory-utah.html
MAYMOES CAJUN GRILL	981 S Main St Ste 170	Logan	UT	84321	https://www.dinersdriveinsdiveslocations.com/maymoes-cajun-grill-utah.html
EL SALVADOR LOS PRIMOS	880 Main St Ste #160	Logan	UT	84321	https://www.dinersdriveinsdiveslocations.com/el-salvador-los-primos-utah.html
TANDOORI OVEN	720 E 1000 N	Logan	UT	84321	https://www.dinersdriveinsdiveslocations.com/tandoori-oven-utah.html
SABORES	255 Main St # 300	Logan	UT	84321	https://www.dinersdriveinsdiveslocations.com/sabores-utah.html
HERM'S INN	1435 Canyon Rd	Logan	UT	84321	https://www.dinersdriveinsdiveslocations.com/herms-inn-utah.html
THE PIE DUMP	20 W 1400 S	Garland	UT	84312	https://www.dinersdriveinsdiveslocations.com/the-pie-dump-tl-catering-utah.html
AREMPAS	350 S State St	Salt Lake City	UT	84111	https://www.dinersdriveinsdiveslocations.com/arempas-utah.html
PAPITO MOE'S	7786 South 5600 West Suite 101	West Jordan	UT	84081	https://www.dinersdriveinsdiveslocations.com/papito-moes-utah.html
SAUCE BOSS SOUTHERN KITCHEN	877 E 12300 S	Daper	UT	84020	https://www.dinersdriveinsdiveslocations.com/sauce-boss-southern-kitchen-utah.html
SANTO TACO	910 900 W	Salt Lake City	UT	84116	https://www.dinersdriveinsdiveslocations.com/santo-taco-utah.html
CURRY FRIED CHICKEN	660 S State St	Salt Lake City	UT	84111	https://www.dinersdriveinsdiveslocations.com/curry-fried-chicken-utah.html
KOBE	3947 S Wasatch Blvd	Millcreek	UT	84124	https://www.dinersdriveinsdiveslocations.com/kobe-utah.html
PINGALA CAFE & EATERY	1 Mill St	Burlington	VT	05401	https://www.dinersdriveinsdiveslocations.com/pingala-cafe-eatery-vermont.html
CITIZEN CIDER	316 Pine St #114	Burlington	VT	05401	https://www.dinersdriveinsdiveslocations.com/citizen-cider-vermont.html
HANG'S CHINESE DUMPLINGS	77 Pearl St	Burlington	VT	05401	https://www.dinersdriveinsdiveslocations.com/hongs-chinese-dumplings-vermont.html
BUTCH + BABE'S	258 N Winooski Ave	Burlington	VT	05401	https://www.dinersdriveinsdiveslocations.com/butch-babes-vermont.html
BLUEBIRD BARBECUE	317 Riverside Ave	Burlington	VT	05401	https://www.dinersdriveinsdiveslocations.com/bluebird-barbecue-vermont.html
EL CORTIJO TAQUERIA Y CANTINA	189 Bank St	Burlington	VT	05401	https://www.dinersdriveinsdiveslocations.com/el-cortijo-taqueria-y-cantina-vermont.html
TACO GORDO	208 N Winooski Ave	Burlington	VT	05401	https://www.dinersdriveinsdiveslocations.com/taco-gordo-vermont.html
ERROR	ERROR	ERROR	ERROR	ERROR	ERROR
VIRGINIA DINER	U.S. Route 460	Wakefield	VA	23888	https://www.dinersdriveinsdiveslocations.com/virginia-diner-virginia.html
THE VILLAGE CAFE	1001 W Grace St	Richmond	VA	23220	https://www.dinersdriveinsdiveslocations.com/the-village-cafe-virginia.html
DOTS BACK INN	4030 Macarthur Ave.	Richmond	VA	23227	https://www.dinersdriveinsdiveslocations.com/dots-back-inn-virginia.html
DOUMAR'S CONES & BBQ	1919 Monticello Ave.	Norfolk	VA	23517	https://www.dinersdriveinsdiveslocations.com/doumars-virginia.html
CAPTAIN CHUCK-A-MUCKS	21088 Marina Rd.	Rescue	VA	23424	https://www.dinersdriveinsdiveslocations.com/captain-chuck-a-mucks-virginia.html
LA CARAQUENA	300 W. Broad Street	Falls Church	VA	22040	https://www.dinersdriveinsdiveslocations.com/la-caraquena-virginia.html
METRO 29 DINER	4711 Lee Highway	Arlington	VA	22207	https://www.dinersdriveinsdiveslocations.com/metro-29-diner-virginia.html
GET FRESH CAFE	2500 Church St.	Norfolk	VA	23504	https://www.dinersdriveinsdiveslocations.com/get-fresh-cafe-virginia.html
WHITNER'S BBQ	869 Lynnhaven Parkway	Virginia Beach	VA	23452	https://www.dinersdriveinsdiveslocations.com/whitners-bbq-virginia.html
RIGOLETTO ITALIAN BAKERY & CAFE	2181 Upton Dr. Suite 414	Virginia Beach	VA	23454	https://www.dinersdriveinsdiveslocations.com/rigoletto-italian-bakery-cafe-virginia.html
BEACH PUB	1001 Laskin Rd.	Virginia Beach	VA	23451	https://www.dinersdriveinsdiveslocations.com/beach-pub-virginia.html
CITRUS BREAKFAST & LUNCH	2265 W. Great Neck Rd.	Virginia Beach	VA	23451	https://www.dinersdriveinsdiveslocations.com/citrus-breakfast-and-lunch-virginia.html
LEAPING LIZARDS CAFE	4408 Shore Dr.	Virginia Beach	VA	23455	https://www.dinersdriveinsdiveslocations.com/leaping-lizards-cafe-virginia.html
FLIP FLOPS GRILL & CHILL	2217 Upton Dr. #814	Virginia Beach	VA	23454	https://www.dinersdriveinsdiveslocations.com/flip-flops-grill-and-chill-virginia.html
MOSEBERTH'S FRIED CHICKEN	1505 Airline Blvd.	Portsmouth	VA	23707	https://www.dinersdriveinsdiveslocations.com/moseberths-fried-chicken-virginia.html
HARVEY'S HOT DOGS II	3205 Stamford Rd.	Portsmouth	VA	23703	https://www.dinersdriveinsdiveslocations.com/harveys-hot-dogs-II-virginia.html
THE DIRTY BUFFALO	4012 Colley Ave	Norfolk	VA	23508	https://www.dinersdriveinsdiveslocations.com/the-dirty-buffalo-virginia.html
CARIB SHACK	2272 W Great Neck Rd, Ste 2242	Norfolk	VA	23451	https://www.dinersdriveinsdiveslocations.com/carib-shack-virginia.html
THE GRILLED CHEESE BISTRO	345 Granby St	Norfolk	VA	23510	https://www.dinersdriveinsdiveslocations.com/the-grilled-cheese-bistro-virginia.html
PENDULUM FINE MEATS	820 Shirley Ave	Norfolk	VA	23517	https://www.dinersdriveinsdiveslocations.com/pendulum-fine-meats-virginia.html
ALKALINE	820 Shirley Ave	Norfolk	VA	23517	https://www.dinersdriveinsdiveslocations.com/alkaline-virginia.html
JESSY'S TAQUERIA	3201 E Ocean View Ave #104	Norfolk	VA	23518	https://www.dinersdriveinsdiveslocations.com/jessys-taqueria-virginia.html
POP'S MARKET ON GRACE	415 E Grace St	Richmond	VA	23219	https://www.dinersdriveinsdiveslocations.com/pops-market-on-grace-virginia.html
THE FANCY BISCUIT	1831 W Cary St	Richmond	VA	23220	https://www.dinersdriveinsdiveslocations.com/the-fancy-biscuit-virginia.html
PERLY'S	111 E Grace St	Richmond	VA	23219	https://www.dinersdriveinsdiveslocations.com/perlys-virginia.html
SOUL TACO	321 N 2nd St	Richmond	VA	23219	https://www.dinersdriveinsdiveslocations.com/soul-taco-virginia.html
ZZQ TEXAS CRAFT BARBECUE	3201 W Moore St	Richmond	VA	23230	https://www.dinersdriveinsdiveslocations.com/zzq-texas-craft-barbeque-virginia.html
CARENA'S JAMAICAN GRILL	7102 Midlothian Turnpike	Richmond	VA	23225	https://www.dinersdriveinsdiveslocations.com/carenas-jamaican-grill-virginia.html
VOULA'S OFFSHORE CAFE	658 NE. Northlake Way	Seattle	WA	98105	https://www.dinersdriveinsdiveslocations.com/voulas-offshore-cafe-washington.html
BIG STAR DINER	305 Madison Ave. N.	Bainbridge Island	WA	98110	https://www.dinersdriveinsdiveslocations.com/big-star-diner-washington.html
MIKE'S CHILI PARLOR	1447 N.W. Ballard Way	Seattle	WA	98107	https://www.dinersdriveinsdiveslocations.com/mikes-chili-parlor-washington.html
BOBBY'S HAWAIIAN STYLE RESTAURANT	1011 Hewitt Ave. W.	Everett	WA	98201	https://www.dinersdriveinsdiveslocations.com/bobbys-hawaiian-style-restaurant-washington.html
BIZZARRO ITALIAN CAFE	1307 N 46th St.	Seattle	WA	98103	https://www.dinersdriveinsdiveslocations.com/bizzarro-italian-cafe-washington.html
SLIM'S LAST CHANCE	5606 1st Ave S	Seattle	WA	98108	https://www.dinersdriveinsdiveslocations.com/slims-last-chance-chili-shack-watering-hole-washington.html
SOUTHERN KITCHEN RESTAURANT	1716 6th Ave	Tacoma	WA	98405	https://www.dinersdriveinsdiveslocations.com/southern-kitchen-restaurant-washington.html
GEORGIA'S GREEK RESTAURANT & DELI	323 NW 85th Street	Seattle	WA	98117	https://www.dinersdriveinsdiveslocations.com/georgias-greek-restaurant-deli-washington.html
PAM'S KITCHEN	5000 University Way NE	Seattle	WA	98105	https://www.dinersdriveinsdiveslocations.com/pams-kitchen-washington.html
CHAPS COFFEE CO	4235 S. Cheney-Spokane Rd.	Spokane	WA	99224	https://www.dinersdriveinsdiveslocations.com/chaps-coffee-co-washington.html
ELK PUBLIC HOUSE	1931 West Pacific Avenue	Spokane	WA	99201	https://www.dinersdriveinsdiveslocations.com/elk-public-house-washington.html
HILLS' RESTAURANT & LOUNGE	401 W Main Ave.	Spokane	WA	99201	https://www.dinersdriveinsdiveslocations.com/hills-restaurant-and-lounge-washington.html
PICABU NEIGHBORHOOD BISTRO	901 W 14th Avenue	Spokane	WA	99204	https://www.dinersdriveinsdiveslocations.com/picabu-neighborhood-bistro-washington.html
WADDELL'S PUB & GRILLE	4318 South Regal	Spokane	WA	99223	https://www.dinersdriveinsdiveslocations.com/waddells-pub-and-grille-washington.html
DARBY'S CAFE	211 5th Ave SE	Olympia	WA	98501	https://www.dinersdriveinsdiveslocations.com/darbys-cafe-washington.html
FISH TALE BREW PUB	515 Jefferson St SE	Olympia	WA	98501	https://www.dinersdriveinsdiveslocations.com/fish-tale-brew-pub-washington.html
CROCKETT'S PUBLIC HOUSE	118 E. Stewart Ave.	Puyallup	WA	98372	https://www.dinersdriveinsdiveslocations.com/crocketts-public-house-washington.html
BRUNO'S EUROPEAN RESTAURANT	10716 A St S	Tacoma	WA	98444	https://www.dinersdriveinsdiveslocations.com/brunos-european-restaurant-washington.html
CROWN BAR	2705 6th Ave	Tacoma	WA	98406	https://www.dinersdriveinsdiveslocations.com/crown-bar-washington.html
DIRTY OSCAR'S ANNEX	2309 6th Ave	Tacoma	WA	98403	https://www.dinersdriveinsdiveslocations.com/dirty-oscars-annex-washington.html
WOOD SHOP BBQ	2513 S Jackson St	Seattle	WA	98144	https://www.dinersdriveinsdiveslocations.com/wood-shop-bbq-washington.html
PIZZERIA CREDO	4520 California Ave SW	Seattle	WA	98116	https://www.dinersdriveinsdiveslocations.com/pizzeria-credo-washington.html
THE RED DOOR	3401 Evanston Ave N	Seattle	WA	98103	https://www.dinersdriveinsdiveslocations.com/the-red-door-washington.html
SISTERS AND BROTHERS BAR	1128 S Albro Pl	Seattle	WA	98108	https://www.dinersdriveinsdiveslocations.com/sisters-and-brothers-bar-washington.html
PIROSHKI ON 3RD	710 3rd Ave	Seattle	WA	98104	https://www.dinersdriveinsdiveslocations.com/piroshki-on-3rd-washington.html
BOK-A-BOK	1521 SW 98th St, Ste D	Seattle	WA	98106	https://www.dinersdriveinsdiveslocations.com/bok-a-bok-washington.html
RUINS	825 N Monroe St	Spokane	WA	99201	https://www.dinersdriveinsdiveslocations.com/ruins-washington.html
NORDIC SMOKE BBQ	14908 South Keeney Road	Spokane	WA	99224	https://www.dinersdriveinsdiveslocations.com/nordic-smoke-bbq-washington.html
PORTER'S REAL BARBECUE	1022 N Columbia Center Blvd	Kennewick	WA	99336	https://www.dinersdriveinsdiveslocations.com/porters-real-barbecue-washington.html
FROST ME SWEET BAKERY & BISTRO	710 The Pkwy	Richland	WA	99352	https://www.dinersdriveinsdiveslocations.com/frost-me-sweet-bakery-bistro-washington.html
ETHOS BAKERY AND CAFE	2150 Keene Rd	Richland	WA	99352	https://www.dinersdriveinsdiveslocations.com/ethos-bakery-cafe-washington.html
BARLEY'S BREWHUB	3320 W Kennewick Ave	Kennewick	WA	99336	https://www.dinersdriveinsdiveslocations.com/barleys-brewhub-washington.html
VINNY'S BAKERY AND CAFE	1107 W Lewis St	Pasco	WA	99301	https://www.dinersdriveinsdiveslocations.com/vinnys-bakery-cafe-washington.html
THE FOLDED PIZZA PIE	421 Wellsian Way	Richland	WA	99352	https://www.dinersdriveinsdiveslocations.com/the-folded-pizza-pie-washington.html
GINGERBREAD FACTORY	829 Front St	Leavenworth	WA	98826	https://www.dinersdriveinsdiveslocations.com/gingerbread-factory-washington.html
NORTHWEST SAUSAGE AND DELI	5945 Prather Rd SW	Centralia	WA	98531	https://www.dinersdriveinsdiveslocations.com/northwest-sausage-deli-washington.html
MACKINAW'S	545 N Market Blvd #1	Chehalis	WA	98532	https://www.dinersdriveinsdiveslocations.com/mackinaws-washington.html
ONCE UPON A THYME	1090 NW State Ave	Chehalis	WA	98532	https://www.dinersdriveinsdiveslocations.com/once-upon-a-thyme-washington.html
59ER DINER	15361 US-2	Leavenworth	WA	98826	https://www.dinersdriveinsdiveslocations.com/59er-diner-washington.html
ERROR	ERROR	ERROR	ERROR	ERROR	ERROR
HILLBILLY HOT DOGS	6951 Ohio River Rd.	Lesage	WV	25537	https://www.dinersdriveinsdiveslocations.com/hillbilly-hot-dogs-west-virginia.html
CENTRAL CITY CAFE	529 14th St. W.	Huntington	WV	25704	https://www.dinersdriveinsdiveslocations.com/central-city-cafe-west-virignia.html
FRANK'S DINER	508 58th St.	Kenosha	WI	53140	https://www.dinersdriveinsdiveslocations.com/franks-diner-wisconsin.html
COMET CAFE	1947 N Farwell Ave.	Milwaukee	WI	53202	https://www.dinersdriveinsdiveslocations.com/comet-cafe-wisconsin.html
CEMPAZUCHI	1205 East Brady St.	Milwaukee	WI	53202	https://www.dinersdriveinsdiveslocations.com/cempazuchi-wisconsin.html
ANCHOR BAR	413 Tower Avenue	Superior	WI	54880	https://www.dinersdriveinsdiveslocations.com/anchor-bar-wisconsin.html
SHORTY'S PIZZA & MEAT	1015 Tower Ave	Superior	WI	54880	https://www.dinersdriveinsdiveslocations.com/shortys-pizza-and-smoked-meat-wisconsin.html
KOUNTY QUARTHOUSE	4119 S County Rd K	South Range	WI	54874	https://www.dinersdriveinsdiveslocations.com/kounty-quarthouse-wisconsin.html
THE BRICK HOUSE CAFE	13458 Reynolds Street	Cable	WI	54821	https://www.dinersdriveinsdiveslocations.com/the-brick-house-cafe-catering-wisconsin.html
DELTA DINER	14385 County Highway H	Delta	WI	54856	https://www.dinersdriveinsdiveslocations.com/delta-diner-wisconsin.html
SIDEWINDERS AMERICAN GRILL	945 West Broadway	Jackson Hole	WY	83001	https://www.dinersdriveinsdiveslocations.com/sidewinders-american-grill-wyoming.html
PINKY G'S PIZZERIA	50 W Broadway	Jackson	WY	83001	https://www.dinersdriveinsdiveslocations.com/pinky-gs-pizzeria-wyoming.html
PICA'S MEXICAN TAQUERIA	1160 Alpine Ln	Jackson	WY	83001	https://www.dinersdriveinsdiveslocations.com/picas-mexican-taqueria-wyoming.html
NORA'S FISH CREEK INN	5600 W Hwy 22	Wilson	WY	83014	https://www.dinersdriveinsdiveslocations.com/noras-fish-creek-inn-wyoming.html
LOTUS CAFE	145 N Glenwood St	Jackson	WY	83001	https://www.dinersdriveinsdiveslocations.com/lotus-cafe-wyoming.html
CAFE GENEVIEVE	135 E Broadway	Jackson	WY	83001	https://www.dinersdriveinsdiveslocations.com/cafe-genevieve-wyoming.html
SWEET MELISSA CAFE	213 S 1st St	Laramie	WY	82070	https://www.dinersdriveinsdiveslocations.com/sweet-melissa-cafe-wyoming.html
BORN IN A BARN	100 E Ivinson Ave	Laramie	WY	82070	https://www.dinersdriveinsdiveslocations.com/born-in-a-barn-wyoming.html
J'S PRARIE ROSE CAFE	410 S 2nd St	Laramie	WY	82070	https://www.dinersdriveinsdiveslocations.com/js-prairie-rose-cafe-wyoming.html
CROWBAR AND GRILL	202 S 2nd St	Laramie	WY	82070	https://www.dinersdriveinsdiveslocations.com/crowbar-and-grill-wyoming.html
ALIBI WOOD FIRE	404 S 4th St	Laramie	WY	82070	https://www.dinersdriveinsdiveslocations.com/alibi-wood-fire-wyoming.html
WEITZELS WINGS AKA DOUBLE DUB'S	1010 S 3rd St	Laramie	WY	82070	https://www.dinersdriveinsdiveslocations.com/weitzels-wings-aka-double-dubs-wyoming.html
